{"type":"FeatureCollection", "features": [
{"type":"Feature","geometry":{"type":"Polygon","coordinates":[[[19.371602756152164,41.958185783611725],[19.371381331089964,41.958159656560646],[19.37138954870883,41.95811961083868],[19.37156885101141,41.95813765027904],[19.37156498409024,41.95815906342537],[19.37160682132293,41.9581632725894],[19.371602756152164,41.958185783611725]]]},"properties":{"NR_PASURIS":"","SIPERFAQJA":79}},
{"type":"Feature","geometry":{"type":"Polygon","coordinates":[[[19.37977756625095,41.960437730980914],[19.37979207048114,41.96042567233544],[19.379760655619123,41.96040462248416],[19.379796916173355,41.960374475871916],[19.379985405640102,41.96050077479264],[19.379949145101676,41.96053092146386],[19.37991773013617,41.96050987165523],[19.37990322591016,41.96052193031649],[19.37977756625095,41.960437730980914]]]},"properties":{"NR_PASURIS":"","SIPERFAQJA":120}},
{"type":"Feature","geometry":{"type":"Polygon","coordinates":[[[19.38010816798928,41.96046408215632],[19.38020771688448,41.96038565578519],[19.38030841477387,41.960456860920395],[19.380208865889223,41.960535287377965],[19.38010816798928,41.96046408215632]]]},"properties":{"NR_PASURIS":"","SIPERFAQJA":138}},
{"type":"Feature","geometry":{"type":"Polygon","coordinates":[[[19.38037811271938,41.9603865435649],[19.38049481451663,41.96036378292675],[19.380526834142678,41.96045524181023],[19.38041013218914,41.960478002479526],[19.38037811271938,41.9603865435649]]]},"properties":{"NR_PASURIS":"","SIPERFAQJA":105}},
{"type":"Feature","geometry":{"type":"Polygon","coordinates":[[[19.380124618105338,41.96027298968223],[19.380129445781396,41.96027246499472],[19.380148327655185,41.96037002621518],[19.380017008633686,41.960384185685506],[19.379998012496053,41.96028674951519],[19.38000173817136,41.96028634460101],[19.380124618105338,41.96027298968223]]]},"properties":{"NR_PASURIS":"","SIPERFAQJA":120}},
{"type":"Feature","geometry":{"type":"Polygon","coordinates":[[[19.380124618105338,41.96027298968223],[19.38000173817136,41.96028634460101],[19.379985091988512,41.96019264419314],[19.380108256877577,41.960180454782154],[19.380101881203863,41.960144716680645],[19.380153294563918,41.96013961058495],[19.38015966895981,41.96017536657889],[19.380174017746306,41.96017394648932],[19.380184323695925,41.96023195715451],[19.380118558353868,41.96023846588967],[19.380124618105338,41.96027298968223]]]},"properties":{"NR_PASURIS":"","SIPERFAQJA":160}},
{"type":"Feature","geometry":{"type":"Polygon","coordinates":[[[19.38000303990377,41.96000581992],[19.380065937351507,41.96009534332512],[19.380018247677114,41.96011469018121],[19.37999520693292,41.960083050439124],[19.379974011520364,41.96009164903123],[19.379931945402635,41.960033652018275],[19.38000303990377,41.96000581992]]]},"properties":{"NR_PASURIS":"","SIPERFAQJA":66}},
{"type":"Feature","geometry":{"type":"Polygon","coordinates":[[[19.380299611748434,41.96024425356425],[19.380445549383833,41.96021597677405],[19.38046524978283,41.96027261774474],[19.38044773725875,41.9602760109723],[19.380459860589344,41.96031086695419],[19.380383972925113,41.960325570916886],[19.380371849633278,41.960290714927325],[19.380319312026305,41.96030089455896],[19.380299611748434,41.96024425356425]]]},"properties":{"NR_PASURIS":"","SIPERFAQJA":107}},
{"type":"Feature","geometry":{"type":"Polygon","coordinates":[[[19.380837574342113,41.960095726915384],[19.380706435044246,41.96008067092097],[19.3807137703376,41.96004507819667],[19.38069588772068,41.96004302509614],[19.380707807570218,41.959985186919525],[19.38085682928274,41.960002295989526],[19.380837574342113,41.960095726915384]]]},"properties":{"NR_PASURIS":"","SIPERFAQJA":125}},
{"type":"Feature","geometry":{"type":"Polygon","coordinates":[[[19.381060146672606,41.960151549053386],[19.380907608490173,41.96013373871019],[19.380928115199673,41.96003589746352],[19.38108065315511,41.96005370777825],[19.381060146672606,41.960151549053386]]]},"properties":{"NR_PASURIS":"","SIPERFAQJA":141}},
{"type":"Feature","geometry":{"type":"Polygon","coordinates":[[[19.38142349781743,41.96001342907814],[19.381351848470732,41.96009464227328],[19.3812167059239,41.960030122738125],[19.38128690021615,41.95994821490971],[19.3814220426627,41.96001273436248],[19.38142349781743,41.96001342907814]]]},"properties":{"NR_PASURIS":"","SIPERFAQJA":144}},
{"type":"Feature","geometry":{"type":"Polygon","coordinates":[[[19.380326123328402,41.95986658527361],[19.38016256406976,41.95989793731673],[19.38015956370742,41.95988921745226],[19.380142039494025,41.95989257658541],[19.38011653646568,41.959818457730215],[19.380157426249642,41.95981061975738],[19.38016950170513,41.95980056332918],[19.38029801236579,41.95977592959122],[19.38030101274192,41.95978464945232],[19.38031269552592,41.959782410014135],[19.38033429826859,41.959845193009485],[19.38032027891478,41.9598478803377],[19.380326123328402,41.95986658527361]]]},"properties":{"NR_PASURIS":"","SIPERFAQJA":165}},
{"type":"Feature","geometry":{"type":"Polygon","coordinates":[[[19.38107062477256,41.9604177850032],[19.380988108409102,41.96046010862227],[19.38094867642335,41.96048086011772],[19.380903496668136,41.96043303449235],[19.380943623711563,41.96041301879089],[19.380963339687387,41.9604026430455],[19.380935536779905,41.96037321189686],[19.38099764204734,41.96034052829111],[19.381023359749495,41.96036775209018],[19.381049976279154,41.960353744814235],[19.38107291371282,41.960378025489824],[19.381046297177956,41.96039203277098],[19.38107062477256,41.9604177850032]]]},"properties":{"NR_PASURIS":"","SIPERFAQJA":113}},
{"type":"Feature","geometry":{"type":"Polygon","coordinates":[[[19.381150007540132,41.96055384204108],[19.381082342940726,41.960589233279265],[19.38100385448996,41.96050718327138],[19.38114152732562,41.960437350695855],[19.38121767206489,41.96051845076229],[19.381150007540132,41.96055384204108]]]},"properties":{"NR_PASURIS":"","SIPERFAQJA":153}},
{"type":"Feature","geometry":{"type":"Polygon","coordinates":[[[19.381150007540132,41.96055384204108],[19.381157826917327,41.960562200292756],[19.38118273960536,41.960588829827316],[19.38111598586791,41.960624402735206],[19.38109078182517,41.960598055077845],[19.381082342940726,41.960589233279265],[19.381150007540132,41.96055384204108]]]},"properties":{"NR_PASURIS":"","SIPERFAQJA":33}},
{"type":"Feature","geometry":{"type":"Polygon","coordinates":[[[19.38142587383243,41.96045006208773],[19.381449803441537,41.96045234372423],[19.38143681141722,41.960528250957346],[19.38141288178027,41.96052596931799],[19.381313573805812,41.96051650046149],[19.38132320329796,41.96046023981755],[19.381347132906917,41.96046252147543],[19.381353246847986,41.96042680042955],[19.38142862508644,41.960433987615104],[19.38142587383243,41.96045006208773]]]},"properties":{"NR_PASURIS":"","SIPERFAQJA":94}},
{"type":"Feature","geometry":{"type":"Polygon","coordinates":[[[19.381604576495096,41.96062324618207],[19.38158971344929,41.96053390390928],[19.381718990853088,41.96052192294727],[19.381732933880222,41.96061134780767],[19.381604576495096,41.96062324618207]]]},"properties":{"NR_PASURIS":"","SIPERFAQJA":108}},
{"type":"Feature","geometry":{"type":"Polygon","coordinates":[[[19.3816468139866,41.96009915553122],[19.381608494090425,41.96018451989904],[19.38157293446038,41.96017562733917],[19.381539871475134,41.960167359114635],[19.38156342935061,41.96011487992106],[19.381578191452075,41.96008199477001],[19.3816468139866,41.96009915553122]]]},"properties":{"NR_PASURIS":"","SIPERFAQJA":60}},
{"type":"Feature","geometry":{"type":"Polygon","coordinates":[[[19.3816468139866,41.96009915553122],[19.38169828091195,41.96011202607534],[19.381666858654377,41.9601820248723],[19.38163826588789,41.960174874564935],[19.381631368303786,41.96019024015144],[19.381608494090422,41.960184519899045],[19.3816468139866,41.96009915553122]]]},"properties":{"NR_PASURIS":"","SIPERFAQJA":40}},
{"type":"Feature","geometry":{"type":"Polygon","coordinates":[[[19.38149759813435,41.95986812235434],[19.38160197955949,41.95991673095453],[19.381528553763236,41.960004569148154],[19.381400635266758,41.95994499969051],[19.38136993486322,41.959930702999614],[19.381433783506765,41.95985432205251],[19.38145936715711,41.959866235947956],[19.381468944437675,41.959854778800526],[19.38149759813435,41.95986812235434]]]},"properties":{"NR_PASURIS":"","SIPERFAQJA":175}},
{"type":"Feature","geometry":{"type":"Polygon","coordinates":[[[19.38080678992185,41.96024544150515],[19.380705695588084,41.96023269352313],[19.380719761293225,41.96017055427756],[19.380743548169182,41.9601735538077],[19.3807515856896,41.96013804566449],[19.380828893010715,41.96014779409786],[19.38082085553187,41.9601833022467],[19.380844642417554,41.96018630175595],[19.38083057682992,41.96024844101742],[19.38080678992185,41.96024544150515]]]},"properties":{"NR_PASURIS":"","SIPERFAQJA":100}},
{"type":"Feature","geometry":{"type":"Polygon","coordinates":[[[19.381007866165454,41.96029230356604],[19.380912801774123,41.960279943143746],[19.380925636192877,41.96022495370342],[19.380943460748572,41.96022727128651],[19.38095339704577,41.960184698813535],[19.381030636752715,41.960194741634766],[19.381007866165454,41.96029230356604]]]},"properties":{"NR_PASURIS":"","SIPERFAQJA":81}},
{"type":"Feature","geometry":{"type":"Polygon","coordinates":[[[19.380856210413043,41.95985982422517],[19.38084290729119,41.95993115919751],[19.380755695922623,41.95992209872759],[19.380752370113594,41.95993993246761],[19.380702193707627,41.95993471956304],[19.380704688074843,41.959921344259165],[19.380656901039163,41.95991637956888],[19.38065856395656,41.95990746270032],[19.380646617200462,41.959906221524825],[19.380659089077927,41.959839345010664],[19.380856210413043,41.95985982422517]]]},"properties":{"NR_PASURIS":"","SIPERFAQJA":142}},
{"type":"Feature","geometry":{"type":"Polygon","coordinates":[[[19.38109538098055,41.959890427837074],[19.381082051771727,41.95996448545145],[19.380994840321716,41.95995542516271],[19.380991540927926,41.95997053629711],[19.38094136447723,41.95996532349678],[19.380943858795764,41.95995194818746],[19.38089607171748,41.95994698359648],[19.380910206224236,41.959871190181495],[19.38109538098055,41.959890427837074]]]},"properties":{"NR_PASURIS":"","SIPERFAQJA":137}},
{"type":"Feature","geometry":{"type":"Polygon","coordinates":[[[19.38030768596718,41.960653747452014],[19.380368803679325,41.96067566466884],[19.380369699140537,41.96067598578682],[19.380360700219875,41.96068996512628],[19.38033835670447,41.960724674546306],[19.380325309968235,41.96071999590344],[19.38029881712196,41.96076539193113],[19.38028249657805,41.96076008603422],[19.380251265316524,41.96074993257361],[19.38025220135389,41.96074833683307],[19.38030768596718,41.960653747452014]]]},"properties":{"NR_PASURIS":"","SIPERFAQJA":58}},
{"type":"Feature","geometry":{"type":"Polygon","coordinates":[[[19.380291746894873,41.96021543111069],[19.380253423613414,41.96009551634564],[19.38040012968512,41.96006955010618],[19.380437687827925,41.96018725619998],[19.380291746894873,41.96021543111069]]]},"properties":{"NR_PASURIS":"","SIPERFAQJA":170}},
{"type":"Feature","geometry":{"type":"Polygon","coordinates":[[[19.381686103238966,41.9600057084915],[19.381734523206035,41.9599540808445],[19.381815551460374,41.959996416052626],[19.38179134150291,41.960022229895806],[19.38180616375918,41.960029974138166],[19.38175724685953,41.96008134018549],[19.381747618927044,41.96007650865865],[19.381677167956116,41.96004115462942],[19.381702069162536,41.96001351125428],[19.381686103238966,41.9600057084915]]]},"properties":{"NR_PASURIS":"","SIPERFAQJA":91}},
{"type":"Feature","geometry":{"type":"Polygon","coordinates":[[[19.382281276588103,41.95708673380891],[19.382165900320718,41.957155052695825],[19.382071379566554,41.95707323706804],[19.38218281742358,41.95700150929255],[19.382281276588103,41.95708673380891]]]},"properties":{"NR_PASURIS":"","SIPERFAQJA":149}},
{"type":"Feature","geometry":{"type":"Polygon","coordinates":[[[19.382338932435058,41.95714169188412],[19.382301778119523,41.95710623512809],[19.382358781222933,41.957072955991386],[19.38239593555118,41.95710841272924],[19.382338932435058,41.95714169188412]]]},"properties":{"NR_PASURIS":"","SIPERFAQJA":30}},
{"type":"Feature","geometry":{"type":"Polygon","coordinates":[[[19.382134876882812,41.95694425666863],[19.382188050953825,41.95691316878018],[19.382214825562325,41.95693868386634],[19.38216165148282,41.95696977176701],[19.382134876882812,41.95694425666863]]]},"properties":{"NR_PASURIS":"","SIPERFAQJA":20}},
{"type":"Feature","geometry":{"type":"Polygon","coordinates":[[[19.382756092811345,41.95784498031733],[19.382664466475823,41.957767251776204],[19.382729665039914,41.95772443325214],[19.38282129139457,41.957802161741924],[19.382756092811345,41.95784498031733]]]},"properties":{"NR_PASURIS":"","SIPERFAQJA":83}},
{"type":"Feature","geometry":{"type":"Polygon","coordinates":[[[19.382112009887035,41.957924536037105],[19.382218825281136,41.957970099641074],[19.382164962998534,41.95804044769282],[19.382058147526518,41.95799488403877],[19.382112009887035,41.957924536037105]]]},"properties":{"NR_PASURIS":"","SIPERFAQJA":92}},
{"type":"Feature","geometry":{"type":"Polygon","coordinates":[[[19.381823834332025,41.95998794546132],[19.381714394406345,41.9599320152401],[19.381669676084858,41.95990916149681],[19.381698182188153,41.95987803442946],[19.381733034878735,41.959895815696605],[19.381794294477483,41.95982892380944],[19.38191378949921,41.9598898880107],[19.381823834332025,41.95998794546132]]]},"properties":{"NR_PASURIS":"","SIPERFAQJA":173}},
{"type":"Feature","geometry":{"type":"Polygon","coordinates":[[[19.381983430455577,41.96029427855244],[19.382099630336114,41.96024647459322],[19.3821578557016,41.9603253193149],[19.382120882998894,41.960340529696815],[19.382134857100127,41.96035945243002],[19.382097884372207,41.96037466280427],[19.382083910278695,41.96035574006668],[19.38204165571992,41.96037312333175],[19.381983430455577,41.96029427855244]]]},"properties":{"NR_PASURIS":"","SIPERFAQJA":118}},
{"type":"Feature","geometry":{"type":"Polygon","coordinates":[[[19.382769539263123,41.960437280838455],[19.382874239681957,41.96045868951558],[19.382851292956985,41.960521206368796],[19.382746592443986,41.96049979767034],[19.382769539263123,41.960437280838455]]]},"properties":{"NR_PASURIS":"","SIPERFAQJA":65}},
{"type":"Feature","geometry":{"type":"Polygon","coordinates":[[[19.383243555934637,41.960264997945],[19.38335390525853,41.960288047466626],[19.383337651721988,41.960331396155624],[19.383227302329534,41.96030834661809],[19.383243555934637,41.960264997945]]]},"properties":{"NR_PASURIS":"","SIPERFAQJA":48}},
{"type":"Feature","geometry":{"type":"Polygon","coordinates":[[[19.383380626759585,41.96035114337887],[19.383360349902432,41.960398242335145],[19.38330540198594,41.9603850640338],[19.383322518579135,41.96033909107657],[19.383380626759585,41.96035114337887]]]},"properties":{"NR_PASURIS":"","SIPERFAQJA":26}},
{"type":"Feature","geometry":{"type":"Polygon","coordinates":[[[19.36780022033229,41.958900762220054],[19.367733923770704,41.95891435368581],[19.367724339860715,41.95888830974616],[19.367709219594126,41.95889140954753],[19.367698677308304,41.958862761211584],[19.367715198997253,41.95885938323239],[19.367704113181432,41.958824301827825],[19.367767315520585,41.95881134470848],[19.36780022033229,41.958900762220054]]]},"properties":{"NR_PASURIS":"","SIPERFAQJA":62}},
{"type":"Feature","geometry":{"type":"Polygon","coordinates":[[[19.369990806399546,41.95912510653813],[19.369983936286683,41.959057780326745],[19.370032043998023,41.95905504548647],[19.370038914161313,41.95912237169535],[19.369990806399546,41.95912510653813]]]},"properties":{"NR_PASURIS":"","SIPERFAQJA":30}},
{"type":"Feature","geometry":{"type":"Polygon","coordinates":[[[19.369955064090746,41.95866519849835],[19.37008141711427,41.95865875365317],[19.370088242630654,41.958733303253766],[19.369964296187632,41.958739625347604],[19.369955064090746,41.95866519849835]]]},"properties":{"NR_PASURIS":"","SIPERFAQJA":86}},
{"type":"Feature","geometry":{"type":"Polygon","coordinates":[[[19.370044844037256,41.95843927539456],[19.37003256487431,41.95835605224002],[19.370170440020456,41.95834471886384],[19.370182719360987,41.958427942005024],[19.370044844037256,41.95843927539456]]]},"properties":{"NR_PASURIS":"","SIPERFAQJA":107}},
{"type":"Feature","geometry":{"type":"Polygon","coordinates":[[[19.370580853955246,41.95845735422099],[19.370582744025825,41.95849333789278],[19.370516455842647,41.958495277655985],[19.37051456580934,41.95845929398336],[19.370438635746925,41.95846151584593],[19.370433202034334,41.95835806278308],[19.370575420012813,41.95835390116323],[19.370580853955246,41.95845735422099]]]},"properties":{"NR_PASURIS":"","SIPERFAQJA":158}},
{"type":"Feature","geometry":{"type":"Polygon","coordinates":[[[19.370320869868944,41.95779656941959],[19.37048669460001,41.95777277431213],[19.370497624755288,41.95781521079235],[19.37033179991788,41.9578390059147],[19.370320869868944,41.95779656941959]]]},"properties":{"NR_PASURIS":"","SIPERFAQJA":67}},
{"type":"Feature","geometry":{"type":"Polygon","coordinates":[[[19.37170271483008,41.95896536390108],[19.371693522723035,41.958871083505656],[19.37182585179439,41.95886389577244],[19.371835044095725,41.95895817615871],[19.37170271483008,41.95896536390108]]]},"properties":{"NR_PASURIS":"","SIPERFAQJA":115}},
{"type":"Feature","geometry":{"type":"Polygon","coordinates":[[[19.371946052943684,41.958435393903805],[19.371966277323004,41.958569589992464],[19.371918333014293,41.958573615450206],[19.37189810873453,41.958439419353866],[19.371946052943684,41.958435393903805]]]},"properties":{"NR_PASURIS":"","SIPERFAQJA":60}},
{"type":"Feature","geometry":{"type":"Polygon","coordinates":[[[19.37289449649822,41.95914219838916],[19.372687732382747,41.95916319428753],[19.37267472450205,41.95909182905808],[19.37276197170799,41.95908296957181],[19.37276603669763,41.95910527120339],[19.372885553421153,41.95909313480902],[19.37289449649822,41.95914219838916]]]},"properties":{"NR_PASURIS":"","SIPERFAQJA":113}},
{"type":"Feature","geometry":{"type":"Polygon","coordinates":[[[19.372780625053185,41.9588843006692],[19.372788674269856,41.95895155408008],[19.372800688172806,41.9589507530256],[19.37280444448528,41.958982137949896],[19.37263624973593,41.95899335260288],[19.372624444451983,41.9588947142531],[19.372780625053185,41.9588843006692]]]},"properties":{"NR_PASURIS":"","SIPERFAQJA":146}},
{"type":"Feature","geometry":{"type":"Polygon","coordinates":[[[19.37308548576739,41.959594841549404],[19.373100833991458,41.959482890775746],[19.37325082385639,41.95949434640381],[19.37323547589163,41.95960629719905],[19.37308548576739,41.959594841549404]]]},"properties":{"NR_PASURIS":"","SIPERFAQJA":156}},
{"type":"Feature","geometry":{"type":"Polygon","coordinates":[[[19.373888006406336,41.959529001327475],[19.373761853172503,41.95953736135118],[19.37374638578856,41.95940733180293],[19.37387253876752,41.9593989717943],[19.373888006406336,41.959529001327475]]]},"properties":{"NR_PASURIS":"","SIPERFAQJA":152}},
{"type":"Feature","geometry":{"type":"Polygon","coordinates":[[[19.369200599782204,41.95605723445405],[19.36917855472777,41.95596414793609],[19.369237939899683,41.9559563121684],[19.369235840365956,41.95594744678647],[19.36928334848687,41.95594117815093],[19.369289697613752,41.95596798755214],[19.369420344952683,41.95595074869591],[19.36941399577258,41.95592393930148],[19.36946150385945,41.95591767059195],[19.36946465320586,41.955930968659004],[19.369506222782825,41.95592548352091],[19.369527218514186,41.956014137291355],[19.369200599782204,41.95605723445405]]]},"properties":{"NR_PASURIS":"","SIPERFAQJA":273}},
{"type":"Feature","geometry":{"type":"Polygon","coordinates":[[[19.37107252055118,41.95692798423974],[19.371001309148305,41.95693760373804],[19.370985199789885,41.956871161786914],[19.371056411120964,41.956861542298014],[19.37107252055118,41.95692798423974]]]},"properties":{"NR_PASURIS":"","SIPERFAQJA":45}},
{"type":"Feature","geometry":{"type":"Polygon","coordinates":[[[19.37092239197741,41.9573869027441],[19.370891594319538,41.95726297716338],[19.371051692372372,41.95724081024549],[19.37107479083026,41.95733375440161],[19.37104514300913,41.95733785940894],[19.371052842495754,41.957368840794935],[19.37092239197741,41.9573869027441]]]},"properties":{"NR_PASURIS":"","SIPERFAQJA":180}},
{"type":"Feature","geometry":{"type":"Polygon","coordinates":[[[19.37114672714267,41.95735360431031],[19.371112791523803,41.9572301361817],[19.37127229851207,41.9572057106849],[19.371297750436256,41.95729831174895],[19.371268212072966,41.95730283501211],[19.371276696050028,41.95733370203404],[19.37114672714267,41.95735360431031]]]},"properties":{"NR_PASURIS":"","SIPERFAQJA":180}},
{"type":"Feature","geometry":{"type":"Polygon","coordinates":[[[19.371783578746214,41.9573590502256],[19.371725653601523,41.957391430340145],[19.37171625440814,41.95738206250799],[19.371685360975764,41.95739933188775],[19.371616674660913,41.95733087461136],[19.371705493191094,41.957281225173986],[19.371783578746214,41.9573590502256]]]},"properties":{"NR_PASURIS":"","SIPERFAQJA":95}},
{"type":"Feature","geometry":{"type":"Polygon","coordinates":[[[19.371852928457177,41.95755378309353],[19.37180734257416,41.95756030398122],[19.37170860632764,41.95757442765598],[19.371682212924938,41.95745389362494],[19.371827473780744,41.957436351342224],[19.371829400193256,41.95744523860408],[19.371859166756543,41.957441643850785],[19.371880357372987,41.957539403723366],[19.371850590765263,41.95754299848179],[19.371852928457177,41.95755378309353]]]},"properties":{"NR_PASURIS":"","SIPERFAQJA":191}},
{"type":"Feature","geometry":{"type":"Polygon","coordinates":[[[19.37164396010687,41.95802937354412],[19.37159476536676,41.9580316504043],[19.371587823226477,41.957948084574696],[19.37163597695821,41.957945855894856],[19.371637320609096,41.95796202992604],[19.37173603577432,41.95795746106817],[19.371741634430183,41.958024852860085],[19.371693019684955,41.95802710291842],[19.37164396010687,41.95802937354412]]]},"properties":{"NR_PASURIS":"","SIPERFAQJA":99}},
{"type":"Feature","geometry":{"type":"Polygon","coordinates":[[[19.371693019684955,41.95802710291842],[19.371693803829206,41.958049766615275],[19.371645652203746,41.95805179146744],[19.37164396010687,41.95802937354412],[19.371693019684955,41.95802710291842]]]},"properties":{"NR_PASURIS":"","SIPERFAQJA":10}},
{"type":"Feature","geometry":{"type":"Polygon","coordinates":[[[19.372973736497975,41.95829868082131],[19.372986376334516,41.95822274055041],[19.37316592024207,41.95823938937315],[19.373153280614936,41.958315329665005],[19.372973736497975,41.95829868082131]]]},"properties":{"NR_PASURIS":"","SIPERFAQJA":128}},
{"type":"Feature","geometry":{"type":"Polygon","coordinates":[[[19.374455967541984,41.958270697274195],[19.37440930318534,41.95829138843282],[19.374378501932526,41.958252687947144],[19.374425166270594,41.95823199680078],[19.374455967541984,41.958270697274195]]]},"properties":{"NR_PASURIS":"","SIPERFAQJA":22}},
{"type":"Feature","geometry":{"type":"Polygon","coordinates":[[[19.375015020676265,41.95869341610685],[19.375027370300188,41.95867588555952],[19.37501455929497,41.958670857700916],[19.375022979490918,41.958658905055145],[19.375035790494426,41.95866393291281],[19.375041403955493,41.958655964481295],[19.37508197214304,41.958671886019204],[19.375075235993926,41.958681448139366],[19.375085911837274,41.95868563801602],[19.37507749164946,41.95869759066642],[19.37506681580469,41.958693400788974],[19.37505558888077,41.958709337654106],[19.375015020676265,41.95869341610685]]]},"properties":{"NR_PASURIS":"","SIPERFAQJA":21}},
{"type":"Feature","geometry":{"type":"Polygon","coordinates":[[[19.37543833328506,41.95871920954703],[19.375351500042264,41.95862175701221],[19.375459968168382,41.95856791300521],[19.375546801505337,41.95866536545953],[19.37543833328506,41.95871920954703]]]},"properties":{"NR_PASURIS":"","SIPERFAQJA":140}},
{"type":"Feature","geometry":{"type":"Polygon","coordinates":[[[19.37552374647353,41.958506455207115],[19.375535126041456,41.95852632253297],[19.37549630882,41.958538709195864],[19.37548492926203,41.958518841866294],[19.37552374647353,41.958506455207115]]]},"properties":{"NR_PASURIS":"","SIPERFAQJA":8}},
{"type":"Feature","geometry":{"type":"Polygon","coordinates":[[[19.37408687311588,41.958585497391894],[19.374136664384654,41.95860321147585],[19.3740996171991,41.958661837841056],[19.374049825895344,41.95864412374097],[19.374086680060444,41.95858580289785],[19.37408687311588,41.958585497391894]]]},"properties":{"NR_PASURIS":"","SIPERFAQJA":33}},
{"type":"Feature","geometry":{"type":"Polygon","coordinates":[[[19.373388033933782,41.9586725355968],[19.373529953956687,41.95865131292271],[19.37355601807308,41.958748414422885],[19.37343183787644,41.958766984299004],[19.3734081433871,41.95867871018398],[19.37339040337684,41.958681363008964],[19.373388033933782,41.9586725355968]]]},"properties":{"NR_PASURIS":"","SIPERFAQJA":117}},
{"type":"Feature","geometry":{"type":"Polygon","coordinates":[[[19.374664184542596,41.95924561508885],[19.374589815198256,41.95935373692959],[19.374498607376694,41.959318786987694],[19.37457297683314,41.959210665206136],[19.374664184542596,41.95924561508885]]]},"properties":{"NR_PASURIS":"","SIPERFAQJA":115}},
{"type":"Feature","geometry":{"type":"Polygon","coordinates":[[[19.374947570469192,41.95916621593324],[19.374819191437577,41.95909901543706],[19.374895373690155,41.95901793594426],[19.375023752641138,41.95908513635563],[19.374982198753187,41.959129361586356],[19.374947570469192,41.95916621593324]]]},"properties":{"NR_PASURIS":"","SIPERFAQJA":143}},
{"type":"Feature","geometry":{"type":"Polygon","coordinates":[[[19.374982198753187,41.959129361586356],[19.375011824713546,41.95914486936403],[19.374977196438007,41.95918172371981],[19.374947570469192,41.95916621593324],[19.374982198753187,41.959129361586356]]]},"properties":{"NR_PASURIS":"","SIPERFAQJA":15}},
{"type":"Feature","geometry":{"type":"Polygon","coordinates":[[[19.375666266030304,41.96002669098028],[19.375684361307528,41.959928585142315],[19.375815802878776,41.95994209106796],[19.37579770779886,41.96004019692775],[19.375666266030304,41.96002669098028]]]},"properties":{"NR_PASURIS":"","SIPERFAQJA":121}},
{"type":"Feature","geometry":{"type":"Polygon","coordinates":[[[19.37869671833211,41.95977612125466],[19.378706531374537,41.959718063004026],[19.378793890816738,41.959726288738395],[19.37878407785217,41.95978434699694],[19.37869671833211,41.95977612125466]]]},"properties":{"NR_PASURIS":"","SIPERFAQJA":47}},
{"type":"Feature","geometry":{"type":"Polygon","coordinates":[[[19.378409913242432,41.95953304722403],[19.37826868174267,41.95951987438789],[19.37828662972409,41.95941267415003],[19.378316551597724,41.959415465014665],[19.378320290742412,41.95939313163008],[19.37843160009788,41.959403513574344],[19.378409913242432,41.95953304722403]]]},"properties":{"NR_PASURIS":"","SIPERFAQJA":165}},
{"type":"Feature","geometry":{"type":"Polygon","coordinates":[[[19.372384779580756,41.95963412633319],[19.37239191950417,41.959593965637964],[19.372525838540643,41.95960722921735],[19.372518698699636,41.95964738992138],[19.372384779580756,41.95963412633319]]]},"properties":{"NR_PASURIS":"","SIPERFAQJA":50}},
{"type":"Feature","geometry":{"type":"Polygon","coordinates":[[[19.379252142677878,41.95986291056064],[19.379215917141998,41.9598754962164],[19.379172651101673,41.95980611976482],[19.379318090293808,41.95975559046797],[19.379340995899092,41.95979231915143],[19.379361356459036,41.95982496686619],[19.379290416189523,41.959849613369066],[19.379252142677878,41.95986291056064]]]},"properties":{"NR_PASURIS":"","SIPERFAQJA":113}},
{"type":"Feature","geometry":{"type":"Polygon","coordinates":[[[19.379340995899092,41.95979231915143],[19.379318090293808,41.95975559046797],[19.379350896095097,41.95974419285648],[19.379373801715285,41.95978092153358],[19.379340995899092,41.95979231915143]]]},"properties":{"NR_PASURIS":"","SIPERFAQJA":13}},
{"type":"Feature","geometry":{"type":"Polygon","coordinates":[[[19.379252142677878,41.95986291056064],[19.379290416189523,41.959849613369066],[19.37930314153205,41.95987001819658],[19.379264868010733,41.9598833153923],[19.379252142677878,41.95986291056064]]]},"properties":{"NR_PASURIS":"","SIPERFAQJA":9}},
{"type":"Feature","geometry":{"type":"Polygon","coordinates":[[[19.379507761989235,41.9605049550895],[19.37950815502373,41.960464443397456],[19.37960464880544,41.960464964871214],[19.379604255832064,41.960505476563995],[19.379507761989235,41.9605049550895]]]},"properties":{"NR_PASURIS":"","SIPERFAQJA":36}},
{"type":"Feature","geometry":{"type":"Polygon","coordinates":[[[19.37971980968804,41.96065645526059],[19.379685909864,41.96063767537238],[19.379718260291146,41.960605144238905],[19.37975216010767,41.96062392411763],[19.37971980968804,41.96065645526059]]]},"properties":{"NR_PASURIS":"","SIPERFAQJA":16}},
{"type":"Feature","geometry":{"type":"Polygon","coordinates":[[[19.37974314735397,41.960593673210916],[19.37973022146754,41.96058704745838],[19.379743878744172,41.960572205040556],[19.379756804629064,41.96057883079154],[19.37974314735397,41.960593673210916]]]},"properties":{"NR_PASURIS":"","SIPERFAQJA":3}},
{"type":"Feature","geometry":{"type":"Polygon","coordinates":[[[19.375468544020745,41.95760474158497],[19.37545450693911,41.95751079425866],[19.375586365682125,41.95749981782095],[19.375600402955417,41.957593765132614],[19.375468544020745,41.95760474158497]]]},"properties":{"NR_PASURIS":"","SIPERFAQJA":115}},
{"type":"Feature","geometry":{"type":"Polygon","coordinates":[[[19.375831768540603,41.95774225363068],[19.375819658921976,41.95763911633759],[19.375945821108317,41.957630863508555],[19.375955824870683,41.95771606387157],[19.375877724369857,41.95772117278814],[19.375879830406546,41.95773910970769],[19.375831768540603,41.95774225363068]]]},"properties":{"NR_PASURIS":"","SIPERFAQJA":108}},
{"type":"Feature","geometry":{"type":"Polygon","coordinates":[[[19.37602759302617,41.95756838337727],[19.37601638999403,41.957496847772624],[19.3761601488223,41.95748430457086],[19.376171352013362,41.95755584016271],[19.37602759302617,41.95756838337727]]]},"properties":{"NR_PASURIS":"","SIPERFAQJA":96}},
{"type":"Feature","geometry":{"type":"Polygon","coordinates":[[[19.37661303915733,41.95725740364157],[19.376650128462018,41.95714554211852],[19.37680233489626,41.957173658606465],[19.37677973376847,41.95724182425454],[19.37669543471952,41.95722625205367],[19.376680946737505,41.957269947968115],[19.37661303915733,41.95725740364157]]]},"properties":{"NR_PASURIS":"","SIPERFAQJA":130}},
{"type":"Feature","geometry":{"type":"Polygon","coordinates":[[[19.37692869826687,41.95717425871373],[19.376952799760666,41.957090645149805],[19.377005861810193,41.95709916659719],[19.376981760382282,41.95718278017258],[19.37692869826687,41.95717425871373]]]},"properties":{"NR_PASURIS":"","SIPERFAQJA":43}},
{"type":"Feature","geometry":{"type":"Polygon","coordinates":[[[19.376453239224055,41.95836791560856],[19.376498700772277,41.95830438731909],[19.376530618003954,41.958317112040184],[19.376519252631002,41.95833299411752],[19.37655116988105,41.958345718832945],[19.376573900610094,41.958313954670736],[19.37661645694846,41.95833092093582],[19.376570995497463,41.9583944492723],[19.376517800040798,41.95837324141741],[19.37650643465454,41.958389123493234],[19.376453239224055,41.95836791560856]]]},"properties":{"NR_PASURIS":"","SIPERFAQJA":72}},
{"type":"Feature","geometry":{"type":"Polygon","coordinates":[[[19.379699546531565,41.94929162092781],[19.379592249157856,41.949206286876226],[19.37970216313873,41.94912926904259],[19.379809460532346,41.94921460299271],[19.379699546531565,41.94929162092781]]]},"properties":{"NR_PASURIS":"","SIPERFAQJA":163}},
{"type":"Feature","geometry":{"type":"Polygon","coordinates":[[[19.37987460240931,41.95748116576306],[19.379840356158628,41.95742338722564],[19.380027628754593,41.95737311866213],[19.380056200221528,41.95743242044113],[19.37987460240931,41.95748116576306]]]},"properties":{"NR_PASURIS":"","SIPERFAQJA":114}},
{"type":"Feature","geometry":{"type":"Polygon","coordinates":[[[19.379971185167943,41.956889804349366],[19.379955348084597,41.9568463700357],[19.38004845232366,41.95682745622045],[19.380064289465857,41.9568708905218],[19.379971185167943,41.956889804349366]]]},"properties":{"NR_PASURIS":"","SIPERFAQJA":40}},
{"type":"Feature","geometry":{"type":"Polygon","coordinates":[[[19.380129879405718,41.95701474480883],[19.38009180274863,41.956915189539174],[19.380143993791826,41.956904068222954],[19.380182070523922,41.957003623475984],[19.380129879405718,41.95701474480883]]]},"properties":{"NR_PASURIS":"","SIPERFAQJA":52}},
{"type":"Feature","geometry":{"type":"Polygon","coordinates":[[[19.38083478458015,41.95692966302919],[19.380684021345292,41.956928849861534],[19.380684805825066,41.95684782640847],[19.380648622695446,41.95684763121933],[19.38064901495704,41.95680711949264],[19.38083596101219,41.95680812784571],[19.38083478458015,41.95692966302919]]]},"properties":{"NR_PASURIS":"","SIPERFAQJA":182}},
{"type":"Feature","geometry":{"type":"Polygon","coordinates":[[[19.38135413614064,41.956901884946944],[19.38122749506551,41.956901202472636],[19.3812282353123,41.95682468031432],[19.381354876235953,41.95682536278681],[19.38135413614064,41.956901884946944]]]},"properties":{"NR_PASURIS":"","SIPERFAQJA":89}},
{"type":"Feature","geometry":{"type":"Polygon","coordinates":[[[19.381708438424273,41.957009219007],[19.381639324185,41.95695261389225],[19.381733279888344,41.95688269305152],[19.381806400208504,41.95694257910734],[19.381708438424273,41.957009219007]]]},"properties":{"NR_PASURIS":"","SIPERFAQJA":96}},
{"type":"Feature","geometry":{"type":"Polygon","coordinates":[[[19.381365202209036,41.95735472398716],[19.381277171397073,41.95737026938104],[19.381217468288582,41.957181908016615],[19.38130549885471,41.95716636266637],[19.381365202209036,41.95735472398716]]]},"properties":{"NR_PASURIS":"","SIPERFAQJA":161}},
{"type":"Feature","geometry":{"type":"Polygon","coordinates":[[[19.380017721153983,41.957757612786075],[19.379977473210765,41.95772408982549],[19.37996849075384,41.95773009811408],[19.37995239158876,41.95771668892468],[19.379997303854505,41.95768664748075],[19.380053650968826,41.95773357961208],[19.380017721153983,41.957757612786075]]]},"properties":{"NR_PASURIS":"","SIPERFAQJA":30}},
{"type":"Feature","geometry":{"type":"Polygon","coordinates":[[[19.381333206980965,41.957630768343215],[19.38131149819161,41.95756522013959],[19.38135247980939,41.957557658415766],[19.381342349037507,41.95752706925597],[19.381441875738982,41.95750870501671],[19.381473715480954,41.95760484234638],[19.381333206980965,41.957630768343215]]]},"properties":{"NR_PASURIS":"","SIPERFAQJA":120}},
{"type":"Feature","geometry":{"type":"Polygon","coordinates":[[[19.381166461842756,41.95800735651504],[19.38113338796628,41.957996400514425],[19.381177422915755,41.95792234083714],[19.381210496761796,41.95793329682501],[19.381166461842756,41.95800735651504]]]},"properties":{"NR_PASURIS":"","SIPERFAQJA":27}},
{"type":"Feature","geometry":{"type":"Polygon","coordinates":[[[19.38009341695821,41.958729231819525],[19.38004764648149,41.95862674160337],[19.380173516566405,41.9585954254577],[19.380219287223625,41.958697915625436],[19.38009341695821,41.958729231819525]]]},"properties":{"NR_PASURIS":"","SIPERFAQJA":132}},
{"type":"Feature","geometry":{"type":"Polygon","coordinates":[[[19.382015891520112,41.959569069860116],[19.38200958496748,41.95952883147666],[19.382057505652597,41.95952464734599],[19.382063812235025,41.95956488572704],[19.382015891520112,41.959569069860116]]]},"properties":{"NR_PASURIS":"","SIPERFAQJA":18}},
{"type":"Feature","geometry":{"type":"Polygon","coordinates":[[[19.381870640546744,41.959406179492625],[19.381900674521663,41.95935212503961],[19.38201543423384,41.95938764739763],[19.381985400338518,41.959441701880856],[19.381870640546744,41.959406179492625]]]},"properties":{"NR_PASURIS":"","SIPERFAQJA":67}},
{"type":"Feature","geometry":{"type":"Polygon","coordinates":[[[19.382208755931185,41.95904504090208],[19.382282666749443,41.9590689213388],[19.382229958967994,41.95915980307702],[19.382141405377734,41.959131191574215],[19.382194113260454,41.95904030987688],[19.382208755931185,41.95904504090208]]]},"properties":{"NR_PASURIS":"","SIPERFAQJA":88}},
{"type":"Feature","geometry":{"type":"Polygon","coordinates":[[[19.382414675295298,41.95922413073551],[19.38227142018015,41.95917654100859],[19.382340084407943,41.959061391534384],[19.382354774911093,41.959066271767874],[19.38237314321434,41.959072373774966],[19.3823729397509,41.95907271498283],[19.382358429482352,41.959097048670344],[19.382468625620085,41.95913365608477],[19.382414675295298,41.95922413073551]]]},"properties":{"NR_PASURIS":"","SIPERFAQJA":152}},
{"type":"Feature","geometry":{"type":"Polygon","coordinates":[[[19.38249775917426,41.95908523314672],[19.38238664764174,41.95905020126842],[19.382435929212644,41.958963121653255],[19.38254704062202,41.958998153483556],[19.38249775917426,41.95908523314672]]]},"properties":{"NR_PASURIS":"","SIPERFAQJA":105}},
{"type":"Feature","geometry":{"type":"Polygon","coordinates":[[[19.381951196338207,41.958598745377145],[19.38192078048494,41.958505128369985],[19.382032138755793,41.95848497199798],[19.382062554763177,41.958578588976984],[19.381951196338207,41.958598745377145]]]},"properties":{"NR_PASURIS":"","SIPERFAQJA":102}},
{"type":"Feature","geometry":{"type":"Polygon","coordinates":[[[19.37986180896996,41.95924806788978],[19.37985938707317,41.959162560047815],[19.379986007612104,41.95916056201082],[19.379988429678168,41.959246069851275],[19.37986180896996,41.95924806788978]]]},"properties":{"NR_PASURIS":"","SIPERFAQJA":100}},
{"type":"Feature","geometry":{"type":"Polygon","coordinates":[[[19.38000177756467,41.95903273817747],[19.380011111753756,41.959145057771686],[19.379931656636757,41.95914873631242],[19.379929416461998,41.95912177960876],[19.37987644640155,41.95912423193777],[19.37986935259687,41.959038869039006],[19.38000177756467,41.95903273817747]]]},"properties":{"NR_PASURIS":"","SIPERFAQJA":124}},
{"type":"Feature","geometry":{"type":"Polygon","coordinates":[[[19.38251647045428,41.959544639601205],[19.382492658869317,41.95944721622354],[19.38261131901676,41.959431059170605],[19.382635130777043,41.95952848252511],[19.38251647045428,41.959544639601205]]]},"properties":{"NR_PASURIS":"","SIPERFAQJA":110}},
{"type":"Feature","geometry":{"type":"Polygon","coordinates":[[[19.38190249411596,41.95819791759741],[19.381847666740793,41.95815608835328],[19.381826112510137,41.958171828114885],[19.38177128520752,41.95812999883457],[19.381874745413857,41.95805444798979],[19.38192535523288,41.958093059589],[19.38196415274867,41.95806472798058],[19.38202319761639,41.95810977479859],[19.38190249411596,41.95819791759741]]]},"properties":{"NR_PASURIS":"","SIPERFAQJA":171}},
{"type":"Feature","geometry":{"type":"Polygon","coordinates":[[[19.382219852217336,41.958063093201574],[19.382271243800297,41.95799687740127],[19.382391267083847,41.958048774778945],[19.38237010589022,41.95807604013355],[19.382396197941567,41.95808732216048],[19.3823659676439,41.958126272666725],[19.382319001939436,41.95810596500164],[19.382303886767367,41.95812544024542],[19.382225610644287,41.958091594084244],[19.38224072583194,41.95807211885077],[19.382219852217336,41.958063093201574]]]},"properties":{"NR_PASURIS":"","SIPERFAQJA":129}},
{"type":"Feature","geometry":{"type":"Polygon","coordinates":[[[19.382419645926884,41.959918975851],[19.382460599906832,41.95994691643057],[19.38239549619879,41.96000007709398],[19.382335185056412,41.95996258932642],[19.38234983340268,41.9599506281881],[19.38230976977176,41.95992329497427],[19.38236266653609,41.95988010197703],[19.38237691137729,41.95988982044816],[19.382407021810383,41.95986523365017],[19.382449756357556,41.95989438904189],[19.382419645926884,41.959918975851]]]},"properties":{"NR_PASURIS":"","SIPERFAQJA":100}},
{"type":"Feature","geometry":{"type":"Polygon","coordinates":[[[19.382976461360805,41.959597340886475],[19.38311964951321,41.959581550673285],[19.38312670139198,41.959617175299876],[19.383144599915987,41.95961520150961],[19.38315517776314,41.9596686384468],[19.383137279224467,41.959670612238604],[19.382994090876494,41.95968640247224],[19.382976461360805,41.959597340886475]]]},"properties":{"NR_PASURIS":"","SIPERFAQJA":129}},
{"type":"Feature","geometry":{"type":"Polygon","coordinates":[[[19.382976461360805,41.959597340886475],[19.382956187476662,41.959494920058205],[19.383099375404164,41.95947912986852],[19.38311964951321,41.959581550673285],[19.382976461360805,41.959597340886475]]]},"properties":{"NR_PASURIS":"","SIPERFAQJA":138}},
{"type":"Feature","geometry":{"type":"Polygon","coordinates":[[[19.383222943593758,41.959057746159715],[19.383199936741704,41.95911821931325],[19.38320573826674,41.95911944893827],[19.3831942063071,41.95914976047667],[19.383095091352892,41.95912875315486],[19.383109210401532,41.959092567041886],[19.383084890971762,41.95908728072999],[19.383106307006113,41.95903239293401],[19.383222943593758,41.959057746159715]]]},"properties":{"NR_PASURIS":"","SIPERFAQJA":99}},
{"type":"Feature","geometry":{"type":"Polygon","coordinates":[[[19.38201654490834,41.96008956091702],[19.381993338347446,41.960111951231134],[19.382021953841107,41.96012848278445],[19.381996113414115,41.960153400540776],[19.381967490022912,41.960136864421024],[19.381938084041515,41.960165220375295],[19.381828391417805,41.96010184930291],[19.381872441387696,41.96005937232353],[19.381886749105185,41.96006763811604],[19.38192144911225,41.9600341771602],[19.38201654490834,41.96008956091702]]]},"properties":{"NR_PASURIS":"","SIPERFAQJA":126}},
{"type":"Feature","geometry":{"type":"Polygon","coordinates":[[[19.38201654490834,41.96008956091702],[19.38192144911225,41.9600341771602],[19.38195614908292,41.960000716193456],[19.38194184137122,41.95999245040954],[19.381997213594104,41.95993905523405],[19.382025829011944,41.9599555867864],[19.382015492872437,41.959965553890484],[19.382096569975076,41.96001239325758],[19.38201654490834,41.96008956091702]]]},"properties":{"NR_PASURIS":"","SIPERFAQJA":122}},
{"type":"Feature","geometry":{"type":"Polygon","coordinates":[[[19.38154572865564,41.95953103353526],[19.38159219805493,41.95948962287437],[19.381635830671357,41.959516899830824],[19.38163843253579,41.95951852638669],[19.381619070296953,41.95953578083883],[19.38163756410243,41.95954734224168],[19.38161045695245,41.95957149847332],[19.381590029151155,41.95955872802912],[19.38154572865564,41.95953103353526]]]},"properties":{"NR_PASURIS":"","SIPERFAQJA":37}},
{"type":"Feature","geometry":{"type":"Polygon","coordinates":[[[19.382426967063697,41.96035415037586],[19.382450966989115,41.9603282274374],[19.38248569859979,41.960346140467685],[19.382461698681553,41.960372063413395],[19.382426967063697,41.96035415037586]]]},"properties":{"NR_PASURIS":"","SIPERFAQJA":12}},
{"type":"Feature","geometry":{"type":"Polygon","coordinates":[[[19.381200929990282,41.95872426939225],[19.381254380279593,41.95869058063869],[19.38127616577961,41.958709842818784],[19.38122270872815,41.958743525607716],[19.381200929990282,41.95872426939225]]]},"properties":{"NR_PASURIS":"","SIPERFAQJA":16}},
{"type":"Feature","geometry":{"type":"Polygon","coordinates":[[[19.383470192817644,41.95831783367073],[19.38337811084481,41.958284187025576],[19.383386065859522,41.958272058158556],[19.38333678629154,41.95825505379335],[19.38338239502491,41.958185514963894],[19.38352322610417,41.95823697450333],[19.383470192817644,41.95831783367073]]]},"properties":{"NR_PASURIS":"","SIPERFAQJA":123}},
{"type":"Feature","geometry":{"type":"Polygon","coordinates":[[[19.383470192817644,41.95831783367073],[19.38352322610417,41.95823697450333],[19.38357903020094,41.95827136812301],[19.383511447435545,41.958332458272125],[19.383470192817644,41.95831783367073]]]},"properties":{"NR_PASURIS":"","SIPERFAQJA":45}},
{"type":"Feature","geometry":{"type":"Polygon","coordinates":[[[19.383592397644712,41.95779862687845],[19.383524877805385,41.95773518207546],[19.38357210000571,41.95770718350271],[19.383639619862986,41.957770628278354],[19.383592397644712,41.95779862687845]]]},"properties":{"NR_PASURIS":"","SIPERFAQJA":45}},
{"type":"Feature","geometry":{"type":"Polygon","coordinates":[[[19.376883054926793,41.95552898419873],[19.376885512963206,41.95552017030334],[19.37690676731874,41.95552347288054],[19.376904309285113,41.95553228677641],[19.376883054926793,41.95552898419873]]]},"properties":{"NR_PASURIS":"","SIPERFAQJA":2}},
{"type":"Feature","geometry":{"type":"Polygon","coordinates":[[[19.382827226148375,41.95917096152455],[19.382850807236725,41.95910987311478],[19.38287977790551,41.959116117552725],[19.38289182514615,41.95908497968567],[19.382940495861043,41.959095470319824],[19.38293882263689,41.9590997950244],[19.382961999174928,41.9591047905576],[19.382939912613416,41.959161876659735],[19.382928324334518,41.95915937889146],[19.382916298717017,41.95919042796778],[19.382827226148375,41.95917096152455]]]},"properties":{"NR_PASURIS":"","SIPERFAQJA":79}},
{"type":"Feature","geometry":{"type":"Polygon","coordinates":[[[19.371261351484375,41.957048022574874],[19.371276944099904,41.957046790094836],[19.371279865445167,41.957067381474445],[19.37130025579418,41.957065769766096],[19.371301779978424,41.95707651309428],[19.37126579700293,41.957079357283476],[19.371261351484375,41.957048022574874]]]},"properties":{"NR_PASURIS":"","SIPERFAQJA":7}},
{"type":"Feature","geometry":{"type":"Polygon","coordinates":[[[19.378531645739862,41.9593663835173],[19.378531820689762,41.95934837832061],[19.378568005219513,41.959348574186286],[19.378567830279795,41.95936657938309],[19.378531645739862,41.9593663835173]]]},"properties":{"NR_PASURIS":"","SIPERFAQJA":6}},
{"type":"Feature","geometry":{"type":"Polygon","coordinates":[[[19.378953407465087,41.95984566929516],[19.37896205321519,41.95983590536651],[19.378982178798278,41.9598458331439],[19.378973533049866,41.95985559707406],[19.378953407465087,41.95984566929516]]]},"properties":{"NR_PASURIS":"","SIPERFAQJA":3}},
{"type":"Feature","geometry":{"type":"Polygon","coordinates":[[[19.375570487750448,41.95991650585249],[19.375521815843584,41.96002776185436],[19.375352116584246,41.95998640377767],[19.375400788753094,41.95987514784872],[19.375570487750448,41.95991650585249]]]},"properties":{"NR_PASURIS":"","SIPERFAQJA":192}},
{"type":"Feature","geometry":{"type":"Polygon","coordinates":[[[19.381581112076795,41.95998603722469],[19.381629342733092,41.96001244720089],[19.381594249725417,41.960048149736906],[19.38154290036884,41.96002686897635],[19.381581112076795,41.95998603722469]]]},"properties":{"NR_PASURIS":"","SIPERFAQJA":26}},
{"type":"Feature","geometry":{"type":"Polygon","coordinates":[[[19.381278797981892,41.95981722242758],[19.381348712075336,41.959819095775885],[19.38134265731765,41.95994498045545],[19.381297122915118,41.95992424990553],[19.381274153091134,41.959913792370145],[19.381278797981892,41.95981722242758]]]},"properties":{"NR_PASURIS":"","SIPERFAQJA":72}},
{"type":"Feature","geometry":{"type":"Polygon","coordinates":[[[19.381494809178974,41.96020424915634],[19.381416815306068,41.960180109258886],[19.38143853106226,41.960141023310655],[19.381512677200973,41.96016397229428],[19.381516524896053,41.96016516319327],[19.38151548391803,41.96016703684334],[19.381494809178974,41.96020424915634]]]},"properties":{"NR_PASURIS":"","SIPERFAQJA":33}},
{"type":"Feature","geometry":{"type":"Polygon","coordinates":[[[19.38151908001021,41.96016582284238],[19.381566169713597,41.960177979891625],[19.381654732063122,41.9602008437816],[19.381609388253487,41.96029868859073],[19.38147373601916,41.96026366759731],[19.381517625520512,41.96016896139309],[19.38151908001021,41.96016582284238]]]},"properties":{"NR_PASURIS":"","SIPERFAQJA":137}},
{"type":"Feature","geometry":{"type":"Polygon","coordinates":[[[19.3815134489697,41.96049747878034],[19.38152314356203,41.96043579651774],[19.38154710334078,41.96043789433934],[19.381553005736837,41.96040033993876],[19.381629675229078,41.960407052775466],[19.381623346490716,41.96044757838359],[19.381677259057447,41.960452298694776],[19.381667843402845,41.96051193230081],[19.381564294416997,41.96050223866285],[19.3815134489697,41.96049747878034]]]},"properties":{"NR_PASURIS":"","SIPERFAQJA":115}},
{"type":"Feature","geometry":{"type":"Polygon","coordinates":[[[19.38180108600214,41.96032260029475],[19.38187443194187,41.960292993543824],[19.38189279359276,41.96031833407621],[19.381937206447496,41.96030040638816],[19.381981389259586,41.96036138201538],[19.381863628895392,41.96040891448368],[19.38180108600214,41.96032260029475]]]},"properties":{"NR_PASURIS":"","SIPERFAQJA":108}},
{"type":"Feature","geometry":{"type":"Polygon","coordinates":[[[19.38180108600214,41.96032260029475],[19.381738541808375,41.96023628404516],[19.38185630047623,41.9601887496758],[19.38191506987169,41.96026985618696],[19.38191884478399,41.96027506586272],[19.381874431941874,41.960292993543824],[19.38180108600214,41.96032260029475]]]},"properties":{"NR_PASURIS":"","SIPERFAQJA":121}},
{"type":"Feature","geometry":{"type":"Polygon","coordinates":[[[19.382281538026234,41.96027178095265],[19.382208455554274,41.96030243188946],[19.38216059383442,41.96023885809816],[19.382232099719513,41.96020886839434],[19.38224273566005,41.960222995898775],[19.382295313482256,41.9602009446124],[19.382332539339153,41.96025039085344],[19.382281538026234,41.96027178095265]]]},"properties":{"NR_PASURIS":"","SIPERFAQJA":87}},
{"type":"Feature","geometry":{"type":"Polygon","coordinates":[[[19.382281538026234,41.96027178095265],[19.382301958820264,41.9602989054104],[19.382352960148193,41.960277515302316],[19.38241408189241,41.96035870162483],[19.382385516427142,41.96037068207451],[19.38240442487673,41.960395797612],[19.382304526748158,41.9604376951272],[19.382204075923628,41.96030426871299],[19.382208455554274,41.96030243188946],[19.382281538026234,41.96027178095265]]]},"properties":{"NR_PASURIS":"","SIPERFAQJA":182}},
{"type":"Feature","geometry":{"type":"Polygon","coordinates":[[[19.381277447575513,41.96022068025713],[19.38118432010974,41.96021069464213],[19.381202844531398,41.96011445208419],[19.381295971860276,41.96012443768341],[19.381288767978575,41.96016186535157],[19.381321004387086,41.960165321889725],[19.38130968401295,41.96022413679862],[19.381277447575513,41.96022068025713]]]},"properties":{"NR_PASURIS":"","SIPERFAQJA":102}},
{"type":"Feature","geometry":{"type":"Polygon","coordinates":[[[19.381151098233385,41.9598767385039],[19.381050676359305,41.95986131327452],[19.381063319480077,41.959815459475934],[19.381163741285473,41.959830884693936],[19.381151098233385,41.9598767385039]]]},"properties":{"NR_PASURIS":"","SIPERFAQJA":44}},
{"type":"Feature","geometry":{"type":"Polygon","coordinates":[[[19.38062631968888,41.959951048510185],[19.38062348487965,41.96000766647408],[19.380566554542224,41.96000450267628],[19.380553762798275,41.960003783581854],[19.380554964745116,41.95994712986288],[19.38062631968888,41.959951048510185]]]},"properties":{"NR_PASURIS":"","SIPERFAQJA":37}},
{"type":"Feature","geometry":{"type":"Polygon","coordinates":[[[19.380531367390134,41.95981808090779],[19.38051681860058,41.95987466653877],[19.38049904993412,41.95987212145924],[19.380487001685363,41.959918981431024],[19.380439618548547,41.959912194533736],[19.38046007788475,41.959832621004416],[19.380477846538632,41.959835166089924],[19.380483984322986,41.95981129402913],[19.380531367390134,41.95981808090779]]]},"properties":{"NR_PASURIS":"","SIPERFAQJA":52}},
{"type":"Feature","geometry":{"type":"Polygon","coordinates":[[[19.38020481469585,41.95995009540449],[19.38035180685836,41.95992127146375],[19.3803855212476,41.960017052243316],[19.380238528879115,41.96004587622536],[19.38020481469585,41.95995009540449]]]},"properties":{"NR_PASURIS":"","SIPERFAQJA":139}},
{"type":"Feature","geometry":{"type":"Polygon","coordinates":[[[19.38068884651772,41.96038568515203],[19.38071349760206,41.960492140901685],[19.380636239694834,41.960502107020304],[19.380611588735654,41.96039565125507],[19.38068884651772,41.96038568515203]]]},"properties":{"NR_PASURIS":"","SIPERFAQJA":78}},
{"type":"Feature","geometry":{"type":"Polygon","coordinates":[[[19.379931945402635,41.960033652018275],[19.37987454195175,41.959954511141824],[19.37998799090687,41.95990817075421],[19.380008258159506,41.959935812111844],[19.38004000132979,41.95992284597524],[19.380057373282828,41.959946538559926],[19.38002563010419,41.95995950470122],[19.38004628107092,41.95998889182033],[19.38000303990377,41.96000581992],[19.379931945402635,41.960033652018275]]]},"properties":{"NR_PASURIS":"","SIPERFAQJA":117}},
{"type":"Feature","geometry":{"type":"Polygon","coordinates":[[[19.3802185645001,41.95961336222165],[19.38026160649508,41.95957334637573],[19.380339674124876,41.95962012632714],[19.380296632146557,41.959660142202125],[19.3802185645001,41.95961336222165]]]},"properties":{"NR_PASURIS":"","SIPERFAQJA":47}},
{"type":"Feature","geometry":{"type":"Polygon","coordinates":[[[19.378817407787214,41.96047134732109],[19.378758388652304,41.96054675051141],[19.37871846333377,41.960529341730975],[19.378777482499196,41.960453938561166],[19.378817407787214,41.96047134732109]]]},"properties":{"NR_PASURIS":"","SIPERFAQJA":37}},
{"type":"Feature","geometry":{"type":"Polygon","coordinates":[[[19.378817407787214,41.96047134732109],[19.37884934604774,41.9604852734533],[19.37879032693723,41.96056067666002],[19.378758388652304,41.96054675051141],[19.378817407787214,41.96047134732109]]]},"properties":{"NR_PASURIS":"","SIPERFAQJA":30}},
{"type":"Feature","geometry":{"type":"Polygon","coordinates":[[[19.3797793587793,41.960337496011476],[19.37971908195811,41.9603389906606],[19.379717840400772,41.96031109726171],[19.37969372968212,41.9603116951123],[19.379687521962026,41.96017222811476],[19.379711632628123,41.960171630265094],[19.379710391076408,41.960143736865355],[19.379770667713686,41.960142242219504],[19.3797793587793,41.960337496011476]]]},"properties":{"NR_PASURIS":"","SIPERFAQJA":140}},
{"type":"Feature","geometry":{"type":"Polygon","coordinates":[[[19.379764239042284,41.95978328773737],[19.379787921992047,41.95979877243428],[19.37985488255901,41.95984255340375],[19.37979615437201,41.959892722715125],[19.379705424101225,41.959833400290215],[19.379764239042284,41.95978328773737]]]},"properties":{"NR_PASURIS":"","SIPERFAQJA":74}},
{"type":"Feature","geometry":{"type":"Polygon","coordinates":[[[19.379720043493524,41.9597133663347],[19.3799255251834,41.95958381378607],[19.37999012862071,41.959640897198106],[19.37978464687552,41.95977044986075],[19.379720043493524,41.9597133663347]]]},"properties":{"NR_PASURIS":"","SIPERFAQJA":185}},
{"type":"Feature","geometry":{"type":"Polygon","coordinates":[[[19.377559813287903,41.95999922552963],[19.37760954690559,41.95994067986975],[19.377792911308745,41.96002745451292],[19.377743177789515,41.96008600025202],[19.377559813287903,41.95999922552963]]]},"properties":{"NR_PASURIS":"","SIPERFAQJA":139}},
{"type":"Feature","geometry":{"type":"Polygon","coordinates":[[[19.37443003558025,41.959007695886406],[19.374239646332917,41.95900140424961],[19.37424588848814,41.95889797724876],[19.374436277428458,41.95890426887324],[19.37443003558025,41.959007695886406]]]},"properties":{"NR_PASURIS":"","SIPERFAQJA":182}},
{"type":"Feature","geometry":{"type":"Polygon","coordinates":[[[19.383292743925423,41.960083130158054],[19.383295828773974,41.96007671009166],[19.383450241624622,41.960118043264906],[19.38342621735491,41.96016804185032],[19.383380801758946,41.960155885046504],[19.383362070922097,41.96019486698299],[19.383253073505532,41.96016569056292],[19.383292743925423,41.960083130158054]]]},"properties":{"NR_PASURIS":"","SIPERFAQJA":124}},
{"type":"Feature","geometry":{"type":"Polygon","coordinates":[[[19.383525603160717,41.95996035910057],[19.383496628122476,41.95999672823857],[19.3833784389071,41.95994427243952],[19.383407413988074,41.95990790333132],[19.383525603160717,41.95996035910057]]]},"properties":{"NR_PASURIS":"","SIPERFAQJA":54}},
{"type":"Feature","geometry":{"type":"Polygon","coordinates":[[[19.37702573734559,41.95932557924383],[19.377002379451106,41.9592482963755],[19.3770376778417,41.959242352919624],[19.37703502353439,41.95923357077593],[19.37708080103725,41.959225862855114],[19.377107025272288,41.95931189216539],[19.37706271779206,41.95931935256723],[19.37702573734559,41.95932557924383]]]},"properties":{"NR_PASURIS":"","SIPERFAQJA":65}},
{"type":"Feature","geometry":{"type":"Polygon","coordinates":[[[19.377107025272288,41.95931189216539],[19.37708080103725,41.959225862855114],[19.377231517765342,41.959200485343125],[19.37725753025983,41.959286550305954],[19.377107025272288,41.95931189216539]]]},"properties":{"NR_PASURIS":"","SIPERFAQJA":125}},
{"type":"Feature","geometry":{"type":"Polygon","coordinates":[[[19.377002379451106,41.9592482963755],[19.37702573734559,41.95932557924383],[19.37706271779206,41.95931935256723],[19.37707253875941,41.95935184649585],[19.376959583703044,41.959370865549054],[19.376926404983415,41.95926108872822],[19.377002379451106,41.9592482963755]]]},"properties":{"NR_PASURIS":"","SIPERFAQJA":92}},
{"type":"Feature","geometry":{"type":"Polygon","coordinates":[[[19.37643260135445,41.958932431247156],[19.37666002199437,41.959004875019886],[19.376616464223336,41.959081053594964],[19.37638904336397,41.959008609735385],[19.37643260135445,41.958932431247156]]]},"properties":{"NR_PASURIS":"","SIPERFAQJA":189}},
{"type":"Feature","geometry":{"type":"Polygon","coordinates":[[[19.378747232661745,41.9590480347206],[19.37877014942387,41.959048158726475],[19.37877049918534,41.95901214832942],[19.378893525946793,41.95901281396611],[19.37889228453655,41.95914065087757],[19.37874634073422,41.95913986123164],[19.378747232661745,41.9590480347206]]]},"properties":{"NR_PASURIS":"","SIPERFAQJA":164}},
{"type":"Feature","geometry":{"type":"Polygon","coordinates":[[[19.378747232661745,41.9590480347206],[19.37874634073422,41.95913986123164],[19.378600396937728,41.959139071400216],[19.378601638931272,41.959011234495804],[19.378724665687034,41.95901190031342],[19.378724315899767,41.959047910710154],[19.378747232661745,41.9590480347206]]]},"properties":{"NR_PASURIS":"","SIPERFAQJA":164}},
{"type":"Feature","geometry":{"type":"Polygon","coordinates":[[[19.379639567111923,41.95898435346205],[19.37950558609889,41.95897011994916],[19.37951816345241,41.95890416369125],[19.37965432398739,41.95891862874386],[19.379691313724262,41.95892255832994],[19.379678736545227,41.95898851460778],[19.379639567111923,41.95898435346205]]]},"properties":{"NR_PASURIS":"","SIPERFAQJA":107}},
{"type":"Feature","geometry":{"type":"Polygon","coordinates":[[[19.380362340006247,41.95855701996772],[19.380279225393945,41.95857043208117],[19.38027540219626,41.95855723277334],[19.38023060282544,41.958564461971136],[19.38021760399498,41.95851958431867],[19.380345517875778,41.9584989430238],[19.380362340006247,41.95855701996772]]]},"properties":{"NR_PASURIS":"","SIPERFAQJA":66}},
{"type":"Feature","geometry":{"type":"Polygon","coordinates":[[[19.380362340006247,41.95855701996772],[19.380345517875778,41.9584989430238],[19.38047343167565,41.95847830158576],[19.38048464650009,41.95851701953684],[19.380443383968935,41.95852367808471],[19.380448991374188,41.95854303706168],[19.380362340006247,41.95855701996772]]]},"properties":{"NR_PASURIS":"","SIPERFAQJA":64}},
{"type":"Feature","geometry":{"type":"Polygon","coordinates":[[[19.38161665038365,41.958397057695436],[19.381696855701914,41.9584491990147],[19.38165537077934,41.95848215782243],[19.38160511800614,41.95852208241758],[19.38160448748053,41.95852167251051],[19.381528716636794,41.95847241353483],[19.38161665038365,41.958397057695436]]]},"properties":{"NR_PASURIS":"","SIPERFAQJA":96}},
{"type":"Feature","geometry":{"type":"Polygon","coordinates":[[[19.382159018630343,41.95887701427811],[19.382105882089242,41.95897069688524],[19.381969261395625,41.958927526075406],[19.38202239809946,41.958833843531906],[19.382159018630343,41.95887701427811]]]},"properties":{"NR_PASURIS":"","SIPERFAQJA":139}},
{"type":"Feature","geometry":{"type":"Polygon","coordinates":[[[19.381712779090137,41.95874965238265],[19.381755893515106,41.95872504881713],[19.38172962657527,41.95869924100768],[19.381768051211854,41.95867745551342],[19.381841008644813,41.958749145330806],[19.381797793070426,41.958773649531395],[19.3817926856011,41.95876863134855],[19.381754267277472,41.95879041535379],[19.381712779090137,41.95874965238265]]]},"properties":{"NR_PASURIS":"","SIPERFAQJA":66}},
{"type":"Feature","geometry":{"type":"Polygon","coordinates":[[[19.381712779090137,41.95874965238265],[19.381589369454193,41.95862839956047],[19.38167100827044,41.95858210864903],[19.381768051211854,41.95867745551342],[19.38172962657527,41.95869924100768],[19.381755893515106,41.95872504881713],[19.381712779090137,41.95874965238265]]]},"properties":{"NR_PASURIS":"","SIPERFAQJA":129}},
{"type":"Feature","geometry":{"type":"Polygon","coordinates":[[[19.382060510055563,41.958285452645704],[19.381967114459677,41.95821634312996],[19.382038445808803,41.95816263787653],[19.382098405815192,41.95820700619963],[19.38211538945209,41.95819421921903],[19.382153078641558,41.95822210785782],[19.38213609500465,41.95823489484394],[19.38217035793268,41.95826024814629],[19.382103204992465,41.958310807562675],[19.382066177230122,41.95828118583986],[19.382060510055563,41.958285452645704]]]},"properties":{"NR_PASURIS":"","SIPERFAQJA":136}},
{"type":"Feature","geometry":{"type":"Polygon","coordinates":[[[19.382698664932427,41.95877057524413],[19.382627165364504,41.95875421805986],[19.382641303981224,41.958719787673374],[19.382712803514483,41.958736144848714],[19.382698664932427,41.95877057524413]]]},"properties":{"NR_PASURIS":"","SIPERFAQJA":25}},
{"type":"Feature","geometry":{"type":"Polygon","coordinates":[[[19.38255949340828,41.95893788178941],[19.382414134206233,41.958908320042205],[19.382450484684703,41.95880840567777],[19.382595958232386,41.95883799067503],[19.38255949340828,41.95893788178941]]]},"properties":{"NR_PASURIS":"","SIPERFAQJA":144}},
{"type":"Feature","geometry":{"type":"Polygon","coordinates":[[[19.38223916596777,41.958968877941686],[19.382229076241625,41.9589658885263],[19.382278027859545,41.9588738439053],[19.382377803962207,41.95890340582032],[19.38234976812168,41.95895612231247],[19.38236882650208,41.95896176896529],[19.382347910854424,41.959001097140494],[19.382337821118018,41.95899810773461],[19.38223916596777,41.958968877941686]]]},"properties":{"NR_PASURIS":"","SIPERFAQJA":106}},
{"type":"Feature","geometry":{"type":"Polygon","coordinates":[[[19.382322528017077,41.95902686366335],[19.38232002054196,41.95903157851709],[19.382270692933893,41.95901696362347],[19.382230086555627,41.95900493265436],[19.382221365348585,41.959002348708765],[19.38223916596777,41.958968877941686],[19.382337821118018,41.95899810773461],[19.382322528017077,41.95902686366335]]]},"properties":{"NR_PASURIS":"","SIPERFAQJA":35}},
{"type":"Feature","geometry":{"type":"Polygon","coordinates":[[[19.383106307006113,41.95903239293401],[19.38314222515327,41.95894033701354],[19.383211843261602,41.958955092528434],[19.383258255351922,41.95896492951502],[19.383222943593758,41.959057746159715],[19.383106307006113,41.95903239293401]]]},"properties":{"NR_PASURIS":"","SIPERFAQJA":107}},
{"type":"Feature","geometry":{"type":"Polygon","coordinates":[[[19.38352242240626,41.95913660985335],[19.383780631003127,41.95920459442053],[19.383749734692554,41.95926996813877],[19.383491525866265,41.95920198350133],[19.38352242240626,41.95913660985335]]]},"properties":{"NR_PASURIS":"","SIPERFAQJA":175}},
{"type":"Feature","geometry":{"type":"Polygon","coordinates":[[[19.383016112239662,41.95926502810615],[19.383053502515516,41.95916532773156],[19.38315339438041,41.95918619786127],[19.38313876347285,41.95922521106603],[19.383187547923303,41.95923540342983],[19.383177793993053,41.95926141223598],[19.383127847989638,41.95925097719229],[19.38311484271195,41.95928565559317],[19.383016112239662,41.95926502810615]]]},"properties":{"NR_PASURIS":"","SIPERFAQJA":111}},
{"type":"Feature","geometry":{"type":"Polygon","coordinates":[[[19.38289743561112,41.95893364558628],[19.38293382950721,41.958844984337695],[19.38300533160745,41.958861335607004],[19.38296893780063,41.9589499968786],[19.382963141566524,41.958964117429566],[19.382994279634563,41.95897123814139],[19.382973079324774,41.95902288548238],[19.382941941234098,41.95901576476472],[19.382930070515407,41.95904468365851],[19.38285856823056,41.95902833234161],[19.38289743561112,41.95893364558628]]]},"properties":{"NR_PASURIS":"","SIPERFAQJA":148}},
{"type":"Feature","geometry":{"type":"Polygon","coordinates":[[[19.38267418574993,41.959045256657795],[19.382727297836727,41.958958450151584],[19.382812877861003,41.95898762105724],[19.38275976586519,41.95907442760322],[19.38267418574993,41.959045256657795]]]},"properties":{"NR_PASURIS":"","SIPERFAQJA":83}},
{"type":"Feature","geometry":{"type":"Polygon","coordinates":[[[19.382916298717017,41.95919042796778],[19.38293719613525,41.95919499500081],[19.3829012682807,41.95928657988884],[19.382768146555037,41.95925748667763],[19.38278983896168,41.95920219016864],[19.382812990539126,41.959207249864136],[19.382827226148375,41.95917096152455],[19.382916298717017,41.95919042796778]]]},"properties":{"NR_PASURIS":"","SIPERFAQJA":114}},
{"type":"Feature","geometry":{"type":"Polygon","coordinates":[[[19.382710914641528,41.95921761947568],[19.382577045727448,41.959168445863455],[19.38260291174698,41.959125976582115],[19.382630362890133,41.95913529087813],[19.38266031263502,41.95908611643624],[19.382772518545853,41.959124188302454],[19.382710914641528,41.95921761947568]]]},"properties":{"NR_PASURIS":"","SIPERFAQJA":128}},
{"type":"Feature","geometry":{"type":"Polygon","coordinates":[[[19.382517684117616,41.9593369191115],[19.382541826208016,41.95924045677782],[19.38267699278799,41.95925930271184],[19.382652850893663,41.95935576507497],[19.382517684117616,41.9593369191115]]]},"properties":{"NR_PASURIS":"","SIPERFAQJA":124}},
{"type":"Feature","geometry":{"type":"Polygon","coordinates":[[[19.382719580126103,41.95949897725611],[19.38273431860011,41.95946280091667],[19.38270777635076,41.95945677675732],[19.38276953744824,41.959305180658475],[19.382875706248914,41.95932927720117],[19.382853247784894,41.95938440308092],[19.382827859566312,41.95937864086803],[19.382799786406455,41.95944754820413],[19.38282517464972,41.95945331042332],[19.382816050867582,41.95947570530785],[19.38279066261631,41.95946994308662],[19.382773818679023,41.959511287482826],[19.382719580126103,41.95949897725611]]]},"properties":{"NR_PASURIS":"","SIPERFAQJA":163}},
{"type":"Feature","geometry":{"type":"Polygon","coordinates":[[[19.38268008992971,41.95963477321388],[19.38270985249442,41.9596311552308],[19.382717802122784,41.959667586846315],[19.382646371922228,41.95967626999731],[19.382654127626957,41.95971181304065],[19.382554125260196,41.95972396938346],[19.38252581717658,41.959594237248865],[19.382625819345275,41.95958208092913],[19.382628146049143,41.95959274384275],[19.382669813615298,41.959587678682944],[19.38268008992971,41.95963477321388]]]},"properties":{"NR_PASURIS":"","SIPERFAQJA":166}},
{"type":"Feature","geometry":{"type":"Polygon","coordinates":[[[19.382722882496328,41.95988799815823],[19.382601538232482,41.95990315507179],[19.38256789233781,41.959753093914124],[19.38268923632407,41.95973793703388],[19.382722882496328,41.95988799815823]]]},"properties":{"NR_PASURIS":"","SIPERFAQJA":172}},
{"type":"Feature","geometry":{"type":"Polygon","coordinates":[[[19.382784803185764,41.95983700366641],[19.382780216200572,41.95983812024699],[19.38273084878628,41.95972513957116],[19.38285928410823,41.95969387529852],[19.382908651726346,41.95980685592053],[19.382784803185764,41.95983700366641]]]},"properties":{"NR_PASURIS":"","SIPERFAQJA":148}},
{"type":"Feature","geometry":{"type":"Polygon","coordinates":[[[19.382784803185764,41.95983700366641],[19.382908651726346,41.95980685592053],[19.382948295545127,41.95989758276734],[19.38282444684652,41.95992773055445],[19.382784803185764,41.95983700366641]]]},"properties":{"NR_PASURIS":"","SIPERFAQJA":114}},
{"type":"Feature","geometry":{"type":"Polygon","coordinates":[[[19.38277404278362,41.960112534641006],[19.382704938266986,41.960120673039846],[19.3827068182288,41.96012956585754],[19.382623416191823,41.96013938800881],[19.38262153624135,41.960130495189844],[19.382604052726307,41.96004779197146],[19.382620733112336,41.9600458275487],[19.38260024171202,41.9599488958179],[19.382736067474134,41.95993289973616],[19.38277404278362,41.960112534641006]]]},"properties":{"NR_PASURIS":"","SIPERFAQJA":250}},
{"type":"Feature","geometry":{"type":"Polygon","coordinates":[[[19.381707511617762,41.95921726363849],[19.38177704686786,41.95926245581233],[19.38172556153613,41.95930658835725],[19.381810159972126,41.959361570245264],[19.381742832909694,41.95941928204791],[19.381680975961853,41.959379080207555],[19.38165879760475,41.95939809113346],[19.38163605609771,41.959383311032354],[19.381565102663757,41.9593371970884],[19.381587281027233,41.95931818618036],[19.381584552051237,41.95931641256679],[19.381703364489205,41.959214568343846],[19.381707511617762,41.95921726363849]]]},"properties":{"NR_PASURIS":"","SIPERFAQJA":229}},
{"type":"Feature","geometry":{"type":"Polygon","coordinates":[[[19.381707511617762,41.95921726363849],[19.381744870234794,41.959185240302425],[19.38182633131118,41.959220209760296],[19.381777046867857,41.95926245581233],[19.381707511617762,41.95921726363849]]]},"properties":{"NR_PASURIS":"","SIPERFAQJA":42}},
{"type":"Feature","geometry":{"type":"Polygon","coordinates":[[[19.38140667737508,41.959341177897564],[19.38133402591483,41.959293777819035],[19.381425315244883,41.95921582736273],[19.381497966685625,41.95926322738399],[19.38140667737508,41.959341177897564]]]},"properties":{"NR_PASURIS":"","SIPERFAQJA":92}},
{"type":"Feature","geometry":{"type":"Polygon","coordinates":[[[19.38207368830299,41.9592528836399],[19.382123599205837,41.95925936044648],[19.382111202801802,41.95931257914295],[19.382061291858818,41.95930610233077],[19.38207368830299,41.9592528836399]]]},"properties":{"NR_PASURIS":"","SIPERFAQJA":25}},
{"type":"Feature","geometry":{"type":"Polygon","coordinates":[[[19.382061291858818,41.95930610233077],[19.38205571345204,41.95933005074103],[19.381987977164325,41.95932126074363],[19.38200595209428,41.959244093653496],[19.38207368830299,41.9592528836399],[19.382061291858818,41.95930610233077]]]},"properties":{"NR_PASURIS":"","SIPERFAQJA":50}},
{"type":"Feature","geometry":{"type":"Polygon","coordinates":[[[19.38215138516439,41.95983466395361],[19.382223214389867,41.959777563333034],[19.382253112074686,41.95979851524361],[19.382265496410465,41.95978867030115],[19.382295394114415,41.95980962220081],[19.3822830097791,41.95981946714647],[19.382319942264573,41.95984534889813],[19.382321700955107,41.9598465813622],[19.382237487377882,41.95991352698416],[19.382235836129503,41.95991483964279],[19.38219802429395,41.95988834163138],[19.38221205990364,41.959877184036905],[19.38215138516439,41.95983466395361]]]},"properties":{"NR_PASURIS":"","SIPERFAQJA":110}},
{"type":"Feature","geometry":{"type":"Polygon","coordinates":[[[19.382282967741837,41.959701686987295],[19.382381156338596,41.959687103548255],[19.382406344916333,41.95978158150664],[19.382394514950395,41.959783338554395],[19.382401812584444,41.95981071067265],[19.382333198741147,41.95982090152972],[19.382325901135406,41.959793529407335],[19.38230815617977,41.95979616496604],[19.382282967741837,41.959701686987295]]]},"properties":{"NR_PASURIS":"","SIPERFAQJA":107}},
{"type":"Feature","geometry":{"type":"Polygon","coordinates":[[[19.382248865954345,41.959649455598395],[19.38221267147402,41.95951438734057],[19.382334495776664,41.95949620064275],[19.38237069050489,41.95963126886424],[19.382248865954345,41.959649455598395]]]},"properties":{"NR_PASURIS":"","SIPERFAQJA":158}},
{"type":"Feature","geometry":{"type":"Polygon","coordinates":[[[19.38220759728119,41.959454508174574],[19.3821804760345,41.95935297380655],[19.38228693726534,41.95933713139946],[19.382314058674915,41.95943866574368],[19.38220759728119,41.959454508174574]]]},"properties":{"NR_PASURIS":"","SIPERFAQJA":103}},
{"type":"Feature","geometry":{"type":"Polygon","coordinates":[[[19.38134104487449,41.958762199074705],[19.381646639024716,41.95906939868186],[19.381520744493848,41.95913916876095],[19.381441649328817,41.9590596582668],[19.381454238787,41.95905268127376],[19.381281668182854,41.95887920366218],[19.381269078740402,41.95888618063664],[19.38121515062299,41.95883196882423],[19.38134104487449,41.958762199074705]]]},"properties":{"NR_PASURIS":"","SIPERFAQJA":521}},
{"type":"Feature","geometry":{"type":"Polygon","coordinates":[[[19.381082860460598,41.95881332544461],[19.381158511220793,41.95888574234413],[19.38106814748173,41.958938332722575],[19.380992496763074,41.95886591576443],[19.381082860460598,41.95881332544461]]]},"properties":{"NR_PASURIS":"","SIPERFAQJA":97}},
{"type":"Feature","geometry":{"type":"Polygon","coordinates":[[[19.380372816796044,41.95884319820623],[19.3806072856037,41.95873252473105],[19.380622422051648,41.95875038979214],[19.380687871101788,41.95882763705683],[19.380611413901164,41.95886372633958],[19.380601743637136,41.95885231285716],[19.380489606266387,41.95890524370239],[19.380479936018023,41.95889383020991],[19.38043406159082,41.95891548370165],[19.380372816796044,41.95884319820623]]]},"properties":{"NR_PASURIS":"","SIPERFAQJA":258}},
{"type":"Feature","geometry":{"type":"Polygon","coordinates":[[[19.380734474441688,41.95880471730824],[19.38069063213461,41.95875729361323],[19.380798843120832,41.95870156089002],[19.380842685470938,41.95874898454445],[19.380734474441688,41.95880471730824]]]},"properties":{"NR_PASURIS":"","SIPERFAQJA":70}},
{"type":"Feature","geometry":{"type":"Polygon","coordinates":[[[19.38068967076828,41.9585383272047],[19.380739122555013,41.95851416882269],[19.380768186390963,41.95854731323317],[19.38071873458928,41.958571471627465],[19.38068967076828,41.9585383272047]]]},"properties":{"NR_PASURIS":"","SIPERFAQJA":22}},
{"type":"Feature","geometry":{"type":"Polygon","coordinates":[[[19.381411739875844,41.95830484733082],[19.381474555124694,41.9582165973655],[19.381567224703655,41.958253345414406],[19.38150440954536,41.95834159543049],[19.381411739875844,41.95830484733082]]]},"properties":{"NR_PASURIS":"","SIPERFAQJA":97}},
{"type":"Feature","geometry":{"type":"Polygon","coordinates":[[[19.381550680902343,41.958130032478586],[19.3815772602441,41.9580936806219],[19.38159314151652,41.95810014984517],[19.38161625395747,41.958068539526444],[19.38171260037977,41.95810778608143],[19.381625387528295,41.95822706501265],[19.381538648540644,41.95819350505892],[19.381540958705536,41.95819034358606],[19.381510250585364,41.958177842283824],[19.381546446708818,41.958128307682436],[19.381550680902343,41.958130032478586]]]},"properties":{"NR_PASURIS":"","SIPERFAQJA":157}},
{"type":"Feature","geometry":{"type":"Polygon","coordinates":[[[19.381657227056728,41.957968800800515],[19.38163366131825,41.95801121241468],[19.38155567164629,41.957987069757834],[19.381579237427196,41.95794465815979],[19.381657227056728,41.957968800800515]]]},"properties":{"NR_PASURIS":"","SIPERFAQJA":36}},
{"type":"Feature","geometry":{"type":"Polygon","coordinates":[[[19.381976646557458,41.95802329122406],[19.381849367996608,41.95799229094658],[19.38189800991161,41.957881027893656],[19.38202528827592,41.95791202811647],[19.381976646557458,41.95802329122406]]]},"properties":{"NR_PASURIS":"","SIPERFAQJA":144}},
{"type":"Feature","geometry":{"type":"Polygon","coordinates":[[[19.379907101981196,41.958894720899224],[19.379898331750773,41.958774260613325],[19.380034428378803,41.9587687403424],[19.38004319886505,41.95888920061974],[19.379907101981196,41.958894720899224]]]},"properties":{"NR_PASURIS":"","SIPERFAQJA":151}},
{"type":"Feature","geometry":{"type":"Polygon","coordinates":[[[19.363154051311547,41.95852867095183],[19.363174037461786,41.958475809893976],[19.36328956846541,41.958501786537006],[19.363268346453637,41.958554369718435],[19.363154051311547,41.95852867095183]]]},"properties":{"NR_PASURIS":"","SIPERFAQJA":61}},
{"type":"Feature","geometry":{"type":"Polygon","coordinates":[[[19.366535236868245,41.95887946439144],[19.366544768412258,41.95895113475363],[19.366208691348547,41.95897603433791],[19.366199160178112,41.958904363950666],[19.366535236868245,41.95887946439144]]]},"properties":{"NR_PASURIS":"","SIPERFAQJA":224}},
{"type":"Feature","geometry":{"type":"Polygon","coordinates":[[[19.376284467759103,41.95929819888429],[19.376287856423364,41.959239735154455],[19.37640233648462,41.95924343172157],[19.376398947924724,41.959301895455454],[19.376284467759103,41.95929819888429]]]},"properties":{"NR_PASURIS":"","SIPERFAQJA":62}},
{"type":"Feature","geometry":{"type":"Polygon","coordinates":[[[19.380932058194638,41.95690178324596],[19.38093263324918,41.9568423660441],[19.38107254134834,41.95684312036609],[19.381071966423736,41.95690253756951],[19.380932058194638,41.95690178324596]]]},"properties":{"NR_PASURIS":"","SIPERFAQJA":77}},
{"type":"Feature","geometry":{"type":"Polygon","coordinates":[[[19.380099119344916,41.958412343515285],[19.380194191299175,41.958375135084175],[19.380202687504063,41.95838722939127],[19.38024068107748,41.95844131299829],[19.380068696769317,41.95850862264178],[19.380047412340474,41.958478324290866],[19.38012432459537,41.958448223130006],[19.380099119344916,41.958412343515285]]]},"properties":{"NR_PASURIS":"","SIPERFAQJA":101}},
{"type":"Feature","geometry":{"type":"Polygon","coordinates":[[[19.379663681737277,41.95857005019592],[19.379725181043963,41.95854670624407],[19.379817710533917,41.95852818424127],[19.37984303512574,41.95855102783315],[19.37978741340409,41.95858217725377],[19.379742276932877,41.958592795953095],[19.379690056279333,41.95860877297235],[19.379663681737277,41.95857005019592]]]},"properties":{"NR_PASURIS":"","SIPERFAQJA":66}},
{"type":"Feature","geometry":{"type":"Polygon","coordinates":[[[19.379953458512873,41.959009551696134],[19.379819805664805,41.959015441552616],[19.37981227015265,41.95892017737335],[19.379945922802136,41.9589142875242],[19.379953458512873,41.959009551696134]]]},"properties":{"NR_PASURIS":"","SIPERFAQJA":118}},
{"type":"Feature","geometry":{"type":"Polygon","coordinates":[[[19.37969513295923,41.958796190649736],[19.379810467411673,41.95881551594399],[19.379799371105523,41.95885240964769],[19.379706851439536,41.95883690717943],[19.379684036590174,41.958833084342],[19.37969513295923,41.958796190649736]]]},"properties":{"NR_PASURIS":"","SIPERFAQJA":41}},
{"type":"Feature","geometry":{"type":"Polygon","coordinates":[[[19.37999290615797,41.958688026569355],[19.38001830548896,41.95872382989407],[19.37997353521704,41.95874152403841],[19.379948135904314,41.958705720704025],[19.37999290615797,41.958688026569355]]]},"properties":{"NR_PASURIS":"","SIPERFAQJA":19}},
{"type":"Feature","geometry":{"type":"Polygon","coordinates":[[[19.382322528017077,41.95902686366335],[19.382336544133633,41.95903139223221],[19.382257003404526,41.95916854106624],[19.382229958967994,41.95915980307702],[19.382282666749443,41.9590689213388],[19.382208755931185,41.95904504090208],[19.382230086555627,41.95900493265436],[19.382270692933893,41.95901696362347],[19.38232002054196,41.95903157851709],[19.382322528017077,41.95902686366335]]]},"properties":{"NR_PASURIS":"","SIPERFAQJA":73}},
{"type":"Feature","geometry":{"type":"Polygon","coordinates":[[[19.382250704325518,41.95867808588588],[19.382374553160126,41.958670774980185],[19.382380068793726,41.95872282890669],[19.382416141294016,41.958720699489994],[19.382421466769593,41.95877095845141],[19.382261545209325,41.95878039878552],[19.382250704325518,41.95867808588588]]]},"properties":{"NR_PASURIS":"","SIPERFAQJA":134}},
{"type":"Feature","geometry":{"type":"Polygon","coordinates":[[[19.382490190282937,41.95871812170569],[19.382453503710057,41.95860989692673],[19.38260200742325,41.95858185155372],[19.382638694232458,41.95869007628732],[19.382490190282937,41.95871812170569]]]},"properties":{"NR_PASURIS":"","SIPERFAQJA":157}},
{"type":"Feature","geometry":{"type":"Polygon","coordinates":[[[19.382309156859044,41.95847793798562],[19.382358834252365,41.95860966187981],[19.382332135293623,41.95861527147786],[19.382224152783795,41.958637959123394],[19.382175129292506,41.95850796838328],[19.382309156859044,41.95847793798562]]]},"properties":{"NR_PASURIS":"","SIPERFAQJA":175}},
{"type":"Feature","geometry":{"type":"Polygon","coordinates":[[[19.382529758105232,41.9582788588231],[19.38255044699813,41.958402134593484],[19.38259951628653,41.958397546666276],[19.382606262711708,41.95843774528315],[19.382436315285847,41.95845363509691],[19.382408880302993,41.95829016068045],[19.382529758105232,41.9582788588231]]]},"properties":{"NR_PASURIS":"","SIPERFAQJA":203}},
{"type":"Feature","geometry":{"type":"Polygon","coordinates":[[[19.382682062105655,41.95850414572537],[19.38269254244784,41.95854013193659],[19.38260532287464,41.95855428322302],[19.382589438034213,41.95849973938653],[19.382676657536255,41.95848558811154],[19.382682062105655,41.95850414572537]]]},"properties":{"NR_PASURIS":"","SIPERFAQJA":46}},
{"type":"Feature","geometry":{"type":"Polygon","coordinates":[[[19.380459213010244,41.95907966620611],[19.380222509220257,41.9591565062918],[19.380164781323185,41.95905743660667],[19.380202388457388,41.959045228420074],[19.380194691411482,41.959032019128934],[19.380284284805757,41.95900293487541],[19.380289095468545,41.95901119067877],[19.3803278086427,41.95899862338531],[19.38030856598258,41.9589656001769],[19.380363870467537,41.95894764688667],[19.38038311315103,41.958980670086056],[19.380398598407844,41.95897564315744],[19.380459213010244,41.95907966620611]]]},"properties":{"NR_PASURIS":"","SIPERFAQJA":296}},
{"type":"Feature","geometry":{"type":"Polygon","coordinates":[[[19.380116562481845,41.959163918513426],[19.380186500310156,41.959162652109235],[19.38018831405495,41.95921845327902],[19.38011837616563,41.959219719683894],[19.380116562481845,41.959163918513426]]]},"properties":{"NR_PASURIS":"","SIPERFAQJA":36}},
{"type":"Feature","geometry":{"type":"Polygon","coordinates":[[[19.38086963137059,41.95805331883358],[19.380884049348225,41.95807511445836],[19.380904341333277,41.958105789779005],[19.38079505917635,41.95814606459216],[19.38076034928225,41.958093593614514],[19.38086963137059,41.95805331883358]]]},"properties":{"NR_PASURIS":"","SIPERFAQJA":66}},
{"type":"Feature","geometry":{"type":"Polygon","coordinates":[[[19.380884049348225,41.95807511445836],[19.38086963137059,41.95805331883358],[19.380918299301086,41.95803538272218],[19.380932717291405,41.95805717834099],[19.380884049348225,41.95807511445836]]]},"properties":{"NR_PASURIS":"","SIPERFAQJA":12}},
{"type":"Feature","geometry":{"type":"Polygon","coordinates":[[[19.382005987946457,41.95874965000639],[19.381971127710933,41.95865318448424],[19.382088747304167,41.95862950455432],[19.38212393477446,41.95872687510534],[19.382005987946457,41.95874965000639]]]},"properties":{"NR_PASURIS":"","SIPERFAQJA":113}},
{"type":"Feature","geometry":{"type":"Polygon","coordinates":[[[19.381771868991105,41.958391038359395],[19.38188038148547,41.958314211314836],[19.381979991090546,41.95839259250386],[19.38187147858059,41.95846941964143],[19.381771868991105,41.958391038359395]]]},"properties":{"NR_PASURIS":"","SIPERFAQJA":149}},
{"type":"Feature","geometry":{"type":"Polygon","coordinates":[[[19.380964359665917,41.95937461955494],[19.380949653914268,41.959406699439576],[19.380750151212276,41.959442062323696],[19.380691020110728,41.95941614565879],[19.38068953750559,41.959411782379995],[19.380633791696702,41.959247723081916],[19.38066886667087,41.9592410834841],[19.380660267595317,41.959215776464575],[19.380701188374232,41.95920803025643],[19.38070237445532,41.95921152087946],[19.38076784768467,41.95919912691528],[19.38076992333276,41.9592052355044],[19.380898531400735,41.95918089010612],[19.380964359665917,41.95937461955494]]]},"properties":{"NR_PASURIS":"","SIPERFAQJA":573}},
{"type":"Feature","geometry":{"type":"Polygon","coordinates":[[[19.38296466335829,41.95940073163927],[19.38298682009761,41.959345537779],[19.383004151586892,41.95934941377059],[19.383019730511514,41.9593106055822],[19.383117942270403,41.9593325694718],[19.3831023633997,41.95937137767374],[19.383128938372565,41.95937732083314],[19.383106781744207,41.95943251472126],[19.38296466335829,41.95940073163927]]]},"properties":{"NR_PASURIS":"","SIPERFAQJA":117}},
{"type":"Feature","geometry":{"type":"Polygon","coordinates":[[[19.383370496925306,41.95865704447073],[19.38335867849158,41.958686658525316],[19.383381798018394,41.958691798754224],[19.383367335927012,41.95872803715011],[19.38334421638831,41.95872289691823],[19.383328143615735,41.95876317119193],[19.38327496866072,41.95875134863346],[19.383269803603472,41.95876429091284],[19.383202756937177,41.95874938417067],[19.38325027549701,41.95863031521823],[19.383370496925306,41.95865704447073]]]},"properties":{"NR_PASURIS":"","SIPERFAQJA":145}},
{"type":"Feature","geometry":{"type":"Polygon","coordinates":[[[19.382919269942,41.9586175623943],[19.382934790031513,41.958715913774995],[19.38282338617129,41.958725707620914],[19.38280786625106,41.95862735622646],[19.382919269942,41.9586175623943]]]},"properties":{"NR_PASURIS":"","SIPERFAQJA":102}},
{"type":"Feature","geometry":{"type":"Polygon","coordinates":[[[19.382171560644746,41.95976995525903],[19.3821132852138,41.959821600469986],[19.381981355935366,41.959738668121695],[19.382074596626623,41.95965603587572],[19.38218069353403,41.95972272964863],[19.38214572831725,41.959753716782124],[19.382171560644746,41.95976995525903]]]},"properties":{"NR_PASURIS":"","SIPERFAQJA":159}},
{"type":"Feature","geometry":{"type":"Polygon","coordinates":[[[19.38103161301617,41.95790413689789],[19.380986981357925,41.957851705423145],[19.381047045931602,41.95782322002414],[19.38109167761977,41.95787565147599],[19.38103161301617,41.95790413689789]]]},"properties":{"NR_PASURIS":"","SIPERFAQJA":41}},
{"type":"Feature","geometry":{"type":"Polygon","coordinates":[[[19.378546602345548,41.9595268823502],[19.378542743277034,41.95944410636814],[19.378716328775862,41.959439597839264],[19.378715909288008,41.9594306004503],[19.378814756562534,41.95942803297648],[19.37881903548518,41.95951980634055],[19.378546602345548,41.9595268823502]]]},"properties":{"NR_PASURIS":"","SIPERFAQJA":216}},
{"type":"Feature","geometry":{"type":"Polygon","coordinates":[[[19.379013411562763,41.95913900967325],[19.379014189478912,41.95905888653707],[19.379050373848198,41.959059082249624],[19.379050636051137,41.95903207445048],[19.379176075147818,41.95903275283174],[19.379175035284128,41.95913988377016],[19.379013411562763,41.95913900967325]]]},"properties":{"NR_PASURIS":"","SIPERFAQJA":150}},
{"type":"Feature","geometry":{"type":"Polygon","coordinates":[[[19.380220844704425,41.95740486490941],[19.38035425340339,41.95745729061796],[19.38026996912924,41.957576784264496],[19.380136560252478,41.957524358457874],[19.380220844704425,41.95740486490941]]]},"properties":{"NR_PASURIS":"","SIPERFAQJA":188}},
{"type":"Feature","geometry":{"type":"Polygon","coordinates":[[[19.378311627083125,41.95433597412706],[19.378296110961625,41.95411120125403],[19.378418968522055,41.9541064757282],[19.378434485074482,41.9543312485877],[19.378311627083125,41.95433597412706]]]},"properties":{"NR_PASURIS":"","SIPERFAQJA":255}},
{"type":"Feature","geometry":{"type":"Polygon","coordinates":[[[19.383942078302617,41.96080922251617],[19.383882229483344,41.960941423718054],[19.383836519791064,41.960929896078454],[19.38382763896486,41.96094951302437],[19.383487102190212,41.96086363151254],[19.383495983108315,41.9608440145933],[19.383441131648617,41.960830181239935],[19.383471635680515,41.96076280139565],[19.383390501348945,41.96074233953448],[19.38341984701086,41.96067751843064],[19.383942078302617,41.96080922251617]]]},"properties":{"NR_PASURIS":"","SIPERFAQJA":721}},
{"type":"Feature","geometry":{"type":"Polygon","coordinates":[[[19.38175432862187,41.96071854395397],[19.381832660471098,41.96071604133058],[19.38183472390321,41.960752019727245],[19.38175639200997,41.96075452235175],[19.38175432862187,41.96071854395397]]]},"properties":{"NR_PASURIS":"","SIPERFAQJA":26}},
{"type":"Feature","geometry":{"type":"Polygon","coordinates":[[[19.38216949580399,41.9584586133439],[19.382136186211454,41.95836461511122],[19.382298269257767,41.95833261627002],[19.382331579072975,41.95842661445768],[19.38216949580399,41.9584586133439]]]},"properties":{"NR_PASURIS":"","SIPERFAQJA":150}},
{"type":"Feature","geometry":{"type":"Polygon","coordinates":[[[19.383800044876573,41.95920771442921],[19.383681646012626,41.95917395411756],[19.383742736083562,41.9590917074444],[19.383801811004183,41.95911615245725],[19.3837671089586,41.95916287253999],[19.383813662161895,41.959176501887235],[19.383800044876573,41.95920771442921]]]},"properties":{"NR_PASURIS":"","SIPERFAQJA":73}},
{"type":"Feature","geometry":{"type":"Polygon","coordinates":[[[19.38419277919395,41.958860683785254],[19.384284837003307,41.95893199933609],[19.384111115684096,41.95905692941626],[19.384019057891962,41.958985613727776],[19.38419277919395,41.958860683785254]]]},"properties":{"NR_PASURIS":"","SIPERFAQJA":220}},
{"type":"Feature","geometry":{"type":"Polygon","coordinates":[[[19.381185750843727,41.96035941730119],[19.381203410549368,41.96026035890245],[19.381366020612912,41.96027650827085],[19.381348361154075,41.960375566695966],[19.381185750843727,41.96035941730119]]]},"properties":{"NR_PASURIS":"","SIPERFAQJA":151}},
{"type":"Feature","geometry":{"type":"Polygon","coordinates":[[[19.376147977313714,41.958610791298284],[19.37621915019821,41.95869965583611],[19.37615082136148,41.95873014402467],[19.37607964853902,41.95864127944536],[19.376147977313714,41.958610791298284]]]},"properties":{"NR_PASURIS":"","SIPERFAQJA":76}},
{"type":"Feature","geometry":{"type":"Polygon","coordinates":[[[19.379348668364873,41.94972413811649],[19.379399447315475,41.949768077758776],[19.379427446030125,41.94979230535106],[19.379317867510007,41.94986287472786],[19.379286183613846,41.94983545826522],[19.379239089876428,41.949794707419144],[19.379348668364873,41.94972413811649]]]},"properties":{"NR_PASURIS":"","SIPERFAQJA":120}},
{"type":"Feature","geometry":{"type":"Polygon","coordinates":[[[19.369778916856905,41.957994232762],[19.369784438580087,41.95794759982576],[19.369906988726566,41.9579556841446],[19.36990146709189,41.95800231708727],[19.369778916856905,41.957994232762]]]},"properties":{"NR_PASURIS":"","SIPERFAQJA":53}},
{"type":"Feature","geometry":{"type":"Polygon","coordinates":[[[19.36983882085142,41.95635071139199],[19.369825348440568,41.95628485378022],[19.369865886776786,41.95628023337583],[19.369879359228534,41.95634609098318],[19.36983882085142,41.95635071139199]]]},"properties":{"NR_PASURIS":"","SIPERFAQJA":25}},
{"type":"Feature","geometry":{"type":"Polygon","coordinates":[[[19.372682519762357,41.95783773689333],[19.372766668312934,41.95783258876826],[19.372804110640146,41.95817355294321],[19.372719961643305,41.958178701092415],[19.372682519762357,41.95783773689333]]]},"properties":{"NR_PASURIS":"","SIPERFAQJA":266}},
{"type":"Feature","geometry":{"type":"Polygon","coordinates":[[[19.368984867942505,41.95754097514052],[19.36887937207541,41.95754969664487],[19.368872467598145,41.95750316646562],[19.368977963389284,41.95749444496703],[19.368984867942505,41.95754097514052]]]},"properties":{"NR_PASURIS":"","SIPERFAQJA":46}},
{"type":"Feature","geometry":{"type":"Polygon","coordinates":[[[19.37709202302445,41.952908875219165],[19.37741936362434,41.9531807123954],[19.377309037300094,41.95325473920234],[19.376981696797813,41.952982901715636],[19.37709202302445,41.952908875219165]]]},"properties":{"NR_PASURIS":"","SIPERFAQJA":499}},
{"type":"Feature","geometry":{"type":"Polygon","coordinates":[[[19.376531824126612,41.95550671190683],[19.37654179931169,41.955399837176856],[19.37662481953368,41.95540415448065],[19.376620209222153,41.955453550368354],[19.376728496569267,41.955459181548925],[19.376723131930294,41.95551666040491],[19.376531824126612,41.95550671190683]]]},"properties":{"NR_PASURIS":"","SIPERFAQJA":140}},
{"type":"Feature","geometry":{"type":"Polygon","coordinates":[[[19.377018239870928,41.955898041690595],[19.377146197171793,41.955924209828964],[19.377127712250854,41.95597457035419],[19.376999754857305,41.955948402194814],[19.377018239870928,41.955898041690595]]]},"properties":{"NR_PASURIS":"","SIPERFAQJA":64}},
{"type":"Feature","geometry":{"type":"Polygon","coordinates":[[[19.37697211267253,41.956545440622335],[19.377114733315736,41.95657247560364],[19.377075248327692,41.95668852946977],[19.376932627443583,41.95666149443833],[19.37697211267253,41.956545440622335]]]},"properties":{"NR_PASURIS":"","SIPERFAQJA":162}},
{"type":"Feature","geometry":{"type":"Polygon","coordinates":[[[19.377080645104762,41.956747033955715],[19.377094298798283,41.95670503928677],[19.3772091656738,41.956725846688386],[19.37719551205092,41.95676784137134],[19.377080645104762,41.956747033955715]]]},"properties":{"NR_PASURIS":"","SIPERFAQJA":47}},
{"type":"Feature","geometry":{"type":"Polygon","coordinates":[[[19.37731447347394,41.95724096865851],[19.377325393233892,41.95721941232861],[19.377517185418036,41.957273541203016],[19.377474527571245,41.95735775102565],[19.37728273517242,41.9573036220793],[19.37731447347394,41.95724096865851]]]},"properties":{"NR_PASURIS":"","SIPERFAQJA":170}},
{"type":"Feature","geometry":{"type":"Polygon","coordinates":[[[19.37731447347394,41.95724096865851],[19.37728273517242,41.9573036220793],[19.377275228034836,41.9573184416256],[19.377094717805836,41.957267496431854],[19.377133963430822,41.95719002352705],[19.37731447347394,41.95724096865851]]]},"properties":{"NR_PASURIS":"","SIPERFAQJA":147}},
{"type":"Feature","geometry":{"type":"Polygon","coordinates":[[[19.375856117788246,41.959606174624795],[19.37583961478818,41.959749692318304],[19.37570381459379,41.95974099290758],[19.375708456155383,41.95970062856294],[19.375788974799654,41.959705786636434],[19.37580083641146,41.95960263329983],[19.375856117788246,41.959606174624795]]]},"properties":{"NR_PASURIS":"","SIPERFAQJA":104}},
{"type":"Feature","geometry":{"type":"Polygon","coordinates":[[[19.379376214997006,41.96055175244988],[19.37923310380043,41.96048151209563],[19.379270879719662,41.960438635713736],[19.37941399086292,41.96050887602106],[19.379376214997006,41.96055175244988]]]},"properties":{"NR_PASURIS":"","SIPERFAQJA":81}},
{"type":"Feature","geometry":{"type":"Polygon","coordinates":[[[19.379402643630947,41.959550536947404],[19.37945268189003,41.95962823316015],[19.379460326093422,41.9596453109542],[19.379428293235033,41.95965329870117],[19.379420649039293,41.959636220905075],[19.379338278815375,41.95965676077924],[19.37930196903413,41.959575641215416],[19.379402643630947,41.959550536947404]]]},"properties":{"NR_PASURIS":"","SIPERFAQJA":95}},
{"type":"Feature","geometry":{"type":"Polygon","coordinates":[[[19.373512076731206,41.95822297756563],[19.373396165378693,41.958224764285816],[19.37339317699928,41.95811675333002],[19.373509088156062,41.95811496661149],[19.373512076731206,41.95822297756563]]]},"properties":{"NR_PASURIS":"","SIPERFAQJA":115}},
{"type":"Feature","geometry":{"type":"Polygon","coordinates":[[[19.379238253445592,41.95900076846871],[19.37938895807185,41.959004133226706],[19.379384810812965,41.95910761955913],[19.3792618356379,41.95910487392572],[19.37926262906576,41.95908507654165],[19.37923489937967,41.9590844574103],[19.379238253445592,41.95900076846871]]]},"properties":{"NR_PASURIS":"","SIPERFAQJA":139}},
{"type":"Feature","geometry":{"type":"Polygon","coordinates":[[[19.383980289514014,41.96048814033094],[19.384032310937204,41.960398998783376],[19.384058851418406,41.96040762713701],[19.38408630709489,41.96036058019229],[19.384182516342978,41.96039185789994],[19.38415506072329,41.960438904867786],[19.38418491880272,41.96044861173346],[19.3841328975503,41.960537753350565],[19.383980289514014,41.96048814033094]]]},"properties":{"NR_PASURIS":"","SIPERFAQJA":199}},
{"type":"Feature","geometry":{"type":"Polygon","coordinates":[[[19.38055521119461,41.958425443414164],[19.38052946992386,41.958392881656785],[19.38058211642902,41.95836969504245],[19.380607857717525,41.958402256788276],[19.38055521119461,41.958425443414164]]]},"properties":{"NR_PASURIS":"","SIPERFAQJA":21}},
{"type":"Feature","geometry":{"type":"Polygon","coordinates":[[[19.380748648254567,41.95829072858802],[19.38072495443757,41.958259585668635],[19.38080166362145,41.95822707164322],[19.38082420201142,41.958256695834685],[19.380748648254567,41.95829072858802]]]},"properties":{"NR_PASURIS":"","SIPERFAQJA":28}},
{"type":"Feature","geometry":{"type":"Polygon","coordinates":[[[19.384042067180978,41.95941008904372],[19.383998850670864,41.9593927927001],[19.384019579601198,41.959363938836496],[19.38406279609761,41.95938123517231],[19.384042067180978,41.95941008904372]]]},"properties":{"NR_PASURIS":"","SIPERFAQJA":15}}
]}