{"type":"FeatureCollection", "features": [
{"type":"Feature","geometry":{"type":"Point","coordinates":[19.6235627760836,40.16656190772215]},"properties":{"NAME":"","SOURCE":"","NR":"","EMER_MBIEM":"POLIKRON THOMA DHIMOLEA, PASKAL THOMA DHIMOLEA","NR_TEL":"","ID":"","VETDEKL":"","GEN_PLAN":"","FOTOGRAFI":"","DEKLARATE":"","KOORD_ORIG":"","PENALITET":"","GR_PUNIM":"","KONVERTIM":"","LAT_WGS84":0,"LON_WGS84":0,"INFO_ALL":"","shenime":""}},
{"type":"Feature","geometry":{"type":"Point","coordinates":[19.62333136161091,40.16666315180083]},"properties":{"NAME":"","SOURCE":"","NR":"","EMER_MBIEM":"HELIDON FILIP MAKO","NR_TEL":"","ID":"","VETDEKL":"","GEN_PLAN":"","FOTOGRAFI":"","DEKLARATE":"","KOORD_ORIG":"","PENALITET":"","GR_PUNIM":"","KONVERTIM":"","LAT_WGS84":0,"LON_WGS84":0,"INFO_ALL":"","shenime":""}},
{"type":"Feature","geometry":{"type":"Point","coordinates":[19.623127679761556,40.166548223830695]},"properties":{"NAME":"","SOURCE":"","NR":"","EMER_MBIEM":"MARKO ANASTAS NIKA","NR_TEL":"","ID":"","VETDEKL":"","GEN_PLAN":"","FOTOGRAFI":"","DEKLARATE":"","KOORD_ORIG":"","PENALITET":"","GR_PUNIM":"","KONVERTIM":"","LAT_WGS84":0,"LON_WGS84":0,"INFO_ALL":"","shenime":""}},
{"type":"Feature","geometry":{"type":"Point","coordinates":[19.625228907840608,40.166664915471706]},"properties":{"NAME":"","SOURCE":"","NR":"","EMER_MBIEM":"STEFAN DHIMOSTEN MILO","NR_TEL":"","ID":"","VETDEKL":"","GEN_PLAN":"","FOTOGRAFI":"","DEKLARATE":"","KOORD_ORIG":"","PENALITET":"","GR_PUNIM":"","KONVERTIM":"","LAT_WGS84":0,"LON_WGS84":0,"INFO_ALL":"","shenime":""}},
{"type":"Feature","geometry":{"type":"Point","coordinates":[19.62427759965802,40.166601354143225]},"properties":{"NAME":"","SOURCE":"","NR":"","EMER_MBIEM":"LENA MARKO BABE, ARETI STEFO (GJINI) BABE, ILIA STEFO BABE, FOTO STEFO BABE","NR_TEL":"","ID":"","VETDEKL":"","GEN_PLAN":"","FOTOGRAFI":"","DEKLARATE":"","KOORD_ORIG":"","PENALITET":"","GR_PUNIM":"","KONVERTIM":"","LAT_WGS84":0,"LON_WGS84":0,"INFO_ALL":"","shenime":""}},
{"type":"Feature","geometry":{"type":"Point","coordinates":[19.62509779982908,40.166614631550345]},"properties":{"NAME":"","SOURCE":"","NR":"","EMER_MBIEM":"VASILLAQ MIHAL LALUCI","NR_TEL":"","ID":"","VETDEKL":"","GEN_PLAN":"","FOTOGRAFI":"","DEKLARATE":"","KOORD_ORIG":"","PENALITET":"","GR_PUNIM":"","KONVERTIM":"","LAT_WGS84":0,"LON_WGS84":0,"INFO_ALL":"","shenime":""}},
{"type":"Feature","geometry":{"type":"Point","coordinates":[19.6243040116437,40.16759401768549]},"properties":{"NAME":"","SOURCE":"","NR":"","EMER_MBIEM":"MARKO DHIMITRI BILLA","NR_TEL":"","ID":"","VETDEKL":"","GEN_PLAN":"","FOTOGRAFI":"","DEKLARATE":"","KOORD_ORIG":"","PENALITET":"","GR_PUNIM":"","KONVERTIM":"","LAT_WGS84":0,"LON_WGS84":0,"INFO_ALL":"","shenime":""}},
{"type":"Feature","geometry":{"type":"Point","coordinates":[19.62492933398693,40.166961556961766]},"properties":{"NAME":"","SOURCE":"","NR":"","EMER_MBIEM":"AFERDITA RAKIP CACI, KOSTANDINOS EKTOR CACI","NR_TEL":"","ID":"","VETDEKL":"","GEN_PLAN":"","FOTOGRAFI":"","DEKLARATE":"","KOORD_ORIG":"","PENALITET":"","GR_PUNIM":"","KONVERTIM":"","LAT_WGS84":0,"LON_WGS84":0,"INFO_ALL":"","shenime":""}},
{"type":"Feature","geometry":{"type":"Point","coordinates":[19.620301987569512,40.171626625307006]},"properties":{"NAME":"","SOURCE":"","NR":"","EMER_MBIEM":"PAVLINA SOKRAT BEZATI","NR_TEL":"","ID":"","VETDEKL":"","GEN_PLAN":"","FOTOGRAFI":"","DEKLARATE":"","KOORD_ORIG":"","PENALITET":"","GR_PUNIM":"","KONVERTIM":"","LAT_WGS84":0,"LON_WGS84":0,"INFO_ALL":"","shenime":""}},
{"type":"Feature","geometry":{"type":"Point","coordinates":[19.625143655079373,40.16707302874761]},"properties":{"NAME":"","SOURCE":"","NR":"","EMER_MBIEM":"PAVLINA SOKRAT BEZATI","NR_TEL":"","ID":"","VETDEKL":"","GEN_PLAN":"","FOTOGRAFI":"","DEKLARATE":"","KOORD_ORIG":"","PENALITET":"","GR_PUNIM":"","KONVERTIM":"","LAT_WGS84":0,"LON_WGS84":0,"INFO_ALL":"","shenime":""}},
{"type":"Feature","geometry":{"type":"Point","coordinates":[19.624969511670844,40.16743783967003]},"properties":{"NAME":"","SOURCE":"","NR":"","EMER_MBIEM":"DHIMITRAQ KOSTA LOLI","NR_TEL":"","ID":"","VETDEKL":"","GEN_PLAN":"","FOTOGRAFI":"","DEKLARATE":"","KOORD_ORIG":"","PENALITET":"","GR_PUNIM":"","KONVERTIM":"","LAT_WGS84":0,"LON_WGS84":0,"INFO_ALL":"","shenime":""}},
{"type":"Feature","geometry":{"type":"Point","coordinates":[19.622442881384693,40.16649157621855]},"properties":{"NAME":"","SOURCE":"","NR":"","EMER_MBIEM":"DHIMOSTEN PASKAL KOKURI","NR_TEL":"","ID":"","VETDEKL":"","GEN_PLAN":"","FOTOGRAFI":"","DEKLARATE":"","KOORD_ORIG":"","PENALITET":"","GR_PUNIM":"","KONVERTIM":"","LAT_WGS84":0,"LON_WGS84":0,"INFO_ALL":"","shenime":""}},
{"type":"Feature","geometry":{"type":"Point","coordinates":[19.622886751877772,40.16566416716202]},"properties":{"NAME":"","SOURCE":"","NR":"","EMER_MBIEM":"ELPINIQI SPIRO KONOMI","NR_TEL":"","ID":"","VETDEKL":"","GEN_PLAN":"","FOTOGRAFI":"","DEKLARATE":"","KOORD_ORIG":"","PENALITET":"","GR_PUNIM":"","KONVERTIM":"","LAT_WGS84":0,"LON_WGS84":0,"INFO_ALL":"","shenime":""}},
{"type":"Feature","geometry":{"type":"Point","coordinates":[19.623314745076794,40.166742385328845]},"properties":{"NAME":"","SOURCE":"","NR":"","EMER_MBIEM":"KOCO SOKRAT NESTURI","NR_TEL":"","ID":"","VETDEKL":"","GEN_PLAN":"","FOTOGRAFI":"","DEKLARATE":"","KOORD_ORIG":"","PENALITET":"","GR_PUNIM":"","KONVERTIM":"","LAT_WGS84":0,"LON_WGS84":0,"INFO_ALL":"","shenime":""}},
{"type":"Feature","geometry":{"type":"Point","coordinates":[19.6255760267018,40.16653607058033]},"properties":{"NAME":"","SOURCE":"","NR":"","EMER_MBIEM":"PETRO KOSTA MILO","NR_TEL":"","ID":"","VETDEKL":"","GEN_PLAN":"","FOTOGRAFI":"","DEKLARATE":"","KOORD_ORIG":"","PENALITET":"","GR_PUNIM":"","KONVERTIM":"","LAT_WGS84":0,"LON_WGS84":0,"INFO_ALL":"","shenime":""}},
{"type":"Feature","geometry":{"type":"Point","coordinates":[19.624572926363822,40.167672878389375]},"properties":{"NAME":"","SOURCE":"","NR":"","EMER_MBIEM":"VIRON ILIA CECO","NR_TEL":"","ID":"","VETDEKL":"","GEN_PLAN":"","FOTOGRAFI":"","DEKLARATE":"","KOORD_ORIG":"","PENALITET":"","GR_PUNIM":"","KONVERTIM":"","LAT_WGS84":0,"LON_WGS84":0,"INFO_ALL":"","shenime":""}},
{"type":"Feature","geometry":{"type":"Point","coordinates":[19.619548016771024,40.167708124345374]},"properties":{"NAME":"","SOURCE":"","NR":"","EMER_MBIEM":"ARBER DHIMITROV PAPUCIU, MAJ DHIMITROV PAPUCIU","NR_TEL":"","ID":"","VETDEKL":"","GEN_PLAN":"","FOTOGRAFI":"","DEKLARATE":"","KOORD_ORIG":"","PENALITET":"","GR_PUNIM":"","KONVERTIM":"","LAT_WGS84":0,"LON_WGS84":0,"INFO_ALL":"","shenime":""}}
]}