{"type":"FeatureCollection", "features": [
{"type":"Feature","geometry":{"type":"Polygon","coordinates":[[[19.663535706842175,40.14100747546268],[19.663487117460743,40.14101698865699],[19.663472489175906,40.14097297818628],[19.66346246295527,40.14094281333044],[19.663570480726236,40.140921666009056],[19.66359513534629,40.14099584041275],[19.663535706842175,40.14100747546268]]]},"properties":{"OBJECTID":29807,"id":2832331,"cze_id":1982,"Tipi":"Ndertese","upn":"1982-14/46-ND","label":"14/46-ND","legal_area":0,"active":2,"descriptio":"","registrati":"2020-12-21 17:08:43","su_last_mo":"2022-05-13 10:47:29","volume":3,"page":42,"property_n":"14/46-ND","pronari":"PRIVAT","Lloji_pasu":"NDERTESE","id_bau":29030497,"id_sut":2832331,"InspireId":"ASHK_N_2832331","Zona_Kadas":1982,"Numri_i_pa":"14/46-ND","Emri_I_Sis":"Agjencia Shteterore e Kadastres","Fillimi_i_":"21.12.2020","Përfundim":"13.05.2022","Shape_Leng":35.9999411332,"Shape_Area":80.7496979081}},
{"type":"Feature","geometry":{"type":"Polygon","coordinates":[[[19.671324024774073,40.14358318387223],[19.671307441905622,40.14362825210931],[19.671239681837264,40.14361356828333],[19.67124701846322,40.14359362922549],[19.671256264746788,40.143568500056006],[19.671324024774073,40.14358318387223]]]},"properties":{"OBJECTID":30967,"id":2832345,"cze_id":1982,"Tipi":"Ndertese","upn":"1982-1/20-N","label":"1/20","legal_area":0,"active":2,"descriptio":"","registrati":"2020-12-21 17:08:43","su_last_mo":"2022-05-13 10:47:27","volume":2,"page":93,"property_n":"1/20","pronari":"PRIVAT","Lloji_pasu":"TRUALL","id_bau":29029967,"id_sut":2832345,"InspireId":"ASHK_N_2832345","Zona_Kadas":1982,"Numri_i_pa":"1/20","Emri_I_Sis":"Agjencia Shteterore e Kadastres","Fillimi_i_":"21.12.2020","Përfundim":"13.05.2022","Shape_Leng":22.3999856955,"Shape_Area":31.1999580043}},
{"type":"Feature","geometry":{"type":"Polygon","coordinates":[[[19.663535706842175,40.14100747546268],[19.663542672567054,40.14102934594351],[19.663494795742487,40.14103832625769],[19.663446920078883,40.141047306555436],[19.663426026533582,40.14098169330385],[19.663472489175906,40.14097297818628],[19.663487117460743,40.14101698865699],[19.663535706842175,40.14100747546268]]]},"properties":{"OBJECTID":34629,"id":2832415,"cze_id":1982,"Tipi":"Ndertese","upn":"1982-14/46-N","label":"14/46","legal_area":0,"active":2,"descriptio":"","registrati":"2020-12-21 17:08:43","su_last_mo":"2022-05-13 10:47:17","volume":3,"page":42,"property_n":"14/46-ND","pronari":"PRIVAT","Lloji_pasu":"NDERTESE","id_bau":29030497,"id_sut":2832415,"InspireId":"ASHK_N_2832415","Zona_Kadas":1982,"Numri_i_pa":"14/46-ND","Emri_I_Sis":"Agjencia Shteterore e Kadastres","Fillimi_i_":"21.12.2020","Përfundim":"13.05.2022","Shape_Leng":31.7927864523,"Shape_Area":41.4140243362}},
{"type":"Feature","geometry":{"type":"Polygon","coordinates":[[[19.67202033661802,40.14362688267943],[19.67201484944971,40.14359952417379],[19.672012302984054,40.14358682757797],[19.67207377311998,40.14357956545354],[19.67205770463148,40.14349945615366],[19.67211801695211,40.143492331219484],[19.672121121547747,40.14350781133146],[19.672131284583084,40.14355847966285],[19.67214211921379,40.14361249560474],[19.67202033661802,40.14362688267943]]]},"properties":{"OBJECTID":35267,"id":2832379,"cze_id":1982,"Tipi":"Ndertese","upn":"1982-1/57-N","label":"1/57","legal_area":0,"active":2,"descriptio":"","registrati":"2020-12-21 17:08:43","su_last_mo":"2022-05-13 10:47:21","volume":2,"page":80,"property_n":"1/57","pronari":"PRIVAT","Lloji_pasu":"NDERTESE","id_bau":29030022,"id_sut":2832379,"InspireId":"ASHK_N_2832379","Zona_Kadas":1982,"Numri_i_pa":"1/57","Emri_I_Sis":"Agjencia Shteterore e Kadastres","Fillimi_i_":"21.12.2020","Përfundim":"13.05.2022","Shape_Leng":48.0000509271,"Shape_Area":94.050754216}},
{"type":"Feature","geometry":{"type":"Polygon","coordinates":[[[19.67037834684392,40.1439151488761],[19.670160364115233,40.14389574088091],[19.670167666949695,40.143847433056706],[19.670385648352756,40.143866841034374],[19.67037834684392,40.1439151488761]]]},"properties":{"OBJECTID":36772,"id":2832353,"cze_id":1982,"Tipi":"Ndertese","upn":"1982-1/2/1-N","label":"1/2/1","legal_area":0,"active":2,"descriptio":"","registrati":"2020-12-21 17:08:43","su_last_mo":"2022-05-13 10:47:26","volume":2,"page":164,"property_n":"1/2/1","pronari":"PRIVAT","Lloji_pasu":"TRUALL","id_bau":29029965,"id_sut":2832353,"InspireId":"ASHK_N_2832353","Zona_Kadas":1982,"Numri_i_pa":"1/2/1","Emri_I_Sis":"Agjencia Shteterore e Kadastres","Fillimi_i_":"21.12.2020","Përfundim":"13.05.2022","Shape_Leng":48.1999464161,"Shape_Area":100.979856808}},
{"type":"Feature","geometry":{"type":"Polygon","coordinates":[[[19.671610016203466,40.14371320720879],[19.671582247918565,40.14377210752271],[19.671519015102024,40.143753998228256],[19.67154737263986,40.14369483212401],[19.671610016203466,40.14371320720879]]]},"properties":{"OBJECTID":37976,"id":2832334,"cze_id":1982,"Tipi":"Ndertese","upn":"1982-21/2-N","label":"21/2","legal_area":0,"active":2,"descriptio":"","registrati":"2020-12-21 17:08:43","su_last_mo":"2022-05-13 10:47:29","volume":3,"page":38,"property_n":"21/2","pronari":"PRIVAT","Lloji_pasu":"TRUALL","id_bau":29030466,"id_sut":2832334,"InspireId":"ASHK_N_2832334","Zona_Kadas":1982,"Numri_i_pa":"21/2","Emri_I_Sis":"Agjencia Shteterore e Kadastres","Fillimi_i_":"21.12.2020","Përfundim":"13.05.2022","Shape_Leng":25.4213622258,"Shape_Area":40.0001714176}},
{"type":"Feature","geometry":{"type":"Polygon","coordinates":[[[19.671332299412516,40.14432292630611],[19.67134899738251,40.14422015458231],[19.67149177283653,40.144233816459796],[19.671475076251564,40.14433658820814],[19.671332299412516,40.14432292630611]]]},"properties":{"OBJECTID":37977,"id":2832333,"cze_id":1982,"Tipi":"Ndertese","upn":"1982-21/3-N","label":"21/3","legal_area":0,"active":2,"descriptio":"","registrati":"2020-12-21 17:08:43","su_last_mo":"2022-05-13 10:47:29","volume":3,"page":39,"property_n":"21/3","pronari":"PRIVAT","Lloji_pasu":"TRUALL","id_bau":29030468,"id_sut":2832333,"InspireId":"ASHK_N_2832333","Zona_Kadas":1982,"Numri_i_pa":"21/3","Emri_I_Sis":"Agjencia Shteterore e Kadastres","Fillimi_i_":"21.12.2020","Përfundim":"13.05.2022","Shape_Leng":47.5216234631,"Shape_Area":140.999318924}}
]}