{"type":"FeatureCollection", "features": [
{"type":"Feature","geometry":{"type":"Polygon","coordinates":[[[19.62452012063338,40.16324017554055],[19.624493331898385,40.163152493567225],[19.62457333194915,40.16313810667199],[19.62460012078169,40.16322578862745],[19.62452012063338,40.16324017554055]]]},"properties":{"OBJECTID":69968,"id":2976339,"cze_id":2863,"Tipi":"Ndertese","upn":"2863-119/1-ND","label":"119/1-ND","legal_area":0,"active":2,"descriptio":"","registrati":"2023-04-05 14:46:38","su_last_mo":"2023-04-05 14:46:38","volume":1,"page":13,"property_n":"119/1-ND","pronari":"PRIVAT","Lloji_pasu":"NDERTESE","id_bau":45339710,"id_sut":2976339,"InspireId":"ASHK_N_2976339","Zona_Kadas":2863,"Numri_i_pa":"119/1-ND","Emri_I_Sis":"Agjencia Shteterore e Kadastres","Fillimi_i_":"05.04.2023","Përfundim":"05.04.2023","Shape_Leng":34.0001328309,"Shape_Area":70.000577181}},
{"type":"Feature","geometry":{"type":"Polygon","coordinates":[[[19.623883600058218,40.1660203844453],[19.623834994566845,40.16592863106577],[19.623927865563548,40.165899674358016],[19.623930279757676,40.16590423018253],[19.623951500217817,40.16589761311895],[19.623979927931888,40.16595127708259],[19.623958707462688,40.16595789325067],[19.62397647233378,40.16599142770332],[19.623883600058218,40.1660203844453]]]},"properties":{"OBJECTID":73477,"id":2976904,"cze_id":2863,"Tipi":"Ndertese","upn":"2863-30/195-ND","label":"30/195-ND","legal_area":0,"active":2,"descriptio":"","registrati":"2023-04-05 14:46:38","su_last_mo":"2023-04-05 14:46:38","volume":1,"page":167,"property_n":"30/195-ND","pronari":"PRIVAT","Lloji_pasu":"NDERTESE","id_bau":45341111,"id_sut":2976904,"InspireId":"ASHK_N_2976904","Zona_Kadas":2863,"Numri_i_pa":"30/195-ND","Emri_I_Sis":"Agjencia Shteterore e Kadastres","Fillimi_i_":"05.04.2023","Përfundim":"05.04.2023","Shape_Leng":42.9776264481,"Shape_Area":106.469344264}},
{"type":"Feature","geometry":{"type":"Polygon","coordinates":[[[19.609610369055893,40.17533538578407],[19.60956814868027,40.175269087047035],[19.609732884144794,40.1752073586184],[19.609775103469424,40.175273657292706],[19.609610369055893,40.17533538578407]]]},"properties":{"OBJECTID":76477,"id":2976950,"cze_id":2863,"Tipi":"Ndertese","upn":"2863-30/216-ND","label":"30/216-ND","legal_area":0,"active":2,"descriptio":"","registrati":"2023-04-05 14:46:38","su_last_mo":"2023-04-05 14:46:38","volume":1,"page":223,"property_n":"30/216-ND","pronari":"PRIVAT","Lloji_pasu":"NDERTESE","id_bau":45341148,"id_sut":2976950,"InspireId":"ASHK_N_2976950","Zona_Kadas":2863,"Numri_i_pa":"30/216-ND","Emri_I_Sis":"Agjencia Shteterore e Kadastres","Fillimi_i_":"05.04.2023","Përfundim":"05.04.2023","Shape_Leng":47.61865727,"Shape_Area":127.945779729}},
{"type":"Feature","geometry":{"type":"Polygon","coordinates":[[[19.621625437606575,40.16630178248752],[19.62161680810251,40.16621196810256],[19.621710464721605,40.166206671558456],[19.621719094348546,40.16629648593708],[19.621625437606575,40.16630178248752]]]},"properties":{"OBJECTID":76800,"id":2976610,"cze_id":2863,"Tipi":"Ndertese","upn":"2863-3/207-ND","label":"3/207-ND","legal_area":0,"active":2,"descriptio":"","registrati":"2023-04-05 14:46:38","su_last_mo":"2023-04-05 14:46:38","volume":1,"page":19,"property_n":"3/207-ND","pronari":"PRIVAT","Lloji_pasu":"NDERTESE","id_bau":45340918,"id_sut":2976610,"InspireId":"ASHK_N_2976610","Zona_Kadas":2863,"Numri_i_pa":"3/207-ND","Emri_I_Sis":"Agjencia Shteterore e Kadastres","Fillimi_i_":"05.04.2023","Përfundim":"05.04.2023","Shape_Leng":36.0000072419,"Shape_Area":80.0000782233}},
{"type":"Feature","geometry":{"type":"Polygon","coordinates":[[[19.623884068097205,40.167193237734864],[19.623906412552177,40.16720275751145],[19.62385911551251,40.16726809841526],[19.623759973751806,40.167225861013605],[19.623807272030486,40.167160520153935],[19.623814527325006,40.16716361113809],[19.623848303470233,40.167116950504294],[19.623917792161198,40.16714664895903],[19.623884068097205,40.167193237734864]]]},"properties":{"OBJECTID":76915,"id":2976910,"cze_id":2863,"Tipi":"Ndertese","upn":"2863-30/198-ND","label":"30/198-ND","legal_area":0,"active":2,"descriptio":"","registrati":"2023-04-05 14:46:38","su_last_mo":"2023-04-05 14:46:38","volume":1,"page":172,"property_n":"30/198-ND","pronari":"PRIVAT","Lloji_pasu":"NDERTESE","id_bau":45341116,"id_sut":2976910,"InspireId":"ASHK_N_2976910","Zona_Kadas":2863,"Numri_i_pa":"30/198-ND","Emri_I_Sis":"Agjencia Shteterore e Kadastres","Fillimi_i_":"05.04.2023","Përfundim":"05.04.2023","Shape_Leng":47.7626352523,"Shape_Area":120.299182232}},
{"type":"Feature","geometry":{"type":"Polygon","coordinates":[[[19.610055120685587,40.17512947351304],[19.610085082925515,40.175120749550345],[19.61021697291914,40.17508234493853],[19.610240527813215,40.17512994471841],[19.610115340972136,40.1751663969379],[19.6100776935187,40.17517735910701],[19.61006662848346,40.17518058107315],[19.6100430736888,40.17513298215938],[19.610055120685587,40.17512947351304]]]},"properties":{"OBJECTID":76917,"id":2976953,"cze_id":2863,"Tipi":"Ndertese","upn":"2863-30/218-ND","label":"30/218-ND","legal_area":0,"active":2,"descriptio":"","registrati":"2023-04-05 14:46:38","su_last_mo":"2023-04-05 14:46:38","volume":1,"page":227,"property_n":"30/218-ND","pronari":"PRIVAT","Lloji_pasu":"NDERTESE","id_bau":45341152,"id_sut":2976953,"InspireId":"ASHK_N_2976953","Zona_Kadas":2863,"Numri_i_pa":"30/218-ND","Emri_I_Sis":"Agjencia Shteterore e Kadastres","Fillimi_i_":"05.04.2023","Përfundim":"05.04.2023","Shape_Leng":42.9936032943,"Shape_Area":89.5692418787}},
{"type":"Feature","geometry":{"type":"Polygon","coordinates":[[[19.620806256672317,40.163788839897514],[19.620905198478784,40.163701403090684],[19.62096782721675,40.163743118166266],[19.620868885429225,40.163830555026074],[19.620806256672317,40.163788839897514]]]},"properties":{"OBJECTID":77721,"id":2976911,"cze_id":2863,"Tipi":"Ndertese","upn":"2863-30/199-N","label":"30/199","legal_area":0,"active":2,"descriptio":"","registrati":"2023-04-05 14:46:38","su_last_mo":"2023-04-05 14:46:38","volume":1,"page":175,"property_n":"30/199","pronari":"PRIVAT","Lloji_pasu":"TRUALL","id_bau":45341118,"id_sut":2976911,"InspireId":"ASHK_N_2976911","Zona_Kadas":2863,"Numri_i_pa":"30/199","Emri_I_Sis":"Agjencia Shteterore e Kadastres","Fillimi_i_":"05.04.2023","Përfundim":"05.04.2023","Shape_Leng":39.8456317103,"Shape_Area":90.8435825653}},
{"type":"Feature","geometry":{"type":"Polygon","coordinates":[[[19.609769483924705,40.17518705482276],[19.609904748870775,40.17513893648159],[19.60994525140464,40.17520593086922],[19.609809986353394,40.17525404925666],[19.609769483924705,40.17518705482276]]]},"properties":{"OBJECTID":77723,"id":2976952,"cze_id":2863,"Tipi":"Ndertese","upn":"2863-30/217-ND","label":"30/217-ND","legal_area":0,"active":2,"descriptio":"","registrati":"2023-04-05 14:46:38","su_last_mo":"2023-04-05 14:46:38","volume":1,"page":225,"property_n":"30/217-ND","pronari":"PRIVAT","Lloji_pasu":"NDERTESE","id_bau":45341150,"id_sut":2976952,"InspireId":"ASHK_N_2976952","Zona_Kadas":2863,"Numri_i_pa":"30/217-ND","Emri_I_Sis":"Agjencia Shteterore e Kadastres","Fillimi_i_":"05.04.2023","Përfundim":"05.04.2023","Shape_Leng":41.80010037,"Shape_Area":104.140579629}},
{"type":"Feature","geometry":{"type":"Polygon","coordinates":[[[19.623800883223918,40.165900873905166],[19.62353876675004,40.16606695635683],[19.623470518487213,40.16600355979938],[19.623732634881172,40.16583747750005],[19.623800883223918,40.165900873905166]]]},"properties":{"OBJECTID":78363,"id":2976760,"cze_id":2863,"Tipi":"Ndertese","upn":"2863-3/46-N","label":"3/46","legal_area":0,"active":2,"descriptio":"","registrati":"2023-04-05 14:46:38","su_last_mo":"2023-04-05 14:46:38","volume":1,"page":231,"property_n":"3/46","pronari":"PRIVAT","Lloji_pasu":"TRUALL","id_bau":45341005,"id_sut":2976760,"InspireId":"ASHK_N_2976760","Zona_Kadas":2863,"Numri_i_pa":"3/46","Emri_I_Sis":"Agjencia Shteterore e Kadastres","Fillimi_i_":"05.04.2023","Përfundim":"05.04.2023","Shape_Leng":76.1800496543,"Shape_Area":264.404319389}},
{"type":"Feature","geometry":{"type":"Polygon","coordinates":[[[19.62457024794403,40.16742059702083],[19.62456683537618,40.16741761490747],[19.6245334632463,40.167388454543584],[19.624570413436306,40.1673649887954],[19.624605951772015,40.1673979242427],[19.62457024794403,40.16742059702083]]]},"properties":{"OBJECTID":78365,"id":2976917,"cze_id":2863,"Tipi":"Ndertese","upn":"2863-30/201-N","label":"30/201","legal_area":0,"active":2,"descriptio":"","registrati":"2023-04-05 14:46:38","su_last_mo":"2023-04-05 14:46:38","volume":1,"page":176,"property_n":"30/201","pronari":"PRIVAT","Lloji_pasu":"TRUALL","id_bau":45341120,"id_sut":2976917,"InspireId":"ASHK_N_2976917","Zona_Kadas":2863,"Numri_i_pa":"30/201","Emri_I_Sis":"Agjencia Shteterore e Kadastres","Fillimi_i_":"05.04.2023","Përfundim":"05.04.2023","Shape_Leng":17.5314796926,"Shape_Area":19.0717812074}},
{"type":"Feature","geometry":{"type":"Polygon","coordinates":[[[19.627454563221512,40.16327978088938],[19.62738777527832,40.16335384043666],[19.62731537741492,40.1633154106576],[19.627382164229587,40.163241350247425],[19.627454563221512,40.16327978088938]]]},"properties":{"OBJECTID":78856,"id":2976899,"cze_id":2863,"Tipi":"Ndertese","upn":"2863-30/193-ND","label":"30/193-ND","legal_area":0,"active":2,"descriptio":"","registrati":"2023-04-05 14:46:38","su_last_mo":"2023-04-05 14:46:38","volume":1,"page":163,"property_n":"30/193-ND","pronari":"PRIVAT","Lloji_pasu":"NDERTESE","id_bau":45341107,"id_sut":2976899,"InspireId":"ASHK_N_2976899","Zona_Kadas":2863,"Numri_i_pa":"30/193-ND","Emri_I_Sis":"Agjencia Shteterore e Kadastres","Fillimi_i_":"05.04.2023","Përfundim":"05.04.2023","Shape_Leng":34.9999608402,"Shape_Area":74.9998662529}},
{"type":"Feature","geometry":{"type":"Polygon","coordinates":[[[19.624362514393628,40.16666422871604],[19.62445750810925,40.16666028067165],[19.624569182038282,40.16665564004632],[19.624575911715905,40.16675094075168],[19.624369243782887,40.16675952943198],[19.62436895091347,40.16675537315679],[19.624362514393628,40.16666422871604]]]},"properties":{"OBJECTID":79129,"id":2976896,"cze_id":2863,"Tipi":"Ndertese","upn":"2863-30/191-N","label":"30/191","legal_area":0,"active":2,"descriptio":"","registrati":"2023-04-05 14:46:38","su_last_mo":"2023-04-05 14:46:38","volume":1,"page":158,"property_n":"30/191","pronari":"PRIVAT","Lloji_pasu":"TRUALL","id_bau":45341105,"id_sut":2976896,"InspireId":"ASHK_N_2976896","Zona_Kadas":2863,"Numri_i_pa":"30/191","Emri_I_Sis":"Agjencia Shteterore e Kadastres","Fillimi_i_":"05.04.2023","Përfundim":"05.04.2023","Shape_Leng":56.457670301,"Shape_Area":186.84908919}},
{"type":"Feature","geometry":{"type":"Polygon","coordinates":[[[19.62325837083276,40.166797136615365],[19.623261096166193,40.16678532973468],[19.623342009924478,40.16679632442023],[19.62334093951618,40.16680096258194],[19.623307205074813,40.16694707722263],[19.623226292317405,40.166936082516074],[19.62325837083276,40.166797136615365]]]},"properties":{"OBJECTID":79294,"id":2976439,"cze_id":2863,"Tipi":"Ndertese","upn":"2863-3/112-ND","label":"3/112-ND","legal_area":0,"active":2,"descriptio":"","registrati":"2023-04-05 14:46:38","su_last_mo":"2023-04-05 14:46:38","volume":1,"page":211,"property_n":"3/112-ND","pronari":"PRIVAT","Lloji_pasu":"NDERTESE","id_bau":45340824,"id_sut":2976439,"InspireId":"ASHK_N_2976439","Zona_Kadas":2863,"Numri_i_pa":"3/112-ND","Emri_I_Sis":"Agjencia Shteterore e Kadastres","Fillimi_i_":"05.04.2023","Përfundim":"05.04.2023","Shape_Leng":48.0000657022,"Shape_Area":119.000361033}},
{"type":"Feature","geometry":{"type":"Polygon","coordinates":[[[19.624862924215247,40.16521345941299],[19.624716071222686,40.16525420537112],[19.62469490699228,40.16520930896184],[19.624744041779287,40.16519567566694],[19.624734377466268,40.165175175716044],[19.624782960826348,40.165161696419545],[19.624792625152132,40.16518219636648],[19.62484175990033,40.165168563029894],[19.624862924215247,40.16521345941299]]]},"properties":{"OBJECTID":80739,"id":2976481,"cze_id":2863,"Tipi":"Ndertese","upn":"2863-3/143-ND","label":"3/143-ND","legal_area":0,"active":2,"descriptio":"","registrati":"2023-04-05 14:46:38","su_last_mo":"2023-04-05 14:46:38","volume":1,"page":209,"property_n":"3/143-ND","pronari":"PRIVAT","Lloji_pasu":"NDERTESE","id_bau":45340853,"id_sut":2976481,"InspireId":"ASHK_N_2976481","Zona_Kadas":2863,"Numri_i_pa":"3/143-ND","Emri_I_Sis":"Agjencia Shteterore e Kadastres","Fillimi_i_":"05.04.2023","Përfundim":"05.04.2023","Shape_Leng":42.0502117371,"Shape_Area":81.1773103062}},
{"type":"Feature","geometry":{"type":"Polygon","coordinates":[[[19.627374055380315,40.16239305363495],[19.627329703105165,40.16237961095981],[19.6273271436328,40.16238464603341],[19.62730662315016,40.162377715677415],[19.62730427973958,40.16238209221311],[19.62728539961047,40.16237614067254],[19.627308907227278,40.16233224046498],[19.62730918473386,40.162331722617594],[19.627327859791645,40.16233760865171],[19.62734618720853,40.16230338302671],[19.62740956097858,40.16232331892944],[19.627392226457026,40.16235736403891],[19.627374055380315,40.16239305363495]]]},"properties":{"OBJECTID":80742,"id":2976581,"cze_id":2863,"Tipi":"Ndertese","upn":"2863-3/191-ND","label":"3/191-ND","legal_area":0,"active":2,"descriptio":"","registrati":"2023-04-05 14:46:38","su_last_mo":"2023-04-05 14:46:38","volume":1,"page":213,"property_n":"3/191-ND","pronari":"PRIVAT","Lloji_pasu":"NDERTESE","id_bau":45340904,"id_sut":2976581,"InspireId":"ASHK_N_2976581","Zona_Kadas":2863,"Numri_i_pa":"3/191-ND","Emri_I_Sis":"Agjencia Shteterore e Kadastres","Fillimi_i_":"05.04.2023","Përfundim":"05.04.2023","Shape_Leng":34.146123622,"Shape_Area":59.5971866527}},
{"type":"Feature","geometry":{"type":"Polygon","coordinates":[[[19.620676368642815,40.163904701459956],[19.62071836824119,40.16385991846784],[19.620757070942926,40.16388128387692],[19.62071507136161,40.1639260659824],[19.620676368642815,40.163904701459956]]]},"properties":{"OBJECTID":82268,"id":2976913,"cze_id":2863,"Tipi":"Ndertese","upn":"2863-30/200-N","label":"30/200","legal_area":0,"active":2,"descriptio":"","registrati":"2023-04-05 14:46:38","su_last_mo":"2023-04-05 14:46:38","volume":1,"page":174,"property_n":"30/200","pronari":"PRIVAT","Lloji_pasu":"TRUALL","id_bau":45341119,"id_sut":2976913,"InspireId":"ASHK_N_2976913","Zona_Kadas":2863,"Numri_i_pa":"30/200","Emri_I_Sis":"Agjencia Shteterore e Kadastres","Fillimi_i_":"05.04.2023","Përfundim":"05.04.2023","Shape_Leng":20.3759159782,"Shape_Area":24.8834052882}},
{"type":"Feature","geometry":{"type":"Polygon","coordinates":[[[19.622049089300575,40.16339225027845],[19.622021912641557,40.163354548378614],[19.622061273550145,40.16333725582873],[19.62219811992665,40.16327713317209],[19.622253627166007,40.16335150136613],[19.622116781861948,40.16341162409094],[19.62208917625456,40.16337463857814],[19.622049089300575,40.16339225027845]]]},"properties":{"OBJECTID":82558,"id":2976394,"cze_id":2863,"Tipi":"Ndertese","upn":"2863-29/147-ND","label":"29/147-ND","legal_area":0,"active":2,"descriptio":"","registrati":"2023-04-05 14:46:38","su_last_mo":"2023-04-05 14:46:38","volume":1,"page":25,"property_n":"29/147-ND","pronari":"PRIVAT","Lloji_pasu":"NDERTESE","id_bau":45340450,"id_sut":2976394,"InspireId":"ASHK_N_2976394","Zona_Kadas":2863,"Numri_i_pa":"29/147-ND","Emri_I_Sis":"Agjencia Shteterore e Kadastres","Fillimi_i_":"05.04.2023","Përfundim":"05.04.2023","Shape_Leng":53.7002172445,"Shape_Area":146.492547217}},
{"type":"Feature","geometry":{"type":"Polygon","coordinates":[[[19.62373544425113,40.16607704375997],[19.62368893163308,40.16601256070389],[19.62382289859212,40.165955684238135],[19.623869412472825,40.166020167245236],[19.62373544425113,40.16607704375997]]]},"properties":{"OBJECTID":82565,"id":2976901,"cze_id":2863,"Tipi":"Ndertese","upn":"2863-30/194-ND","label":"30/194-ND","legal_area":0,"active":2,"descriptio":"","registrati":"2023-04-05 14:46:38","su_last_mo":"2023-04-05 14:46:38","volume":1,"page":165,"property_n":"30/194-ND","pronari":"PRIVAT","Lloji_pasu":"NDERTESE","id_bau":45341109,"id_sut":2976901,"InspireId":"ASHK_N_2976901","Zona_Kadas":2863,"Numri_i_pa":"30/194-ND","Emri_I_Sis":"Agjencia Shteterore e Kadastres","Fillimi_i_":"05.04.2023","Përfundim":"05.04.2023","Shape_Leng":42.4534728339,"Shape_Area":106.73882538}},
{"type":"Feature","geometry":{"type":"Polygon","coordinates":[[[19.60679882552097,40.177088986666554],[19.606886020053558,40.17696460256147],[19.6071807615829,40.17708223910183],[19.607031507440936,40.177243540470876],[19.60683425286178,40.177148875446974],[19.606860296359148,40.17711692364116],[19.60679882552097,40.177088986666554]]]},"properties":{"OBJECTID":82866,"id":2976967,"cze_id":2863,"Tipi":"Ndertese","upn":"2863-66/3-N","label":"66/3","legal_area":0,"active":2,"descriptio":"","registrati":"2023-04-05 14:46:38","su_last_mo":"2023-04-05 14:46:38","volume":1,"page":219,"property_n":"66/3-ND","pronari":"PRIVAT","Lloji_pasu":"NDERTESE","id_bau":45341281,"id_sut":2976967,"InspireId":"ASHK_N_2976967","Zona_Kadas":2863,"Numri_i_pa":"66/3-ND","Emri_I_Sis":"Agjencia Shteterore e Kadastres","Fillimi_i_":"05.04.2023","Përfundim":"05.04.2023","Shape_Leng":96.0330677358,"Shape_Area":535.711855788}},
{"type":"Feature","geometry":{"type":"Polygon","coordinates":[[[19.62302985773642,40.16492842540819],[19.623052495073523,40.16490351401517],[19.623013668022942,40.16488274786346],[19.623086227565476,40.16480074843199],[19.623159215823772,40.16483946555164],[19.623074122795675,40.16493294998979],[19.623071756233113,40.1649316841603],[19.623059650381336,40.164945007717584],[19.62302985773642,40.16492842540819]]]},"properties":{"OBJECTID":83643,"id":2976753,"cze_id":2863,"Tipi":"Ndertese","upn":"2863-3/43-ND","label":"3/43-ND","legal_area":0,"active":2,"descriptio":"","registrati":"2023-04-05 14:46:38","su_last_mo":"2023-04-05 14:46:38","volume":1,"page":217,"property_n":"3/43-ND","pronari":"PRIVAT","Lloji_pasu":"NDERTESE","id_bau":45341002,"id_sut":2976753,"InspireId":"ASHK_N_2976753","Zona_Kadas":2863,"Numri_i_pa":"3/43-ND","Emri_I_Sis":"Agjencia Shteterore e Kadastres","Fillimi_i_":"05.04.2023","Përfundim":"05.04.2023","Shape_Leng":43.8142890694,"Shape_Area":93.5596552862}},
{"type":"Feature","geometry":{"type":"Polygon","coordinates":[[[19.62375545823798,40.1676074157236],[19.623686050203844,40.167537530387015],[19.623770801460484,40.167487680744415],[19.623836401759572,40.16755600374399],[19.62375545823798,40.1676074157236]]]},"properties":{"OBJECTID":84462,"id":2976946,"cze_id":2863,"Tipi":"Ndertese","upn":"2863-30/214-ND","label":"30/214-ND","legal_area":0,"active":2,"descriptio":"","registrati":"2023-04-05 14:46:38","su_last_mo":"2023-04-05 14:46:38","volume":1,"page":203,"property_n":"30/214-ND","pronari":"PRIVAT","Lloji_pasu":"NDERTESE","id_bau":45341145,"id_sut":2976946,"InspireId":"ASHK_N_2976946","Zona_Kadas":2863,"Numri_i_pa":"30/214-ND","Emri_I_Sis":"Agjencia Shteterore e Kadastres","Fillimi_i_":"05.04.2023","Përfundim":"05.04.2023","Shape_Leng":37.2274821392,"Shape_Area":86.482369699}},
{"type":"Feature","geometry":{"type":"Polygon","coordinates":[[[19.624462767316377,40.1658995516724],[19.624435170618938,40.16581665734621],[19.624520963856266,40.165799845986044],[19.62457165406749,40.16578991383483],[19.624599250920625,40.16587280812957],[19.624564263062016,40.16587966345725],[19.624462767316377,40.1658995516724]]]},"properties":{"OBJECTID":84681,"id":2976765,"cze_id":2863,"Tipi":"Ndertese","upn":"2863-3/49-ND","label":"3/49-ND","legal_area":0,"active":2,"descriptio":"","registrati":"2023-04-05 14:46:38","su_last_mo":"2023-04-05 14:46:38","volume":1,"page":207,"property_n":"3/49-ND","pronari":"PRIVAT","Lloji_pasu":"NDERTESE","id_bau":45341008,"id_sut":2976765,"InspireId":"ASHK_N_2976765","Zona_Kadas":2863,"Numri_i_pa":"3/49-ND","Emri_I_Sis":"Agjencia Shteterore e Kadastres","Fillimi_i_":"05.04.2023","Përfundim":"05.04.2023","Shape_Leng":42.9999863347,"Shape_Area":113.999936713}},
{"type":"Feature","geometry":{"type":"Polygon","coordinates":[[[19.62398452119975,40.16687017634684],[19.623928484222947,40.16684031628874],[19.62397617823759,40.166792318412945],[19.623968241275847,40.166787677109696],[19.6239793682615,40.16677647837845],[19.624003833206295,40.166751857329665],[19.624057415544172,40.16678298912097],[19.62403653027358,40.16680795592366],[19.62398452119975,40.16687017634684]]]},"properties":{"OBJECTID":85343,"id":2976694,"cze_id":2863,"Tipi":"Ndertese","upn":"2863-3/25-N","label":"3/25","legal_area":0,"active":2,"descriptio":"","registrati":"2023-04-05 14:46:38","su_last_mo":"2023-04-05 14:46:38","volume":5,"page":15,"property_n":"3/25","pronari":"PRIVAT","Lloji_pasu":"TRUALL","id_bau":45340960,"id_sut":2976694,"InspireId":"ASHK_N_2976694","Zona_Kadas":2863,"Numri_i_pa":"3/25","Emri_I_Sis":"Agjencia Shteterore e Kadastres","Fillimi_i_":"05.04.2023","Përfundim":"05.04.2023","Shape_Leng":35.5924970685,"Shape_Area":66.185502232}},
{"type":"Feature","geometry":{"type":"Polygon","coordinates":[[[19.60943041257142,40.17532425007002],[19.609503283455773,40.175296995484835],[19.609525922751686,40.1753326126847],[19.609453043692163,40.17535985464811],[19.60943041257142,40.17532425007002]]]},"properties":{"OBJECTID":85593,"id":2976947,"cze_id":2863,"Tipi":"Ndertese","upn":"2863-30/215-ND","label":"30/215-ND","legal_area":0,"active":2,"descriptio":"","registrati":"2023-04-05 14:46:38","su_last_mo":"2023-04-05 14:46:38","volume":1,"page":221,"property_n":"30/215-ND","pronari":"PRIVAT","Lloji_pasu":"NDERTESE","id_bau":45341146,"id_sut":2976947,"InspireId":"ASHK_N_2976947","Zona_Kadas":2863,"Numri_i_pa":"30/215-ND","Emri_I_Sis":"Agjencia Shteterore e Kadastres","Fillimi_i_":"05.04.2023","Përfundim":"05.04.2023","Shape_Leng":22.6091113182,"Shape_Area":30.3780329614}},
{"type":"Feature","geometry":{"type":"Polygon","coordinates":[[[19.627682495846024,40.16302928241125],[19.62778293223367,40.16294234073409],[19.627901524720674,40.16302298079944],[19.627801088358975,40.163109923479],[19.627682495846024,40.16302928241125]]]},"properties":{"OBJECTID":88331,"id":2976925,"cze_id":2863,"Tipi":"Ndertese","upn":"2863-30/204-ND","label":"30/204-ND","legal_area":0,"active":2,"descriptio":"","registrati":"2023-04-05 14:46:38","su_last_mo":"2023-04-05 14:46:38","volume":1,"page":181,"property_n":"30/204-ND","pronari":"PRIVAT","Lloji_pasu":"NDERTESE","id_bau":45341125,"id_sut":2976925,"InspireId":"ASHK_N_2976925","Zona_Kadas":2863,"Numri_i_pa":"30/204-ND","Emri_I_Sis":"Agjencia Shteterore e Kadastres","Fillimi_i_":"05.04.2023","Përfundim":"05.04.2023","Shape_Leng":52.8000681672,"Shape_Area":174.150442111}},
{"type":"Feature","geometry":{"type":"Polygon","coordinates":[[[19.62743483167613,40.16275826877107],[19.627509160943596,40.16266120893211],[19.62763060916443,40.16271595475759],[19.62755628000901,40.162813014674114],[19.62743483167613,40.16275826877107]]]},"properties":{"OBJECTID":87203,"id":2976921,"cze_id":2863,"Tipi":"Ndertese","upn":"2863-30/202-ND","label":"30/202-ND","legal_area":0,"active":2,"descriptio":"","registrati":"2023-04-05 14:46:38","su_last_mo":"2023-04-05 14:46:38","volume":1,"page":177,"property_n":"30/202-ND","pronari":"PRIVAT","Lloji_pasu":"NDERTESE","id_bau":45341121,"id_sut":2976921,"InspireId":"ASHK_N_2976921","Zona_Kadas":2863,"Numri_i_pa":"30/202-ND","Emri_I_Sis":"Agjencia Shteterore e Kadastres","Fillimi_i_":"05.04.2023","Përfundim":"05.04.2023","Shape_Leng":49.0001745587,"Shape_Area":150.001078508}},
{"type":"Feature","geometry":{"type":"Polygon","coordinates":[[[19.623292117757632,40.1674570001237],[19.623291861946797,40.167457406358295],[19.62324724591718,40.167440899261976],[19.62326104334429,40.16741894993627],[19.62322278868217,40.16740479515768],[19.623263705986336,40.16733970933893],[19.623346966720792,40.16737051564225],[19.623329115397333,40.167398911725854],[19.623342920539535,40.16740401975584],[19.623319791359386,40.167440686802514],[19.623305659357978,40.167435457927844],[19.623292117757632,40.1674570001237]]]},"properties":{"OBJECTID":87204,"id":2976923,"cze_id":2863,"Tipi":"Ndertese","upn":"2863-30/203-ND","label":"30/203-ND","legal_area":0,"active":2,"descriptio":"","registrati":"2023-04-05 14:46:38","su_last_mo":"2023-04-05 14:46:38","volume":1,"page":179,"property_n":"30/203-ND","pronari":"PRIVAT","Lloji_pasu":"NDERTESE","id_bau":45341123,"id_sut":2976923,"InspireId":"ASHK_N_2976923","Zona_Kadas":2863,"Numri_i_pa":"30/203-ND","Emri_I_Sis":"Agjencia Shteterore e Kadastres","Fillimi_i_":"05.04.2023","Përfundim":"05.04.2023","Shape_Leng":39.813286813,"Shape_Area":80.4924079349}},
{"type":"Feature","geometry":{"type":"Polygon","coordinates":[[[19.6263033080989,40.16263883065474],[19.626333933714445,40.16268307827836],[19.62627415313117,40.16270850536093],[19.62623879703607,40.16272354458559],[19.626218616670773,40.16271880987599],[19.626153797787456,40.162703602164534],[19.62619705418206,40.16268570567843],[19.626208789768924,40.162680850652116],[19.626244429635033,40.16266500632331],[19.6263033080989,40.16263883065474]]]},"properties":{"OBJECTID":87206,"id":2976955,"cze_id":2863,"Tipi":"Ndertese","upn":"2863-30/219-N","label":"30/219","legal_area":0,"active":2,"descriptio":"","registrati":"2023-04-05 14:46:38","su_last_mo":"2023-04-05 14:46:38","volume":1,"page":229,"property_n":"30/219","pronari":"PRIVAT","Lloji_pasu":"TRUALL","id_bau":45341153,"id_sut":2976955,"InspireId":"ASHK_N_2976955","Zona_Kadas":2863,"Numri_i_pa":"30/219","Emri_I_Sis":"Agjencia Shteterore e Kadastres","Fillimi_i_":"05.04.2023","Përfundim":"05.04.2023","Shape_Leng":37.0313276516,"Shape_Area":65.1562434493}},
{"type":"Feature","geometry":{"type":"Polygon","coordinates":[[[19.620389746383225,40.164124196159854],[19.620496608290566,40.16403671272685],[19.620591021429725,40.164104594378124],[19.620484158361936,40.16419207789348],[19.620389746383225,40.164124196159854]]]},"properties":{"OBJECTID":88184,"id":2976959,"cze_id":2863,"Tipi":"Ndertese","upn":"2863-30/99-N","label":"30/99","legal_area":0,"active":2,"descriptio":"","registrati":"2023-04-05 14:46:38","su_last_mo":"2023-04-05 14:46:38","volume":1,"page":157,"property_n":"30/99","pronari":"PRIVAT","Lloji_pasu":"TRUALL","id_bau":45341189,"id_sut":2976959,"InspireId":"ASHK_N_2976959","Zona_Kadas":2863,"Numri_i_pa":"30/99","Emri_I_Sis":"Agjencia Shteterore e Kadastres","Fillimi_i_":"05.04.2023","Përfundim":"05.04.2023","Shape_Leng":48.6721095218,"Shape_Area":146.749597787}},
{"type":"Feature","geometry":{"type":"Polygon","coordinates":[[[19.624053016385236,40.166463692948454],[19.624099137402606,40.16652437589146],[19.624028151586753,40.16655613078764],[19.62398202943767,40.16649544781308],[19.624053016385236,40.166463692948454]]]},"properties":{"OBJECTID":90794,"id":2976472,"cze_id":2863,"Tipi":"Ndertese","upn":"2863-3/136-ND","label":"3/136-ND","legal_area":0,"active":2,"descriptio":"","registrati":"2023-04-05 14:46:38","su_last_mo":"2023-04-05 14:46:38","volume":1,"page":215,"property_n":"3/136-ND","pronari":"PRIVAT","Lloji_pasu":"NDERTESE","id_bau":45340846,"id_sut":2976472,"InspireId":"ASHK_N_2976472","Zona_Kadas":2863,"Numri_i_pa":"3/136-ND","Emri_I_Sis":"Agjencia Shteterore e Kadastres","Fillimi_i_":"05.04.2023","Përfundim":"05.04.2023","Shape_Leng":29.6000959614,"Shape_Area":54.6003756454}},
{"type":"Feature","geometry":{"type":"Polygon","coordinates":[[[19.625613340049014,40.16546895610178],[19.6255907946789,40.16542384645416],[19.625702654612347,40.16539094119045],[19.625725200045956,40.16543605081685],[19.625613340049014,40.16546895610178]]]},"properties":{"OBJECTID":90797,"id":2976570,"cze_id":2863,"Tipi":"Ndertese","upn":"2863-3/184-ND","label":"3/184-ND","legal_area":0,"active":2,"descriptio":"","registrati":"2023-04-05 14:46:38","su_last_mo":"2023-04-05 14:46:38","volume":1,"page":205,"property_n":"3/184-ND","pronari":"PRIVAT","Lloji_pasu":"NDERTESE","id_bau":45340895,"id_sut":2976570,"InspireId":"ASHK_N_2976570","Zona_Kadas":2863,"Numri_i_pa":"3/184-ND","Emri_I_Sis":"Agjencia Shteterore e Kadastres","Fillimi_i_":"05.04.2023","Përfundim":"05.04.2023","Shape_Leng":31.140372357,"Shape_Area":54.7485565966}},
{"type":"Feature","geometry":{"type":"Polygon","coordinates":[[[19.62635575454766,40.16558291316952],[19.626354787645088,40.16558327298739],[19.626228355543564,40.16563023239027],[19.62620465195858,40.16559266967734],[19.626175554387803,40.16560347738847],[19.626156090471813,40.1655702719031],[19.62618397999809,40.165559912393185],[19.626311380074643,40.165512593224],[19.62635575454766,40.16558291316952]]]},"properties":{"OBJECTID":90800,"id":2976906,"cze_id":2863,"Tipi":"Ndertese","upn":"2863-30/196-N","label":"30/196","legal_area":0,"active":2,"descriptio":"","registrati":"2023-04-05 14:46:38","su_last_mo":"2023-04-05 14:46:38","volume":1,"page":169,"property_n":"30/196","pronari":"PRIVAT","Lloji_pasu":"TRUALL","id_bau":45341113,"id_sut":2976906,"InspireId":"ASHK_N_2976906","Zona_Kadas":2863,"Numri_i_pa":"30/196","Emri_I_Sis":"Agjencia Shteterore e Kadastres","Fillimi_i_":"05.04.2023","Përfundim":"05.04.2023","Shape_Leng":46.8615646321,"Shape_Area":115.503949211}},
{"type":"Feature","geometry":{"type":"Polygon","coordinates":[[[19.627149594615307,40.16304976989881],[19.627151066314102,40.1631429480043],[19.62707781288818,40.16313394393988],[19.627025057059093,40.16316890967955],[19.626953234829045,40.163095084690504],[19.627041189028,40.163048159038986],[19.627149594615307,40.16304976989881]]]},"properties":{"OBJECTID":90801,"id":2976908,"cze_id":2863,"Tipi":"Ndertese","upn":"2863-30/197-ND","label":"30/197-ND","legal_area":0,"active":2,"descriptio":"","registrati":"2023-04-05 14:46:38","su_last_mo":"2023-04-05 14:46:38","volume":1,"page":170,"property_n":"30/197-ND","pronari":"PRIVAT","Lloji_pasu":"NDERTESE","id_bau":45341114,"id_sut":2976908,"InspireId":"ASHK_N_2976908","Zona_Kadas":2863,"Numri_i_pa":"30/197-ND","Emri_I_Sis":"Agjencia Shteterore e Kadastres","Fillimi_i_":"05.04.2023","Përfundim":"05.04.2023","Shape_Leng":51.1991769874,"Shape_Area":150.04165464}}
]}