{"type":"FeatureCollection", "features": [
{"type":"Feature","geometry":{"type":"Polygon","coordinates":[[[20.131448696318596,40.409357102567476],[20.13151179019206,40.40927160757873],[20.13162979149856,40.40932249179264],[20.131566697727255,40.40940798684487],[20.131448696318596,40.409357102567476]]]},"properties":{"Zk_Numer":1084,"Zk_Emer":"BALLABAN","Nr_Pas":"234/8-ND","Vol":3,"Faqe":242,"Pronaret":"FATMIRE LAJMERI ENVER, BANUSH LAJMERI MEHMET","Kufizimet":"KJO NDERTESE NDODHET MBI PASURINE ME NR.PASURIE 234/8 VOL 3 FQ.16","Siperfaqet":125}},
{"type":"Feature","geometry":{"type":"Polygon","coordinates":[[[20.122041361227147,40.42057975488447],[20.12199911993839,40.420599461008926],[20.12200464506705,40.42060637903854],[20.121985535903285,40.4206152937097],[20.121980010775854,40.420608375679194],[20.121942798181667,40.42062573581749],[20.121891537353314,40.42056155183832],[20.121928749925384,40.42054419171637],[20.121923392736452,40.42053805354742],[20.121942935114088,40.420529040666935],[20.121947859076588,40.4205352770545],[20.121985071619683,40.42051791691444],[20.122010855525133,40.42055020105384],[20.122015884247208,40.420547855086944],[20.122041361227147,40.42057975488447]]]},"properties":{"Zk_Numer":1084,"Zk_Emer":"BALLABAN","Nr_Pas":"151/2-ND","Vol":3,"Faqe":241,"Pronaret":"FATMIRE XHAKO QAZIM, ADRIATIK XHAKO SADIK","Kufizimet":"URDHER DREJTORI PER VENDOSJEN E HIPOTEKES LIGJORE DERI NE PAGIMIN E PARCELES NDERTIMORE KJO NDERTESE NDODHET MBI PASURINE ME NR.PASURIE 151/1 VOL 3 FQ.178","Siperfaqet":83}},
{"type":"Feature","geometry":{"type":"Polygon","coordinates":[[[20.123542042616762,40.42033068870577],[20.123540308122617,40.42028568056951],[20.123538573630853,40.42024067243285],[20.123658707905637,40.42023796806114],[20.123662177051514,40.42032798433025],[20.123542042616762,40.42033068870577]]]},"properties":{"Zk_Numer":1084,"Zk_Emer":"BALLABAN","Nr_Pas":"146/26-ND","Vol":3,"Faqe":245,"Pronaret":"BRUNILDA XHAKO AGIM, KRENAR XHAKO KUJTIM","Kufizimet":"KJO NDERTESE NDODHET MBI PASURINE ME NR.PASURIE 146/26 VOL 3 FQ.184","Siperfaqet":110}},
{"type":"Feature","geometry":{"type":"Polygon","coordinates":[[[20.123873701516168,40.41602210899734],[20.123769939666666,40.41597564933333],[20.123799717176823,40.41593679731567],[20.12380886710658,40.415940958149825],[20.123853247932555,40.415883052440705],[20.123947859666593,40.41592535116663],[20.123873701516168,40.41602210899734]]]},"properties":{"Zk_Numer":1084,"Zk_Emer":"BALLABAN","Nr_Pas":"142/3-ND","Vol":4,"Faqe":94,"Pronaret":"BUJAR LYTE SULO","Kufizimet":"MUNGON ORIGJINA KJO NDERTES NDODHET MBI TRUALLIN ME NR.PASURIE 142/3 VOL 4 FQ.96","Siperfaqet":120}},
{"type":"Feature","geometry":{"type":"Polygon","coordinates":[[[20.12644359793274,40.415273969798974],[20.126366373578502,40.41535352507145],[20.12631906340615,40.4153266960278],[20.126342932505114,40.415302106076105],[20.126303191251,40.41527956925001],[20.12632495424382,40.415257149002954],[20.126296567654222,40.415241051266854],[20.1263160239687,40.41522100735362],[20.12632815907591,40.41520850574719],[20.12644359793274,40.415273969798974]]]},"properties":{"Zk_Numer":1084,"Zk_Emer":"BALLABAN","Nr_Pas":"190/6-ND","Vol":4,"Faqe":6,"Pronaret":"QAZIM KOPOLLARI ALI, KOZETA KOPOLLARI FAIK","Kufizimet":"MUNGON MARREDHENIA ME TRUALLIN KJO NDERTES NDODHET MBI TRUALLIN ME NR.PASURIE 190/6 VOL 4 FQ.13","Siperfaqet":100.4}},
{"type":"Feature","geometry":{"type":"Polygon","coordinates":[[[20.125087418535816,40.416251409267744],[20.125081532231857,40.416259806785],[20.12503116189362,40.41623918019794],[20.12500389711834,40.416278076590785],[20.124915619243616,40.416241926827865],[20.1249094985674,40.41625065866558],[20.124881457377235,40.416239175784156],[20.124908722207028,40.41620027942006],[20.124936763385655,40.416211762294964],[20.124942884054835,40.416203030455755],[20.125029604048393,40.4162385422618],[20.12509581837248,40.41614407956716],[20.12514774650402,40.416165344061035],[20.12511700975913,40.416209193808974],[20.125087418535816,40.416251409267744]]]},"properties":{"Zk_Numer":1084,"Zk_Emer":"BALLABAN","Nr_Pas":"141/6-ND","Vol":4,"Faqe":14,"Pronaret":"DAFINË ALLIU ISUF, PËLLUMB ALLIU FEJZO","Kufizimet":"KJO NDERTES NDODHET MBI TRUALLIN ME NR.PASURIE 141/6 VOL 5 FQ.61","Siperfaqet":114}},
{"type":"Feature","geometry":{"type":"Polygon","coordinates":[[[20.12447812830516,40.413143591378],[20.124368337254225,40.413082905196326],[20.12444773146476,40.41299898480292],[20.12455752245032,40.413059670910116],[20.12447812830516,40.413143591378]]]},"properties":{"Zk_Numer":1084,"Zk_Emer":"BALLABAN","Nr_Pas":"187/16-ND","Vol":4,"Faqe":2,"Pronaret":"KOMUNITETI I SHQIPERISE MYSLIMAN","Kufizimet":"KJO NDERTES NDODHET MBI AREN ME NR.PASURIE 187/16 VOL 4 FQ.68","Siperfaqet":132}},
{"type":"Feature","geometry":{"type":"Polygon","coordinates":[[[20.12434846187106,40.41397725590683],[20.124298696185015,40.41395154226168],[20.12437302974374,40.413866034817424],[20.124422811360645,40.4138917566804],[20.12434846187106,40.41397725590683]]]},"properties":{"Zk_Numer":1084,"Zk_Emer":"BALLABAN","Nr_Pas":"191/13-ND","Vol":4,"Faqe":107,"Pronaret":"MUKADEZ VELAJ SKENDER","Kufizimet":"KJO NDERTESE NDODHET MBI TRUALLIN ME NR.PASURIE 191/12 VOL 4 FQ.106","Siperfaqet":52.44}},
{"type":"Feature","geometry":{"type":"Polygon","coordinates":[[[20.125172121981524,40.414035871136015],[20.125131352739924,40.41408510355069],[20.125115822540057,40.41407758995842],[20.12510448023473,40.41409128676209],[20.125025734200722,40.414053188956224],[20.124968292459453,40.414025398234436],[20.125020404089547,40.413962469082065],[20.125172121981524,40.414035871136015]]]},"properties":{"Zk_Numer":1084,"Zk_Emer":"BALLABAN","Nr_Pas":"191/14-ND","Vol":4,"Faqe":70,"Pronaret":"ENGJELL KARATI MALIQ","Kufizimet":"KJO NDERTESE NDODHET MBI TRUALLIN ME NR.PASURIE 191/12 VOL 4 FQ.106","Siperfaqet":117}},
{"type":"Feature","geometry":{"type":"Polygon","coordinates":[[[20.125172121981524,40.414035871136015],[20.125261818869188,40.41407926687544],[20.12520970737445,40.41414219613514],[20.125175365405298,40.41418366703682],[20.1251116516737,40.41415284205449],[20.125145993666386,40.41411137117149],[20.12510448023473,40.41409128676209],[20.125115822540057,40.41407758995842],[20.125131352739924,40.41408510355069],[20.125172121981524,40.414035871136015]]]},"properties":{"Zk_Numer":1084,"Zk_Emer":"BALLABAN","Nr_Pas":"191/15-ND","Vol":4,"Faqe":71,"Pronaret":"HAJRI XHAFERAJ HILMI","Kufizimet":"KJO NDERTESE NDODHET MBI TRUALLIN ME NR.PASURIE 191/12 VOL 4 FQ.106","Siperfaqet":112}},
{"type":"Feature","geometry":{"type":"Polygon","coordinates":[[[20.124689504166653,40.41426919333335],[20.124768711225943,40.41428675896016],[20.12475131127119,40.41433259792509],[20.124672104162624,40.414315032286574],[20.124689504166653,40.41426919333335]]]},"properties":{"Zk_Numer":1084,"Zk_Emer":"BALLABAN","Nr_Pas":"186/1-ND","Vol":4,"Faqe":4,"Pronaret":"VULLNET KASAJ FLAMUR","Kufizimet":"MUNGON MARREDHENIA ME TRUALLIN KJO NDERTES NDODHET MBI TRUALLIN ME NR.PASURIE 186/1 VOL 4 FQ.108","Siperfaqet":37}},
{"type":"Feature","geometry":{"type":"Polygon","coordinates":[[[20.12506151734332,40.41416597235997],[20.125052547154507,40.41417674120287],[20.12509659801663,40.41419959636676],[20.125045757776068,40.41425603378599],[20.12494173786862,40.41420188080749],[20.124971339405104,40.41416902040551],[20.124982639033686,40.41417470379969],[20.125007168438152,40.41414747389105],[20.125019147862297,40.4141537785884],[20.125024419627515,40.41414735202048],[20.12506151734332,40.41416597235997]]]},"properties":{"Zk_Numer":1084,"Zk_Emer":"BALLABAN","Nr_Pas":"191/26-ND","Vol":5,"Faqe":74,"Pronaret":"EDMIRA KARATI ISUF, ENGJELL KARATI MALIQ","Kufizimet":"KJO NDERTESE NDODHET MBI TRUALLIN ME NR.PASURIE 191/12 VOL 4 FQ.106","Siperfaqet":83}},
{"type":"Feature","geometry":{"type":"Polygon","coordinates":[[[20.12453973585699,40.41422591685568],[20.12451760542817,40.41425288637733],[20.12441679586137,40.41420455761639],[20.124473137987803,40.41413589565865],[20.12457394749218,40.41418422437115],[20.12453973585699,40.41422591685568]]]},"properties":{"Zk_Numer":1084,"Zk_Emer":"BALLABAN","Nr_Pas":"","Vol":0,"Faqe":0,"Pronaret":"","Kufizimet":"","Siperfaqet":90.9}},
{"type":"Feature","geometry":{"type":"Polygon","coordinates":[[[20.12648864331446,40.41601082557745],[20.12653249232528,40.41606936133288],[20.12649036583376,40.41608779691198],[20.126426377952587,40.41600237688216],[20.12646850440842,40.41598394132616],[20.12648864331446,40.41601082557745]]]},"properties":{"Zk_Numer":1084,"Zk_Emer":"BALLABAN","Nr_Pas":"","Vol":0,"Faqe":0,"Pronaret":"","Kufizimet":"","Siperfaqet":45}},
{"type":"Feature","geometry":{"type":"Polygon","coordinates":[[[20.12653249232528,40.41606936133288],[20.12648864331446,40.41601082557745],[20.12653087200712,40.41599234525225],[20.126594918554286,40.41607784337603],[20.12655304108684,40.41609679263554],[20.12653249232528,40.41606936133288]]]},"properties":{"Zk_Numer":1084,"Zk_Emer":"BALLABAN","Nr_Pas":"","Vol":0,"Faqe":0,"Pronaret":"","Kufizimet":"","Siperfaqet":45.3}},
{"type":"Feature","geometry":{"type":"Polygon","coordinates":[[[20.13964707452275,40.411828308082036],[20.13975109281094,40.411916724177516],[20.13972546824498,40.41193429693714],[20.1396214766379,40.4118459034926],[20.13964707452275,40.411828308082036]]]},"properties":{"Zk_Numer":1084,"Zk_Emer":"BALLABAN","Nr_Pas":"","Vol":0,"Faqe":0,"Pronaret":"","Kufizimet":"","Siperfaqet":38.6}},
{"type":"Feature","geometry":{"type":"Polygon","coordinates":[[[20.143277189510762,40.41218782788004],[20.143230440624553,40.41216043087046],[20.14326628295739,40.4121246971714],[20.143242908533644,40.41211099866661],[20.143285919289198,40.41206811822146],[20.14333266813385,40.41209551520911],[20.143289657390632,40.41213839567143],[20.143313031833333,40.41215209416668],[20.143277189510762,40.41218782788004]]]},"properties":{"Zk_Numer":1084,"Zk_Emer":"BALLABAN","Nr_Pas":"","Vol":0,"Faqe":0,"Pronaret":"","Kufizimet":"","Siperfaqet":55}},
{"type":"Feature","geometry":{"type":"Polygon","coordinates":[[[20.124543590199877,40.41422731306422],[20.12460321702864,40.414241488095094],[20.12458047296249,40.41429738304204],[20.124520846089293,40.414283207999674],[20.124543590199877,40.41422731306422]]]},"properties":{"Zk_Numer":1084,"Zk_Emer":"BALLABAN","Nr_Pas":"","Vol":0,"Faqe":0,"Pronaret":"","Kufizimet":"","Siperfaqet":34.5}},
{"type":"Feature","geometry":{"type":"Polygon","coordinates":[[[20.12648864331446,40.41601082557745],[20.12646850440842,40.41598394132616],[20.126426377952587,40.41600237688216],[20.126402960653223,40.41597111611179],[20.126451631007367,40.4159498167885],[20.126437404999432,40.415930825874014],[20.126466034599773,40.41591829685421],[20.126480260613096,40.4159372877652],[20.12648741801287,40.415934155508246],[20.12653087200712,40.41599234525225],[20.12648864331446,40.41601082557745]]]},"properties":{"Zk_Numer":1084,"Zk_Emer":"BALLABAN","Nr_Pas":"","Vol":0,"Faqe":0,"Pronaret":"","Kufizimet":"","Siperfaqet":54}},
{"type":"Feature","geometry":{"type":"Polygon","coordinates":[[[20.12653249232528,40.41606936133288],[20.12655304108684,40.41609679263554],[20.126594918554286,40.41607784337603],[20.126635781975416,40.41613239334793],[20.126551426698526,40.416169309312224],[20.12649036583376,40.41608779691198],[20.12653249232528,40.41606936133288]]]},"properties":{"Zk_Numer":1084,"Zk_Emer":"BALLABAN","Nr_Pas":"","Vol":0,"Faqe":0,"Pronaret":"","Kufizimet":"","Siperfaqet":71.7}},
{"type":"Feature","geometry":{"type":"Polygon","coordinates":[[[20.124422811360645,40.4138917566804],[20.12447719734177,40.41391985754371],[20.124402863856037,40.41400536505404],[20.12434846187106,40.41397725590683],[20.124422811360645,40.4138917566804]]]},"properties":{"Zk_Numer":1084,"Zk_Emer":"BALLABAN","Nr_Pas":"","Vol":0,"Faqe":0,"Pronaret":"","Kufizimet":"","Siperfaqet":63.5}},
{"type":"Feature","geometry":{"type":"Polygon","coordinates":[[[20.126278166097165,40.415099226867795],[20.126290877194364,40.41510530121718],[20.126273355409793,40.41512666612382],[20.126334799676872,40.41515622520423],[20.126294101255965,40.41520564975341],[20.126147525926882,40.41513546345488],[20.12619821403808,40.415073657879425],[20.126271088931652,40.415108574413765],[20.126278166097165,40.415099226867795]]]},"properties":{"Zk_Numer":1084,"Zk_Emer":"BALLABAN","Nr_Pas":"","Vol":0,"Faqe":0,"Pronaret":"","Kufizimet":"","Siperfaqet":110.5}},
{"type":"Feature","geometry":{"type":"Polygon","coordinates":[[[20.126313077702882,40.41506634780376],[20.12637860476892,40.4150972936107],[20.126334799676872,40.41515622520423],[20.126273355409793,40.41512666612382],[20.126290877194364,40.41510530121718],[20.126278166097165,40.415099226867795],[20.126252380482615,40.415087821356956],[20.12627209760732,40.41506177890397],[20.12630530085774,40.415076537616955],[20.126313077702882,40.41506634780376]]]},"properties":{"Zk_Numer":1084,"Zk_Emer":"BALLABAN","Nr_Pas":"","Vol":0,"Faqe":0,"Pronaret":"","Kufizimet":"","Siperfaqet":58.8}},
{"type":"Feature","geometry":{"type":"Polygon","coordinates":[[[20.126300762189523,40.41547098089658],[20.126328294402942,40.41540490649248],[20.126378887321135,40.41541722244789],[20.126351355152238,40.41548329686384],[20.126300762189523,40.41547098089658]]]},"properties":{"Zk_Numer":1084,"Zk_Emer":"BALLABAN","Nr_Pas":"","Vol":0,"Faqe":0,"Pronaret":"","Kufizimet":"","Siperfaqet":34.7}},
{"type":"Feature","geometry":{"type":"Polygon","coordinates":[[[20.124084153540853,40.41574271337103],[20.124201906636127,40.41579223689006],[20.124176914641808,40.415826952813454],[20.124053042412033,40.41577485575187],[20.123976423966912,40.415879581877036],[20.123904165176537,40.415849191815596],[20.124005775764267,40.41570974985606],[20.124084153540853,40.41574271337103]]]},"properties":{"Zk_Numer":1084,"Zk_Emer":"BALLABAN","Nr_Pas":"","Vol":0,"Faqe":0,"Pronaret":"","Kufizimet":"","Siperfaqet":177.1}},
{"type":"Feature","geometry":{"type":"Polygon","coordinates":[[[20.1250761814213,40.41640472920728],[20.125113383918194,40.41641453541108],[20.12516915502841,40.41642931862065],[20.125140812648866,40.41649213406923],[20.12504772248031,40.416467802799474],[20.1250761814213,40.41640472920728]]]},"properties":{"Zk_Numer":1084,"Zk_Emer":"BALLABAN","Nr_Pas":"","Vol":0,"Faqe":0,"Pronaret":"","Kufizimet":"","Siperfaqet":61.8}},
{"type":"Feature","geometry":{"type":"Polygon","coordinates":[[[20.12511306166952,40.41635337596108],[20.12519381609962,40.416374661985],[20.12516915502841,40.41642931862065],[20.125113383918194,40.41641453541108],[20.1250761814213,40.41640472920728],[20.125086058695462,40.41638283816099],[20.125098311092547,40.41638606777109],[20.12511306166952,40.41635337596108]]]},"properties":{"Zk_Numer":1084,"Zk_Emer":"BALLABAN","Nr_Pas":"","Vol":0,"Faqe":0,"Pronaret":"","Kufizimet":"","Siperfaqet":49.3}},
{"type":"Feature","geometry":{"type":"Polygon","coordinates":[[[20.124466286971696,40.41412729607904],[20.124443437123187,40.41415514231954],[20.124397523927872,40.414133131181714],[20.124420373787913,40.41410528495018],[20.124466286971696,40.41412729607904]]]},"properties":{"Zk_Numer":1084,"Zk_Emer":"BALLABAN","Nr_Pas":"","Vol":0,"Faqe":0,"Pronaret":"","Kufizimet":"","Siperfaqet":16.8}},
{"type":"Feature","geometry":{"type":"Polygon","coordinates":[[[20.12511306166952,40.41635337596108],[20.12513668561078,40.416301017979876],[20.12511396300963,40.416295028527486],[20.12512863673351,40.416262506984886],[20.125151582095537,40.41626855515448],[20.125146319534757,40.41628021864092],[20.12522685111706,40.41630144592206],[20.12519381609962,40.416374661985],[20.12511306166952,40.41635337596108]]]},"properties":{"Zk_Numer":1084,"Zk_Emer":"BALLABAN","Nr_Pas":"","Vol":0,"Faqe":0,"Pronaret":"","Kufizimet":"","Siperfaqet":70.2}},
{"type":"Feature","geometry":{"type":"Polygon","coordinates":[[[20.126313077702882,40.41506634780376],[20.126335461179206,40.41503912843332],[20.126258396921788,40.41500271006636],[20.126289934158685,40.4149637219204],[20.126376318255485,40.41500454456248],[20.12640658277811,40.41501884667923],[20.12642393131789,40.41499739934805],[20.126459807814495,40.41501435349731],[20.12643254582957,40.41504805645348],[20.126459202687734,40.415060653669485],[20.12642797529924,40.41509925887281],[20.12639109662789,40.41508183113395],[20.12637860476892,40.4150972936107],[20.126313077702882,40.41506634780376]]]},"properties":{"Zk_Numer":1084,"Zk_Emer":"BALLABAN","Nr_Pas":"","Vol":0,"Faqe":0,"Pronaret":"","Kufizimet":"","Siperfaqet":125.8}},
{"type":"Feature","geometry":{"type":"Polygon","coordinates":[[[20.124742974138346,40.41376217354133],[20.124695526504393,40.41382097755387],[20.124645626688007,40.413882820535854],[20.12456740802622,40.41384594730817],[20.124617133240886,40.413784320805625],[20.124664755563177,40.413725300378424],[20.124742974138346,40.41376217354133]]]},"properties":{"Zk_Numer":1084,"Zk_Emer":"BALLABAN","Nr_Pas":"","Vol":0,"Faqe":0,"Pronaret":"","Kufizimet":"","Siperfaqet":122.8}},
{"type":"Feature","geometry":{"type":"Polygon","coordinates":[[[20.124664755563177,40.413725300378424],[20.124715903081658,40.413661910884294],[20.12475541345635,40.413680536548256],[20.124734571018166,40.413706367585306],[20.124736576622002,40.41370731305049],[20.12477332120309,40.4137246348661],[20.124742974138346,40.41376217354133],[20.124664755563177,40.413725300378424]]]},"properties":{"Zk_Numer":1084,"Zk_Emer":"BALLABAN","Nr_Pas":"","Vol":0,"Faqe":0,"Pronaret":"","Kufizimet":"","Siperfaqet":51.5}},
{"type":"Feature","geometry":{"type":"Polygon","coordinates":[[[20.1146931523628,40.41687702241488],[20.114722333726174,40.41691006984575],[20.11467811049408,40.41693288220233],[20.114648873058663,40.41689979842664],[20.1146931523628,40.41687702241488]]]},"properties":{"Zk_Numer":1084,"Zk_Emer":"BALLABAN","Nr_Pas":"","Vol":0,"Faqe":0,"Pronaret":"","Kufizimet":"","Siperfaqet":20.1}},
{"type":"Feature","geometry":{"type":"Polygon","coordinates":[[[20.114648873058663,40.41689979842664],[20.114619757047674,40.41686679776183],[20.114651564731204,40.41685015692421],[20.114663980256314,40.41684398542733],[20.1146931523628,40.41687702241488],[20.114648873058663,40.41689979842664]]]},"properties":{"Zk_Numer":1084,"Zk_Emer":"BALLABAN","Nr_Pas":"","Vol":0,"Faqe":0,"Pronaret":"","Kufizimet":"","Siperfaqet":20.1}},
{"type":"Feature","geometry":{"type":"Polygon","coordinates":[[[20.122369503006173,40.42102792879975],[20.12239776934407,40.42098688901955],[20.122458765780017,40.421011428594284],[20.122487196714555,40.42097014972543],[20.1225296335585,40.420987222528396],[20.12247332055269,40.42106898339013],[20.122425492908995,40.42106082204739],[20.122369503006173,40.42102792879975]]]},"properties":{"Zk_Numer":1084,"Zk_Emer":"BALLABAN","Nr_Pas":"","Vol":0,"Faqe":0,"Pronaret":"","Kufizimet":"","Siperfaqet":77.1}},
{"type":"Feature","geometry":{"type":"Polygon","coordinates":[[[20.122345232799546,40.421097721155625],[20.122296081650788,40.42112383180478],[20.12227678032973,40.42110260910812],[20.122206633458568,40.42113987327406],[20.122156530812276,40.42108478295316],[20.122181880438507,40.421071316470375],[20.122220678892653,40.42105070554507],[20.122275828774214,40.42102140819734],[20.122293785033154,40.421041151961006],[20.122345232799546,40.421097721155625]]]},"properties":{"Zk_Numer":1084,"Zk_Emer":"BALLABAN","Nr_Pas":"","Vol":0,"Faqe":0,"Pronaret":"","Kufizimet":"","Siperfaqet":106.4}},
{"type":"Feature","geometry":{"type":"Polygon","coordinates":[[[20.122345232799546,40.421097721155625],[20.12229378503316,40.421041151961006],[20.122340420516696,40.421016377684836],[20.12239186830317,40.4210729468589],[20.122345232799546,40.421097721155625]]]},"properties":{"Zk_Numer":1084,"Zk_Emer":"BALLABAN","Nr_Pas":"","Vol":0,"Faqe":0,"Pronaret":"","Kufizimet":"","Siperfaqet":36.9}},
{"type":"Feature","geometry":{"type":"Polygon","coordinates":[[[20.142805682309866,40.41243918989901],[20.142844707666665,40.41239964950004],[20.142963214708228,40.41246798704192],[20.14292418938155,40.41250752748039],[20.142805682309866,40.41243918989901]]]},"properties":{"Zk_Numer":1084,"Zk_Emer":"BALLABAN","Nr_Pas":"","Vol":0,"Faqe":0,"Pronaret":"","Kufizimet":"","Siperfaqet":69.3}},
{"type":"Feature","geometry":{"type":"Polygon","coordinates":[[[20.142805682309866,40.41243918989901],[20.142924189381542,40.41250752748039],[20.14288516400921,40.41254706790549],[20.142766656907405,40.412478730284654],[20.142805682309866,40.41243918989901]]]},"properties":{"Zk_Numer":1084,"Zk_Emer":"BALLABAN","Nr_Pas":"","Vol":0,"Faqe":0,"Pronaret":"","Kufizimet":"","Siperfaqet":69.3}},
{"type":"Feature","geometry":{"type":"Polygon","coordinates":[[[20.12848736381031,40.41593268839841],[20.128466951224475,40.41598902739607],[20.128421518766988,40.41597944947572],[20.12841901254409,40.41598639456984],[20.128373580094983,40.41597681663067],[20.128398015788317,40.41590910196978],[20.12848888061488,40.41592825781132],[20.12848736381031,40.41593268839841]]]},"properties":{"Zk_Numer":1084,"Zk_Emer":"BALLABAN","Nr_Pas":"","Vol":0,"Faqe":0,"Pronaret":"","Kufizimet":"","Siperfaqet":59.2}},
{"type":"Feature","geometry":{"type":"Polygon","coordinates":[[[20.124974823768035,40.41382936827164],[20.124985168437206,40.41383525227956],[20.12499609068203,40.41384146480815],[20.124966197530906,40.413872169644705],[20.124947293603107,40.413861417163204],[20.124940611600145,40.41386828059516],[20.124890516219438,40.41383978650255],[20.124918650969292,40.4138108878511],[20.124944076727523,40.41382534994323],[20.124966383350422,40.41383803787181],[20.124974823768035,40.41382936827164]]]},"properties":{"Zk_Numer":1084,"Zk_Emer":"BALLABAN","Nr_Pas":"","Vol":0,"Faqe":0,"Pronaret":"","Kufizimet":"","Siperfaqet":30}},
{"type":"Feature","geometry":{"type":"Polygon","coordinates":[[[20.124944076727523,40.41382534994323],[20.124972211448757,40.41379645127891],[20.12499451806737,40.41380913920213],[20.124974823768035,40.41382936827164],[20.124966383350422,40.41383803787181],[20.124944076727523,40.41382534994323]]]},"properties":{"Zk_Numer":1084,"Zk_Emer":"BALLABAN","Nr_Pas":"","Vol":0,"Faqe":0,"Pronaret":"","Kufizimet":"","Siperfaqet":9.4}},
{"type":"Feature","geometry":{"type":"Polygon","coordinates":[[[20.12499451806737,40.41380913920213],[20.124972211448757,40.41379645127891],[20.124944076727523,40.41382534994323],[20.124918650969292,40.4138108878511],[20.124904000443795,40.41380255467215],[20.124932135172163,40.41377365601712],[20.12491701205567,40.413765054027714],[20.12496062084172,40.41372026110395],[20.125038126830848,40.41376434625024],[20.12499451806737,40.41380913920213]]]},"properties":{"Zk_Numer":1084,"Zk_Emer":"BALLABAN","Nr_Pas":"","Vol":0,"Faqe":0,"Pronaret":"","Kufizimet":"","Siperfaqet":67.8}},
{"type":"Feature","geometry":{"type":"Polygon","coordinates":[[[20.13251164094452,40.41631815596005],[20.132520870974172,40.41634048226679],[20.132455709335055,40.4163562198125],[20.132443639322826,40.416327023866],[20.13243240455875,40.41632973723108],[20.13241962456183,40.41629882387317],[20.13243085932129,40.41629611050932],[20.132416659333337,40.41626176233335],[20.132522827716972,40.416236121004125],[20.13252673272556,40.41624556674914],[20.132574480390968,40.41623403490103],[20.13260039551555,40.4162967202854],[20.13251164094452,40.41631815596005]]]},"properties":{"Zk_Numer":1084,"Zk_Emer":"BALLABAN","Nr_Pas":"","Vol":0,"Faqe":0,"Pronaret":"","Kufizimet":"","Siperfaqet":129.1}},
{"type":"Feature","geometry":{"type":"Polygon","coordinates":[[[20.131773404791723,40.41595197165662],[20.131735154750398,40.41585638106089],[20.131827544366033,40.415834783451466],[20.13186579452571,40.41593037401682],[20.131828613298428,40.41593906575879],[20.131832403855984,40.4159485386981],[20.13177719534227,40.41596144459775],[20.131773404791723,40.41595197165662]]]},"properties":{"Zk_Numer":1084,"Zk_Emer":"BALLABAN","Nr_Pas":"","Vol":0,"Faqe":0,"Pronaret":"","Kufizimet":"","Siperfaqet":96.4}},
{"type":"Feature","geometry":{"type":"Polygon","coordinates":[[[20.131924736868847,40.4161421936245],[20.131829816166665,40.4161034251667],[20.13188258413225,40.416027976108104],[20.13197869900998,40.41606724685925],[20.13207481399932,40.41610651753003],[20.13202204618757,40.41618196667509],[20.131924736868847,40.4161421936245]]]},"properties":{"Zk_Numer":1084,"Zk_Emer":"BALLABAN","Nr_Pas":"","Vol":0,"Faqe":0,"Pronaret":"","Kufizimet":"","Siperfaqet":175.7}},
{"type":"Feature","geometry":{"type":"Polygon","coordinates":[[[20.13906332729599,40.41801646965512],[20.139136253847617,40.41801974083479],[20.139129350789673,40.41810964145898],[20.13901172716667,40.41810436533333],[20.13901863038068,40.41801446471582],[20.13902042521336,40.417991090554985],[20.13906512211326,40.41799309549362],[20.13906332729599,40.41801646965512]]]},"properties":{"Zk_Numer":1084,"Zk_Emer":"BALLABAN","Nr_Pas":"","Vol":0,"Faqe":0,"Pronaret":"","Kufizimet":"","Siperfaqet":109.9}},
{"type":"Feature","geometry":{"type":"Polygon","coordinates":[[[20.138407009293395,40.417506893423],[20.13838944310218,40.41746203059469],[20.138338647796378,40.417473649317756],[20.13830317773588,40.41738306088963],[20.138314465569366,40.41738047895655],[20.13830162880411,40.41734769457119],[20.138350166456817,40.41733659225176],[20.13836300324349,40.41736937663171],[20.1384115409016,40.417358274286535],[20.138464577320203,40.4174937255012],[20.138407009293395,40.417506893423]]]},"properties":{"Zk_Numer":1084,"Zk_Emer":"BALLABAN","Nr_Pas":"","Vol":0,"Faqe":0,"Pronaret":"","Kufizimet":"","Siperfaqet":143.7}},
{"type":"Feature","geometry":{"type":"Polygon","coordinates":[[[20.13615878298116,40.41791080114797],[20.136124610177056,40.417876357673755],[20.136237272050803,40.417811061098256],[20.13627144487913,40.41784550453951],[20.13615878298116,40.41791080114797]]]},"properties":{"Zk_Numer":1084,"Zk_Emer":"BALLABAN","Nr_Pas":"","Vol":0,"Faqe":0,"Pronaret":"","Kufizimet":"","Siperfaqet":57.6}},
{"type":"Feature","geometry":{"type":"Polygon","coordinates":[[[20.136336837311035,40.41792025809799],[20.13638008040258,40.41795279405909],[20.1364640476896,40.41801597063571],[20.136352458666664,40.4181026095],[20.136268491375862,40.4180394328433],[20.136343710677167,40.41798103189698],[20.136300467584988,40.41794849592243],[20.136336837311035,40.41792025809799]]]},"properties":{"Zk_Numer":1084,"Zk_Emer":"BALLABAN","Nr_Pas":"","Vol":0,"Faqe":0,"Pronaret":"","Kufizimet":"","Siperfaqet":157.7}},
{"type":"Feature","geometry":{"type":"Polygon","coordinates":[[[20.134975594952657,40.416323661085],[20.13509276345269,40.41627346567719],[20.135141729939267,40.41634023924975],[20.135024561360073,40.41639043470675],[20.134975594952657,40.416323661085]]]},"properties":{"Zk_Numer":1084,"Zk_Emer":"BALLABAN","Nr_Pas":"","Vol":0,"Faqe":0,"Pronaret":"","Kufizimet":"","Siperfaqet":96.9}},
{"type":"Feature","geometry":{"type":"Polygon","coordinates":[[[20.13514134248286,40.41654715998875],[20.135094055036237,40.416468624480245],[20.13520108758052,40.416430975476416],[20.135248375124995,40.41650951094153],[20.13514134248286,40.41654715998875]]]},"properties":{"Zk_Numer":1084,"Zk_Emer":"BALLABAN","Nr_Pas":"","Vol":0,"Faqe":0,"Pronaret":"","Kufizimet":"","Siperfaqet":96}},
{"type":"Feature","geometry":{"type":"Polygon","coordinates":[[[20.134749963528108,40.41598887254786],[20.134680266684235,40.41592078225162],[20.134782342783218,40.4158597419313],[20.13485203966667,40.41592783216666],[20.134749963528108,40.41598887254786]]]},"properties":{"Zk_Numer":1084,"Zk_Emer":"BALLABAN","Nr_Pas":"","Vol":0,"Faqe":0,"Pronaret":"","Kufizimet":"","Siperfaqet":105.6}},
{"type":"Feature","geometry":{"type":"Polygon","coordinates":[[[20.133331814949887,40.41623665588612],[20.133343894691453,40.41621912659669],[20.133298026270502,40.41620066079544],[20.13332548022493,40.4161608215072],[20.133463085504097,40.41621621882383],[20.133435631608496,40.4162560581443],[20.13338976313745,40.41623759237962],[20.133377683404515,40.41625512167378],[20.133331814949887,40.41623665588612]]]},"properties":{"Zk_Numer":1084,"Zk_Emer":"BALLABAN","Nr_Pas":"","Vol":0,"Faqe":0,"Pronaret":"","Kufizimet":"","Siperfaqet":75.7}},
{"type":"Feature","geometry":{"type":"Polygon","coordinates":[[[20.133401793833333,40.41608245933336],[20.133302880929303,40.41606024439388],[20.133318824934722,40.41601877120244],[20.133278129381612,40.41600963132251],[20.133291416056935,40.41597507033236],[20.133382415807993,40.41599550808931],[20.133431024393165,40.41600642512264],[20.133423384594085,40.416026297701244],[20.133401793833333,40.41608245933336]]]},"properties":{"Zk_Numer":1084,"Zk_Emer":"BALLABAN","Nr_Pas":"","Vol":0,"Faqe":0,"Pronaret":"","Kufizimet":"","Siperfaqet":91.4}},
{"type":"Feature","geometry":{"type":"Polygon","coordinates":[[[20.134238568080274,40.417331584115516],[20.134269017907148,40.41732187976416],[20.134264483344925,40.417313567870444],[20.134369970166667,40.4172799491667],[20.134419850530367,40.417371379941756],[20.134314363590903,40.41740499869068],[20.13428783635233,40.41735637412098],[20.134257386512637,40.417366078477286],[20.134238568080274,40.417331584115516]]]},"properties":{"Zk_Numer":1084,"Zk_Emer":"BALLABAN","Nr_Pas":"","Vol":0,"Faqe":0,"Pronaret":"","Kufizimet":"","Siperfaqet":118.3}},
{"type":"Feature","geometry":{"type":"Polygon","coordinates":[[[20.13415487766666,40.41738488750003],[20.134201947428277,40.41738306821523],[20.13420670801631,40.417455020538775],[20.134159638204693,40.41745683982555],[20.13415487766666,40.41738488750003]]]},"properties":{"Zk_Numer":1084,"Zk_Emer":"BALLABAN","Nr_Pas":"","Vol":0,"Faqe":0,"Pronaret":"","Kufizimet":"","Siperfaqet":32}},
{"type":"Feature","geometry":{"type":"Polygon","coordinates":[[[20.134338056597834,40.41655692114635],[20.134241697370857,40.41648411227783],[20.134324531170186,40.41642006894964],[20.134365588553493,40.41645109183973],[20.134325828349922,40.41648183265868],[20.134381130191805,40.41652361858768],[20.134338056597834,40.41655692114635]]]},"properties":{"Zk_Numer":1084,"Zk_Emer":"BALLABAN","Nr_Pas":"","Vol":0,"Faqe":0,"Pronaret":"","Kufizimet":"","Siperfaqet":83.3}},
{"type":"Feature","geometry":{"type":"Polygon","coordinates":[[[20.134418185554857,40.416623963400355],[20.134379092582492,40.416591491801945],[20.134460592499998,40.416534171500025],[20.134499685478215,40.416566643071185],[20.134418185554857,40.416623963400355]]]},"properties":{"Zk_Numer":1084,"Zk_Emer":"BALLABAN","Nr_Pas":"","Vol":0,"Faqe":0,"Pronaret":"","Kufizimet":"","Siperfaqet":46.1}},
{"type":"Feature","geometry":{"type":"Polygon","coordinates":[[[20.134535543684834,40.416724188707306],[20.13447866812521,40.41666009211943],[20.134514747633858,40.41664138933701],[20.134571623211873,40.41670548590734],[20.134535543684834,40.416724188707306]]]},"properties":{"Zk_Numer":1084,"Zk_Emer":"BALLABAN","Nr_Pas":"","Vol":0,"Faqe":0,"Pronaret":"","Kufizimet":"","Siperfaqet":31.8}},
{"type":"Feature","geometry":{"type":"Polygon","coordinates":[[[20.13474053312407,40.417938614722665],[20.134674677150038,40.417961719804445],[20.134656490006638,40.41793143735256],[20.134595988158406,40.41795266392989],[20.134543393059577,40.41786509030835],[20.134644050877966,40.417829775322666],[20.134696646079558,40.417917348898776],[20.13472234595742,40.41790833228103],[20.13474053312407,40.417938614722665]]]},"properties":{"Zk_Numer":1084,"Zk_Emer":"BALLABAN","Nr_Pas":"","Vol":0,"Faqe":0,"Pronaret":"","Kufizimet":"","Siperfaqet":123.3}},
{"type":"Feature","geometry":{"type":"Polygon","coordinates":[[[20.13477008076841,40.41791264978531],[20.134899767000004,40.41788591333335],[20.13494027167974,40.41800068437391],[20.134810585244058,40.418027420871084],[20.13477008076841,40.41791264978531]]]},"properties":{"Zk_Numer":1084,"Zk_Emer":"BALLABAN","Nr_Pas":"","Vol":0,"Faqe":0,"Pronaret":"","Kufizimet":"","Siperfaqet":150.5}},
{"type":"Feature","geometry":{"type":"Polygon","coordinates":[[[20.13497271166667,40.41803783583336],[20.134960448712604,40.41799379445436],[20.135041120187516,40.41798067267731],[20.13505338319176,40.418024714047775],[20.13497271166667,40.41803783583336]]]},"properties":{"Zk_Numer":1084,"Zk_Emer":"BALLABAN","Nr_Pas":"","Vol":0,"Faqe":0,"Pronaret":"","Kufizimet":"","Siperfaqet":35}},
{"type":"Feature","geometry":{"type":"Polygon","coordinates":[[[20.133113290166666,40.41625980600002],[20.133075833068794,40.41620012722858],[20.133137978293448,40.41617734043985],[20.133121925253725,40.41615176382813],[20.13317079154051,40.41613384599461],[20.13322430176762,40.4162191013354],[20.133113290166666,40.41625980600002]]]},"properties":{"Zk_Numer":1084,"Zk_Emer":"BALLABAN","Nr_Pas":"","Vol":0,"Faqe":0,"Pronaret":"","Kufizimet":"","Siperfaqet":91.3}},
{"type":"Feature","geometry":{"type":"Polygon","coordinates":[[[20.134752180878326,40.41722493739933],[20.134799954799327,40.417158173560814],[20.134898676808405,40.41719944132895],[20.134850902956025,40.41726620520767],[20.134752180878326,40.41722493739933]]]},"properties":{"Zk_Numer":1084,"Zk_Emer":"BALLABAN","Nr_Pas":"","Vol":0,"Faqe":0,"Pronaret":"","Kufizimet":"","Siperfaqet":80.7}},
{"type":"Feature","geometry":{"type":"Polygon","coordinates":[[[20.134803742213247,40.41715267773581],[20.13485361137667,40.41708114980183],[20.134952914306574,40.41712159498747],[20.134903045218685,40.41719312296364],[20.134803742213247,40.41715267773581]]]},"properties":{"Zk_Numer":1084,"Zk_Emer":"BALLABAN","Nr_Pas":"","Vol":0,"Faqe":0,"Pronaret":"","Kufizimet":"","Siperfaqet":86}},
{"type":"Feature","geometry":{"type":"Polygon","coordinates":[[[20.133125025867507,40.416069682416165],[20.133091116409492,40.41610759887367],[20.13307847138457,40.41610099231258],[20.13302893690629,40.416156380055355],[20.13295209408191,40.41611623242938],[20.13303553807886,40.41602292828748],[20.133125025867507,40.416069682416165]]]},"properties":{"Zk_Numer":1084,"Zk_Emer":"BALLABAN","Nr_Pas":"","Vol":0,"Faqe":0,"Pronaret":"","Kufizimet":"","Siperfaqet":105.8}},
{"type":"Feature","geometry":{"type":"Polygon","coordinates":[[[20.13270454330705,40.41624263668699],[20.13280190970116,40.41619689463193],[20.132860521876804,40.41626978013088],[20.132763155417592,40.416315522234825],[20.13270454330705,40.41624263668699]]]},"properties":{"Zk_Numer":1084,"Zk_Emer":"BALLABAN","Nr_Pas":"","Vol":0,"Faqe":0,"Pronaret":"","Kufizimet":"","Siperfaqet":92.2}},
{"type":"Feature","geometry":{"type":"Polygon","coordinates":[[[20.133799029540114,40.41645410583127],[20.133710040499995,40.41641170733337],[20.13377236820902,40.41633528408322],[20.13386135718731,40.4163776825338],[20.133799029540114,40.41645410583127]]]},"properties":{"Zk_Numer":1084,"Zk_Emer":"BALLABAN","Nr_Pas":"","Vol":0,"Faqe":0,"Pronaret":"","Kufizimet":"","Siperfaqet":89}},
{"type":"Feature","geometry":{"type":"Polygon","coordinates":[[[20.133940316907633,40.41650613313405],[20.133985743525844,40.41647471014215],[20.134011833860093,40.41649674445414],[20.134034547154656,40.41648103294638],[20.134076845159086,40.416516755219114],[20.1340541318624,40.41653246673509],[20.134091290892002,40.41656384891285],[20.13404586426317,40.416595271945745],[20.133940316907633,40.41650613313405]]]},"properties":{"Zk_Numer":1084,"Zk_Emer":"BALLABAN","Nr_Pas":"","Vol":0,"Faqe":0,"Pronaret":"","Kufizimet":"","Siperfaqet":83.3}},
{"type":"Feature","geometry":{"type":"Polygon","coordinates":[[[20.134409369062432,40.41698560171935],[20.134346030166668,40.41688297750003],[20.13445259233646,40.4168445558569],[20.13451593135777,40.41694718001832],[20.134409369062432,40.41698560171935]]]},"properties":{"Zk_Numer":1084,"Zk_Emer":"BALLABAN","Nr_Pas":"","Vol":0,"Faqe":0,"Pronaret":"","Kufizimet":"","Siperfaqet":126}},
{"type":"Feature","geometry":{"type":"Polygon","coordinates":[[[20.134204720816108,40.416423755718256],[20.1341639556866,40.41645810906728],[20.13404919103528,40.416378550537885],[20.134089956175362,40.41634419722883],[20.134124865543185,40.41636839754202],[20.13414505020726,40.41635138763974],[20.134178650495873,40.416374680425285],[20.13415846583333,40.41639169033336],[20.134204720816108,40.416423755718256]]]},"properties":{"Zk_Numer":1084,"Zk_Emer":"BALLABAN","Nr_Pas":"","Vol":0,"Faqe":0,"Pronaret":"","Kufizimet":"","Siperfaqet":77.5}},
{"type":"Feature","geometry":{"type":"Polygon","coordinates":[[[20.135314923382268,40.41674003617673],[20.135335706627778,40.416833250440284],[20.1353322221484,40.41683370430067],[20.13533519118752,40.41684702062369],[20.135242271702325,40.41685912353151],[20.135224457591928,40.41677922557744],[20.13526627131642,40.416773779284625],[20.135260333273052,40.41674714663453],[20.135314923382268,40.41674003617673]]]},"properties":{"Zk_Numer":1084,"Zk_Emer":"BALLABAN","Nr_Pas":"","Vol":0,"Faqe":0,"Pronaret":"","Kufizimet":"","Siperfaqet":88.3}},
{"type":"Feature","geometry":{"type":"Polygon","coordinates":[[[20.13520328619688,40.41673083901059],[20.135156141020808,40.41663856444804],[20.135183578968768,40.41663037486388],[20.135167292472456,40.416598498195796],[20.135226558393637,40.41658080868006],[20.135249273807318,40.4166252682312],[20.13527780925564,40.41661675104056],[20.13531852566667,40.41669644266669],[20.13520328619688,40.41673083901059]]]},"properties":{"Zk_Numer":1084,"Zk_Emer":"BALLABAN","Nr_Pas":"","Vol":0,"Faqe":0,"Pronaret":"","Kufizimet":"","Siperfaqet":132.1}},
{"type":"Feature","geometry":{"type":"Polygon","coordinates":[[[20.134308220062923,40.41667835167877],[20.134300128915445,40.416682047452],[20.134324305674383,40.41671296873552],[20.134282838517446,40.41673190957295],[20.13425866177067,40.416700988280844],[20.134257650376604,40.416701450252084],[20.134231660398843,40.41666820985699],[20.134196261608963,40.416684378837246],[20.134158183332055,40.41663567777074],[20.13419358210559,40.41661950880204],[20.134171823105547,40.41659167962192],[20.134222392739243,40.41656858108578],[20.134308220062923,40.41667835167877]]]},"properties":{"Zk_Numer":1084,"Zk_Emer":"BALLABAN","Nr_Pas":"","Vol":0,"Faqe":0,"Pronaret":"","Kufizimet":"","Siperfaqet":109.5}},
{"type":"Feature","geometry":{"type":"Polygon","coordinates":[[[20.13552280744985,40.41742585522601],[20.13561439968454,40.41735576742013],[20.135656081554405,40.41738758802575],[20.13556448932,40.41745767586426],[20.13552280744985,40.41742585522601]]]},"properties":{"Zk_Numer":1084,"Zk_Emer":"BALLABAN","Nr_Pas":"","Vol":0,"Faqe":0,"Pronaret":"","Kufizimet":"","Siperfaqet":55}},
{"type":"Feature","geometry":{"type":"Polygon","coordinates":[[[20.134844887714742,40.416789466447725],[20.13484843685601,40.416701253913565],[20.1349497172573,40.41670363439227],[20.13494616824819,40.416791846929286],[20.134844887714742,40.416789466447725]]]},"properties":{"Zk_Numer":1084,"Zk_Emer":"BALLABAN","Nr_Pas":"","Vol":0,"Faqe":0,"Pronaret":"","Kufizimet":"","Siperfaqet":84.3}},
{"type":"Feature","geometry":{"type":"Polygon","coordinates":[[[20.134752802333335,40.41650808899999],[20.134799584204305,40.41650372317223],[20.13479387219715,40.416467966579695],[20.134860536317998,40.416461745245776],[20.134878814873538,40.416576166329484],[20.134765368716895,40.41658675350688],[20.134752802333335,40.41650808899999]]]},"properties":{"Zk_Numer":1084,"Zk_Emer":"BALLABAN","Nr_Pas":"","Vol":0,"Faqe":0,"Pronaret":"","Kufizimet":"","Siperfaqet":108.2}},
{"type":"Feature","geometry":{"type":"Polygon","coordinates":[[[20.136469527856235,40.419354115330314],[20.136410161333334,40.41930408433334],[20.136493077824877,40.41924661128851],[20.13653503016615,40.41928196649985],[20.136502736388543,40.419304350757045],[20.136520150579628,40.419319026505406],[20.136469527856235,40.419354115330314]]]},"properties":{"Zk_Numer":1084,"Zk_Emer":"BALLABAN","Nr_Pas":"","Vol":0,"Faqe":0,"Pronaret":"","Kufizimet":"","Siperfaqet":63.1}},
{"type":"Feature","geometry":{"type":"Polygon","coordinates":[[[20.1364097710824,40.41818607166999],[20.13646470908211,40.41818066937283],[20.136462977714913,40.41816831239248],[20.13650339662595,40.41816500414664],[20.13650655826683,40.4181875690661],[20.136543345342353,40.418184558069626],[20.13654761106807,40.41821500280063],[20.136567527645106,40.41821337263768],[20.136578819314227,40.418293961627924],[20.136531019471352,40.41829787401796],[20.136526327175627,40.41826438481367],[20.136480636166503,40.4182681245779],[20.136487938048433,40.41832023879696],[20.136440489651225,40.418324122382195],[20.13643318780547,40.41827200816011],[20.13642194078575,40.41827292871008],[20.1364097710824,40.41818607166999]]]},"properties":{"Zk_Numer":1084,"Zk_Emer":"BALLABAN","Nr_Pas":"","Vol":0,"Faqe":0,"Pronaret":"","Kufizimet":"","Siperfaqet":159.4}},
{"type":"Feature","geometry":{"type":"Polygon","coordinates":[[[20.133009045316577,40.415741148067866],[20.133004415313874,40.41569923635891],[20.133110028887273,40.41569242025743],[20.133114658955016,40.4157343319621],[20.133009045316577,40.415741148067866]]]},"properties":{"Zk_Numer":1084,"Zk_Emer":"BALLABAN","Nr_Pas":"","Vol":0,"Faqe":0,"Pronaret":"","Kufizimet":"","Siperfaqet":42}},
{"type":"Feature","geometry":{"type":"Polygon","coordinates":[[[20.134882178257943,40.41684994884022],[20.134963770468158,40.41686265391249],[20.134950712196016,40.4169116442551],[20.13490669693591,40.41690479045821],[20.13490049447213,40.416928059980215],[20.13486291745283,40.416922208693826],[20.134882178257943,40.41684994884022]]]},"properties":{"Zk_Numer":1084,"Zk_Emer":"BALLABAN","Nr_Pas":"","Vol":0,"Faqe":0,"Pronaret":"","Kufizimet":"","Siperfaqet":47.8}},
{"type":"Feature","geometry":{"type":"Polygon","coordinates":[[[20.135383169599802,40.417010305304714],[20.135383066713477,40.4169589738233],[20.1354452777251,40.416958900962904],[20.135445380658698,40.417010232444184],[20.135383169599802,40.417010305304714]]]},"properties":{"Zk_Numer":1084,"Zk_Emer":"BALLABAN","Nr_Pas":"","Vol":0,"Faqe":0,"Pronaret":"","Kufizimet":"","Siperfaqet":30.1}},
{"type":"Feature","geometry":{"type":"Polygon","coordinates":[[[20.13579857872911,40.416990816452035],[20.135798380835087,40.41689238608598],[20.135909488647645,40.41689225553601],[20.13590968670358,40.41699068590161],[20.13579857872911,40.416990816452035]]]},"properties":{"Zk_Numer":1084,"Zk_Emer":"BALLABAN","Nr_Pas":"","Vol":0,"Faqe":0,"Pronaret":"","Kufizimet":"","Siperfaqet":103.1}},
{"type":"Feature","geometry":{"type":"Polygon","coordinates":[[[20.136391938943326,40.41850628824755],[20.136377558452516,40.41846270534753],[20.13643044020451,40.4184525125042],[20.136423856557485,40.41843255949738],[20.13647125663706,40.41842342321155],[20.13647695329781,40.41844068800017],[20.136538322076643,40.41842885923825],[20.136553589666665,40.41847513033332],[20.136391938943326,40.41850628824755]]]},"properties":{"Zk_Numer":1084,"Zk_Emer":"BALLABAN","Nr_Pas":"","Vol":0,"Faqe":0,"Pronaret":"","Kufizimet":"","Siperfaqet":81.8}},
{"type":"Feature","geometry":{"type":"Polygon","coordinates":[[[20.13839446212239,40.417268653253295],[20.138271796947546,40.41729041320737],[20.13823805618254,40.417179299585015],[20.13836072116667,40.41715753966664],[20.13839446212239,40.417268653253295]]]},"properties":{"Zk_Numer":1084,"Zk_Emer":"BALLABAN","Nr_Pas":"","Vol":0,"Faqe":0,"Pronaret":"","Kufizimet":"","Siperfaqet":135.4}},
{"type":"Feature","geometry":{"type":"Polygon","coordinates":[[[20.138566280724373,40.41767409311112],[20.138512584357777,40.41769088346355],[20.13848926128544,40.41764731088448],[20.13846293965947,40.41765554139811],[20.138448376650384,40.41762833447429],[20.138469632058193,40.41762168811831],[20.138450011456307,40.417585032475515],[20.13850877395901,40.417566657996076],[20.138566280724373,40.41767409311112]]]},"properties":{"Zk_Numer":1084,"Zk_Emer":"BALLABAN","Nr_Pas":"","Vol":0,"Faqe":0,"Pronaret":"","Kufizimet":"","Siperfaqet":73.4}},
{"type":"Feature","geometry":{"type":"Polygon","coordinates":[[[20.12296203016667,40.42060467833335],[20.122966563671604,40.42055994491995],[20.12307519323977,40.42056881152586],[20.123067804666668,40.42061270016668],[20.12296203016667,40.42060467833335]]]},"properties":{"Zk_Numer":1084,"Zk_Emer":"BALLABAN","Nr_Pas":"","Vol":0,"Faqe":0,"Pronaret":"","Kufizimet":"","Siperfaqet":45.2}},
{"type":"Feature","geometry":{"type":"Polygon","coordinates":[[[20.124141794666667,40.41415506633333],[20.124062719866316,40.414247477430195],[20.1239980965,40.41421517083333],[20.124077171351164,40.41412275978007],[20.124141794666667,40.41415506633333]]]},"properties":{"Zk_Numer":1084,"Zk_Emer":"BALLABAN","Nr_Pas":"","Vol":0,"Faqe":0,"Pronaret":"","Kufizimet":"","Siperfaqet":80.4}},
{"type":"Feature","geometry":{"type":"Polygon","coordinates":[[[20.12217718733333,40.41533347566665],[20.122109241235982,40.415356358005724],[20.122063680333333,40.41527732116666],[20.12213162636675,40.415254438854156],[20.12217718733333,40.41533347566665]]]},"properties":{"Zk_Numer":1084,"Zk_Emer":"BALLABAN","Nr_Pas":"","Vol":0,"Faqe":0,"Pronaret":"","Kufizimet":"","Siperfaqet":60.4}},
{"type":"Feature","geometry":{"type":"Polygon","coordinates":[[[20.124157635932942,40.41415175027647],[20.12416981698344,40.41413739470402],[20.124157460839722,40.414131269295396],[20.124070967896433,40.41408839139765],[20.124118409880893,40.414032480248345],[20.12420490278253,40.41407535811108],[20.12419208064356,40.41409046924394],[20.124223218119067,40.41410590526198],[20.124176417277994,40.414161060897],[20.124157635932942,40.41415175027647]]]},"properties":{"Zk_Numer":1084,"Zk_Emer":"BALLABAN","Nr_Pas":"","Vol":0,"Faqe":0,"Pronaret":"","Kufizimet":"","Siperfaqet":85.4}},
{"type":"Feature","geometry":{"type":"Polygon","coordinates":[[[20.124247563556615,40.41411888613338],[20.124289631333337,40.41407546183334],[20.12432371842274,40.41409475461177],[20.12428165065598,40.414138178924034],[20.124247563556615,40.41411888613338]]]},"properties":{"Zk_Numer":1084,"Zk_Emer":"BALLABAN","Nr_Pas":"","Vol":0,"Faqe":0,"Pronaret":"","Kufizimet":"","Siperfaqet":21.6}},
{"type":"Feature","geometry":{"type":"Polygon","coordinates":[[[20.12433772273422,40.414095019022085],[20.12435554449821,40.41407379969816],[20.12440115209055,40.414096178897566],[20.124383330335014,40.41411739822844],[20.12433772273422,40.414095019022085]]]},"properties":{"Zk_Numer":1084,"Zk_Emer":"BALLABAN","Nr_Pas":"","Vol":0,"Faqe":0,"Pronaret":"","Kufizimet":"","Siperfaqet":12.9}},
{"type":"Feature","geometry":{"type":"Polygon","coordinates":[[[20.124774733180143,40.41434263984157],[20.124795087575105,40.41431626817231],[20.124855973564465,40.41434372326404],[20.124835619185053,40.41437009494386],[20.124774733180143,40.41434263984157]]]},"properties":{"Zk_Numer":1084,"Zk_Emer":"BALLABAN","Nr_Pas":"","Vol":0,"Faqe":0,"Pronaret":"","Kufizimet":"","Siperfaqet":20.4}},
{"type":"Feature","geometry":{"type":"Polygon","coordinates":[[[20.125847635375134,40.414844745884906],[20.125876041419218,40.41478460583551],[20.125927018344193,40.4147986727631],[20.125898612339643,40.41485881282483],[20.125847635375134,40.414844745884906]]]},"properties":{"Zk_Numer":1084,"Zk_Emer":"BALLABAN","Nr_Pas":"","Vol":0,"Faqe":0,"Pronaret":"","Kufizimet":"","Siperfaqet":32.7}},
{"type":"Feature","geometry":{"type":"Polygon","coordinates":[[[20.12668219414622,40.415439226444974],[20.126862385932352,40.415323161789054],[20.126942866422368,40.41539615730565],[20.126762674580448,40.415512222085624],[20.12668219414622,40.415439226444974]]]},"properties":{"Zk_Numer":1084,"Zk_Emer":"BALLABAN","Nr_Pas":"","Vol":0,"Faqe":0,"Pronaret":"","Kufizimet":"","Siperfaqet":212}},
{"type":"Feature","geometry":{"type":"Polygon","coordinates":[[[20.11907735351589,40.41544227335737],[20.118967634599198,40.415432685464076],[20.119005758922878,40.415177808401],[20.119115477430814,40.41518739625913],[20.11907735351589,40.41544227335737]]]},"properties":{"Zk_Numer":1084,"Zk_Emer":"BALLABAN","Nr_Pas":"","Vol":0,"Faqe":0,"Pronaret":"","Kufizimet":"","Siperfaqet":267}},
{"type":"Feature","geometry":{"type":"Polygon","coordinates":[[[20.132692402029186,40.41691455772846],[20.132682510329968,40.41682933987174],[20.13279400500286,40.416821779382836],[20.132803896841583,40.41690699722991],[20.132692402029186,40.41691455772846]]]},"properties":{"Zk_Numer":1084,"Zk_Emer":"BALLABAN","Nr_Pas":"","Vol":0,"Faqe":0,"Pronaret":"","Kufizimet":"","Siperfaqet":90.3}},
{"type":"Feature","geometry":{"type":"Polygon","coordinates":[[[20.13278629783802,40.41658357844195],[20.132677958325555,40.41656599913778],[20.13269668377725,40.41648434022219],[20.132808808166665,40.416502533666694],[20.13278629783802,40.41658357844195]]]},"properties":{"Zk_Numer":1084,"Zk_Emer":"BALLABAN","Nr_Pas":"","Vol":0,"Faqe":0,"Pronaret":"","Kufizimet":"","Siperfaqet":88}},
{"type":"Feature","geometry":{"type":"Polygon","coordinates":[[[20.132925553510837,40.41657468433814],[20.132901120041485,40.416577665890436],[20.132893132504417,40.4165394263728],[20.132917565960298,40.416536444822185],[20.13290066210428,40.41645551933224],[20.133010030752576,40.41644217329652],[20.133034922347036,40.41656133827884],[20.132925553510837,40.41657468433814]]]},"properties":{"Zk_Numer":1084,"Zk_Emer":"BALLABAN","Nr_Pas":"","Vol":0,"Faqe":0,"Pronaret":"","Kufizimet":"","Siperfaqet":135}},
{"type":"Feature","geometry":{"type":"Polygon","coordinates":[[[20.122304235911276,40.42065667785473],[20.12231796564815,40.42057086394469],[20.122431416082083,40.420581466535275],[20.12242590994666,40.420615881494385],[20.12246450651348,40.42061948853768],[20.122452779182836,40.42069278793338],[20.122329971807606,40.42068131092056],[20.122333475747073,40.42065941049521],[20.122304235911276,40.42065667785473]]]},"properties":{"Zk_Numer":1084,"Zk_Emer":"BALLABAN","Nr_Pas":"","Vol":0,"Faqe":0,"Pronaret":"","Kufizimet":"","Siperfaqet":137.8}},
{"type":"Feature","geometry":{"type":"Polygon","coordinates":[[[20.12263232674204,40.42045322181584],[20.122511994626148,40.420441145773246],[20.12252886904299,40.4203429280427],[20.12264920098681,40.42035500406816],[20.12263232674204,40.42045322181584]]]},"properties":{"Zk_Numer":1084,"Zk_Emer":"BALLABAN","Nr_Pas":"","Vol":0,"Faqe":0,"Pronaret":"","Kufizimet":"","Siperfaqet":113.3}},
{"type":"Feature","geometry":{"type":"Polygon","coordinates":[[[20.132664337576028,40.416695870342686],[20.132659847497223,40.41661579459138],[20.13276402559716,40.41661238195113],[20.132768515799224,40.416692457698254],[20.132664337576028,40.416695870342686]]]},"properties":{"Zk_Numer":1084,"Zk_Emer":"BALLABAN","Nr_Pas":"","Vol":0,"Faqe":0,"Pronaret":"","Kufizimet":"","Siperfaqet":78.8}},
{"type":"Feature","geometry":{"type":"Polygon","coordinates":[[[20.128506132312065,40.41602689258231],[20.128563782201304,40.416036160276114],[20.128560144636523,40.4160493793611],[20.128635089530114,40.41606142732233],[20.128623934365635,40.41610196585579],[20.128604333379645,40.416098814853385],[20.12859572448492,40.4161301000236],[20.128463129568743,40.416108784322084],[20.12847282979744,40.41607353343691],[20.128492430770017,40.41607668446163],[20.12850249473649,40.4160401116655],[20.128506132312065,40.41602689258231]]]},"properties":{"Zk_Numer":1084,"Zk_Emer":"BALLABAN","Nr_Pas":"","Vol":0,"Faqe":0,"Pronaret":"","Kufizimet":"","Siperfaqet":102}},
{"type":"Feature","geometry":{"type":"Polygon","coordinates":[[[20.13319826515033,40.415894859590686],[20.133095319977716,40.415907536312545],[20.1330781725,40.4158261846667],[20.13318111755193,40.41581350796012],[20.13319826515033,40.415894859590686]]]},"properties":{"Zk_Numer":1084,"Zk_Emer":"BALLABAN","Nr_Pas":"","Vol":0,"Faqe":0,"Pronaret":"","Kufizimet":"","Siperfaqet":81}},
{"type":"Feature","geometry":{"type":"Polygon","coordinates":[[[20.132863864038345,40.40707501844068],[20.133005893327457,40.40733605345188],[20.13279954189042,40.40740080333966],[20.132657513261034,40.407139768076895],[20.132863864038345,40.40707501844068]]]},"properties":{"Zk_Numer":1084,"Zk_Emer":"BALLABAN","Nr_Pas":"","Vol":0,"Faqe":0,"Pronaret":"","Kufizimet":"","Siperfaqet":594.4}},
{"type":"Feature","geometry":{"type":"Polygon","coordinates":[[[20.128571804666667,40.41595516166666],[20.128668606760023,40.41597478535309],[20.12865380630322,40.41601743780703],[20.128557004152974,40.41599781410845],[20.128571804666667,40.41595516166666]]]},"properties":{"Zk_Numer":1084,"Zk_Emer":"BALLABAN","Nr_Pas":"","Vol":0,"Faqe":0,"Pronaret":"","Kufizimet":"","Siperfaqet":41.6}},
{"type":"Feature","geometry":{"type":"Polygon","coordinates":[[[20.1226996979111,40.41553113172633],[20.122654777239994,40.41544837052145],[20.122806634000003,40.415400217333335],[20.122851554824848,40.415482978479695],[20.1226996979111,40.41553113172633]]]},"properties":{"Zk_Numer":1084,"Zk_Emer":"BALLABAN","Nr_Pas":"","Vol":0,"Faqe":0,"Pronaret":"","Kufizimet":"","Siperfaqet":138.8}},
{"type":"Feature","geometry":{"type":"Polygon","coordinates":[[[20.122372937999998,40.41526897016667],[20.122504091364437,40.41550045233929],[20.122452423333336,40.41551755466667],[20.12232127011246,40.41528607243592],[20.122372937999998,40.41526897016667]]]},"properties":{"Zk_Numer":1084,"Zk_Emer":"BALLABAN","Nr_Pas":"","Vol":0,"Faqe":0,"Pronaret":"","Kufizimet":"","Siperfaqet":133.9}},
{"type":"Feature","geometry":{"type":"Polygon","coordinates":[[[20.122563801166667,40.415176836666674],[20.122579401812605,40.415206170452564],[20.122525207166664,40.415223008999995],[20.122509606540337,40.41519367520684],[20.122563801166667,40.415176836666674]]]},"properties":{"Zk_Numer":1084,"Zk_Emer":"BALLABAN","Nr_Pas":"","Vol":0,"Faqe":0,"Pronaret":"","Kufizimet":"","Siperfaqet":17.5}},
{"type":"Feature","geometry":{"type":"Polygon","coordinates":[[[20.123415264659016,40.41560135650055],[20.123458278460234,40.415535837522775],[20.12352757059915,40.415562413755055],[20.12348455684835,40.41562793275823],[20.123415264659016,40.41560135650055]]]},"properties":{"Zk_Numer":1084,"Zk_Emer":"BALLABAN","Nr_Pas":"","Vol":0,"Faqe":0,"Pronaret":"","Kufizimet":"","Siperfaqet":53.6}},
{"type":"Feature","geometry":{"type":"Polygon","coordinates":[[[20.125061500452826,40.41629982604922],[20.125008014399114,40.41627792358089],[20.12503260833802,40.416242837446525],[20.125086094371866,40.41626473990367],[20.125061500452826,40.41629982604922]]]},"properties":{"Zk_Numer":1084,"Zk_Emer":"BALLABAN","Nr_Pas":"","Vol":0,"Faqe":0,"Pronaret":"","Kufizimet":"","Siperfaqet":22.8}},
{"type":"Feature","geometry":{"type":"Polygon","coordinates":[[[20.12614038184277,40.41577916031846],[20.12617851017621,40.41570896259074],[20.126285803833337,40.4157430085],[20.126247675592357,40.41581320626256],[20.12614038184277,40.41577916031846]]]},"properties":{"Zk_Numer":1084,"Zk_Emer":"BALLABAN","Nr_Pas":"","Vol":0,"Faqe":0,"Pronaret":"","Kufizimet":"","Siperfaqet":83.2}},
{"type":"Feature","geometry":{"type":"Polygon","coordinates":[[[20.126361919464554,40.41565626638456],[20.12638949905316,40.41550208508401],[20.126463042418685,40.41550977049978],[20.1264354629949,40.41566395181741],[20.126361919464554,40.41565626638456]]]},"properties":{"Zk_Numer":1084,"Zk_Emer":"BALLABAN","Nr_Pas":"","Vol":0,"Faqe":0,"Pronaret":"","Kufizimet":"","Siperfaqet":108.9}},
{"type":"Feature","geometry":{"type":"Polygon","coordinates":[[[20.118913708257626,40.41579159811261],[20.11895703665154,40.415501932609665],[20.119041795334002,40.415509339338286],[20.11899846729896,40.41579900487208],[20.118913708257626,40.41579159811261]]]},"properties":{"Zk_Numer":1084,"Zk_Emer":"BALLABAN","Nr_Pas":"","Vol":0,"Faqe":0,"Pronaret":"","Kufizimet":"","Siperfaqet":234.4}},
{"type":"Feature","geometry":{"type":"Polygon","coordinates":[[[20.11841904763088,40.41556000142442],[20.118398590284077,40.415771220788606],[20.118342997408455,40.41576807518067],[20.11836345492819,40.41555685582597],[20.11841904763088,40.41556000142442]]]},"properties":{"Zk_Numer":1084,"Zk_Emer":"BALLABAN","Nr_Pas":"","Vol":0,"Faqe":0,"Pronaret":"","Kufizimet":"","Siperfaqet":111.3}},
{"type":"Feature","geometry":{"type":"Polygon","coordinates":[[[20.11840196139934,40.41584849080597],[20.118305000356294,40.415821109076724],[20.1183211634448,40.415787672163766],[20.118418124446332,40.4158150538797],[20.11840196139934,40.41584849080597]]]},"properties":{"Zk_Numer":1084,"Zk_Emer":"BALLABAN","Nr_Pas":"","Vol":0,"Faqe":0,"Pronaret":"","Kufizimet":"","Siperfaqet":34.7}},
{"type":"Feature","geometry":{"type":"Polygon","coordinates":[[[20.12642703277046,40.41518854789617],[20.126474931974144,40.415153603706315],[20.126530501806695,40.41511306344682],[20.12655083902621,40.41512934961075],[20.126635441964627,40.415197100013636],[20.12653197291742,40.41527258455583],[20.12642703277046,40.41518854789617]]]},"properties":{"Zk_Numer":1084,"Zk_Emer":"BALLABAN","Nr_Pas":"","Vol":0,"Faqe":0,"Pronaret":"","Kufizimet":"","Siperfaqet":156.6}},
{"type":"Feature","geometry":{"type":"Polygon","coordinates":[[[20.1227591946614,40.420208767798975],[20.122717461616006,40.4201769850615],[20.122793977955002,40.4201182966232],[20.122835711,40.42015007933336],[20.1227591946614,40.420208767798975]]]},"properties":{"Zk_Numer":1084,"Zk_Emer":"BALLABAN","Nr_Pas":"","Vol":0,"Faqe":0,"Pronaret":"","Kufizimet":"","Siperfaqet":46}},
{"type":"Feature","geometry":{"type":"Polygon","coordinates":[[[20.137869221247005,40.41095522238997],[20.137895988216023,40.410895596370416],[20.13805199772125,40.41093651703993],[20.138025230873907,40.41099614309497],[20.137869221247005,40.41095522238997]]]},"properties":{"Zk_Numer":1084,"Zk_Emer":"BALLABAN","Nr_Pas":"","Vol":0,"Faqe":0,"Pronaret":"","Kufizimet":"","Siperfaqet":98}},
{"type":"Feature","geometry":{"type":"Polygon","coordinates":[[[20.1395229114395,40.41181748444298],[20.139532900618576,40.41181270966187],[20.13952040740034,40.41179743861324],[20.139550374924998,40.41178311426797],[20.13952226519539,40.411748754410624],[20.139572211026145,40.41172488049655],[20.139644047098052,40.41181268897603],[20.139554144506416,40.411855662061114],[20.1395229114395,40.41181748444298]]]},"properties":{"Zk_Numer":1084,"Zk_Emer":"BALLABAN","Nr_Pas":"","Vol":0,"Faqe":0,"Pronaret":"","Kufizimet":"","Siperfaqet":83.5}},
{"type":"Feature","geometry":{"type":"Polygon","coordinates":[[[20.13796823201746,40.411050520180666],[20.13791652182373,40.41104158076421],[20.1379256178347,40.411010837800234],[20.137977328006084,40.41101977721273],[20.13796823201746,40.411050520180666]]]},"properties":{"Zk_Numer":1084,"Zk_Emer":"BALLABAN","Nr_Pas":"","Vol":0,"Faqe":0,"Pronaret":"","Kufizimet":"","Siperfaqet":15.8}},
{"type":"Feature","geometry":{"type":"Polygon","coordinates":[[[20.11473228576449,40.41696990274654],[20.114711320254397,40.41693639350725],[20.114743140977033,40.41692476289979],[20.114764106499276,40.41695827213335],[20.11473228576449,40.41696990274654]]]},"properties":{"Zk_Numer":1084,"Zk_Emer":"BALLABAN","Nr_Pas":"","Vol":0,"Faqe":0,"Pronaret":"","Kufizimet":"","Siperfaqet":12.3}},
{"type":"Feature","geometry":{"type":"Polygon","coordinates":[[[20.143130027581087,40.412176220436315],[20.14316321250932,40.41213901731527],[20.143270289342215,40.41219482190114],[20.143210556502222,40.41226178756664],[20.143161885166666,40.412236421833356],[20.1431884331217,40.41220665933028],[20.143130027581087,40.412176220436315]]]},"properties":{"Zk_Numer":1084,"Zk_Emer":"BALLABAN","Nr_Pas":"","Vol":0,"Faqe":0,"Pronaret":"","Kufizimet":"","Siperfaqet":75}},
{"type":"Feature","geometry":{"type":"Polygon","coordinates":[[[20.142519358755777,40.41246192431268],[20.142607394276048,40.41234479518353],[20.14266358065127,40.412369468866906],[20.142575545196514,40.41248659803823],[20.142519358755777,40.41246192431268]]]},"properties":{"Zk_Numer":1084,"Zk_Emer":"BALLABAN","Nr_Pas":"","Vol":0,"Faqe":0,"Pronaret":"","Kufizimet":"","Siperfaqet":82.5}},
{"type":"Feature","geometry":{"type":"Polygon","coordinates":[[[20.142790758,40.41240411583336],[20.14270227664928,40.41235849083363],[20.14272834137298,40.41232895748695],[20.142817525428676,40.41237494482391],[20.142790758,40.41240411583336]]]},"properties":{"Zk_Numer":1084,"Zk_Emer":"BALLABAN","Nr_Pas":"","Vol":0,"Faqe":0,"Pronaret":"","Kufizimet":"","Siperfaqet":36}},
{"type":"Feature","geometry":{"type":"Polygon","coordinates":[[[20.115533133543543,40.41673024680029],[20.115487264789515,40.416710464421065],[20.11550978867896,40.4166799548469],[20.115460533686157,40.416658712012676],[20.115507897511897,40.41659455563824],[20.115603021182803,40.41663558080451],[20.115576675823963,40.416671266831216],[20.11559750659684,40.416680250761466],[20.11557944119701,40.416704721179435],[20.11555861041897,40.416695737245966],[20.115533133543543,40.41673024680029]]]},"properties":{"Zk_Numer":1084,"Zk_Emer":"BALLABAN","Nr_Pas":"","Vol":0,"Faqe":0,"Pronaret":"","Kufizimet":"","Siperfaqet":99.6}},
{"type":"Feature","geometry":{"type":"Polygon","coordinates":[[[20.11591302782292,40.41658311815504],[20.115811035594387,40.41653368617784],[20.115888139566913,40.41644074833324],[20.115939085868156,40.416465440186485],[20.11591491992913,40.4164945688397],[20.11594477130253,40.41650903671812],[20.11592426494763,40.416533754244874],[20.115945459435157,40.41654402643754],[20.11591302782292,40.41658311815504]]]},"properties":{"Zk_Numer":1084,"Zk_Emer":"BALLABAN","Nr_Pas":"","Vol":0,"Faqe":0,"Pronaret":"","Kufizimet":"","Siperfaqet":98.7}},
{"type":"Feature","geometry":{"type":"Polygon","coordinates":[[[20.115313688925067,40.416670684624336],[20.11536277778823,40.41664206526014],[20.11542809051349,40.41670751007415],[20.115379001630565,40.41673612946576],[20.115313688925067,40.416670684624336]]]},"properties":{"Zk_Numer":1084,"Zk_Emer":"BALLABAN","Nr_Pas":"","Vol":0,"Faqe":0,"Pronaret":"","Kufizimet":"","Siperfaqet":47.9}},
{"type":"Feature","geometry":{"type":"Polygon","coordinates":[[[20.115287087256174,40.416775494321044],[20.11542109076715,40.41672878703639],[20.115445632329777,40.41676991968272],[20.115311628754306,40.416816626995576],[20.115287087256174,40.416775494321044]]]},"properties":{"Zk_Numer":1084,"Zk_Emer":"BALLABAN","Nr_Pas":"","Vol":0,"Faqe":0,"Pronaret":"","Kufizimet":"","Siperfaqet":62.8}},
{"type":"Feature","geometry":{"type":"Polygon","coordinates":[[[20.116486619131905,40.41628049306982],[20.116493727318673,40.41630010703387],[20.116516663883758,40.41629525099696],[20.11652628825774,40.41632180795443],[20.11645305017762,40.41633731360695],[20.116460441429975,40.416357708659994],[20.116424106235804,40.416365401371934],[20.11641671499357,40.416345006316575],[20.116366754101943,40.41635558377366],[20.116350021635633,40.416309412830586],[20.116486619131905,40.41628049306982]]]},"properties":{"Zk_Numer":1084,"Zk_Emer":"BALLABAN","Nr_Pas":"","Vol":0,"Faqe":0,"Pronaret":"","Kufizimet":"","Siperfaqet":77.7}},
{"type":"Feature","geometry":{"type":"Polygon","coordinates":[[[20.11613969590856,40.41649598788586],[20.11609825981505,40.41653023797338],[20.116054746594642,40.41649948438772],[20.116119380487895,40.41644605955829],[20.11610259806554,40.41643419833922],[20.116122596155975,40.41641766837509],[20.116139292070375,40.416429468450985],[20.11616592951083,40.41640745052955],[20.116179770687143,40.416417232970886],[20.116206808070725,40.41639488444048],[20.11623656661191,40.41641591667681],[20.116165373466664,40.416474763403244],[20.116188730477194,40.41649127127192],[20.116163052920182,40.41651249575966],[20.11613969590856,40.41649598788586]]]},"properties":{"Zk_Numer":1084,"Zk_Emer":"BALLABAN","Nr_Pas":"","Vol":0,"Faqe":0,"Pronaret":"","Kufizimet":"","Siperfaqet":95.1}},
{"type":"Feature","geometry":{"type":"Polygon","coordinates":[[[20.11479088128574,40.41688125461163],[20.114890769296423,40.41684726376906],[20.114934857914967,40.416922952160235],[20.11493485791497,40.416922952160235],[20.114834969814723,40.41695694304058],[20.11479088128574,40.41688125461163]]]},"properties":{"Zk_Numer":1084,"Zk_Emer":"BALLABAN","Nr_Pas":"","Vol":0,"Faqe":0,"Pronaret":"","Kufizimet":"","Siperfaqet":85.4}},
{"type":"Feature","geometry":{"type":"Polygon","coordinates":[[[20.11440707489866,40.416992600134044],[20.114469878493747,40.41696443643873],[20.114448115504835,40.41693608570436],[20.11448774880369,40.416918312488384],[20.114509511803476,40.41694666321535],[20.114544368774,40.41693103188202],[20.114572630901097,40.41696784897566],[20.11453066024618,40.4169866703859],[20.114501799055844,40.41699961294486],[20.114458608873576,40.417018981197415],[20.114443941204588,40.416999873578426],[20.114420669312164,40.417010309639004],[20.11440707489866,40.416992600134044]]]},"properties":{"Zk_Numer":1084,"Zk_Emer":"BALLABAN","Nr_Pas":"","Vol":0,"Faqe":0,"Pronaret":"","Kufizimet":"","Siperfaqet":72.6}},
{"type":"Feature","geometry":{"type":"Polygon","coordinates":[[[20.115006369969734,40.41692377001627],[20.11498204204036,40.4168843484564],[20.115087007973724,40.416846506603186],[20.115111335950633,40.416885928141156],[20.115006369969734,40.41692377001627]]]},"properties":{"Zk_Numer":1084,"Zk_Emer":"BALLABAN","Nr_Pas":"","Vol":0,"Faqe":0,"Pronaret":"","Kufizimet":"","Siperfaqet":47.7}},
{"type":"Feature","geometry":{"type":"Polygon","coordinates":[[[20.115215006167336,40.416850424377444],[20.11522529453974,40.41686709415671],[20.115190874885624,40.41687950426553],[20.115180597963846,40.416862853025485],[20.115134616628055,40.41687946200199],[20.115108941395206,40.41683793735117],[20.115239543333107,40.41679076239695],[20.11526521862818,40.416832287019034],[20.115215006167336,40.416850424377444]]]},"properties":{"Zk_Numer":1084,"Zk_Emer":"BALLABAN","Nr_Pas":"","Vol":0,"Faqe":0,"Pronaret":"","Kufizimet":"","Siperfaqet":69.1}},
{"type":"Feature","geometry":{"type":"Polygon","coordinates":[[[20.116970127139503,40.416278948954435],[20.11695769313788,40.41623973946256],[20.117074490480032,40.41621810160343],[20.11708692454541,40.416257311082795],[20.117100468811678,40.416300021406684],[20.11704699389846,40.41630992817859],[20.117033449663985,40.416267217848485],[20.116970127139503,40.416278948954435]]]},"properties":{"Zk_Numer":1084,"Zk_Emer":"BALLABAN","Nr_Pas":"","Vol":0,"Faqe":0,"Pronaret":"","Kufizimet":"","Siperfaqet":68.5}},
{"type":"Feature","geometry":{"type":"Polygon","coordinates":[[[20.115606221134065,40.41654343365384],[20.11560510362918,40.41644910449671],[20.11567671040202,40.416449261176915],[20.11567877610207,40.41654363665901],[20.115606221134065,40.41654343365384]]]},"properties":{"Zk_Numer":1084,"Zk_Emer":"BALLABAN","Nr_Pas":"","Vol":0,"Faqe":0,"Pronaret":"","Kufizimet":"","Siperfaqet":64.1}},
{"type":"Feature","geometry":{"type":"Polygon","coordinates":[[[20.11806120643838,40.41609927863322],[20.11799727710711,40.41601560114363],[20.11810960393075,40.41596546641856],[20.118173533353396,40.41604914384666],[20.11806120643838,40.41609927863322]]]},"properties":{"Zk_Numer":1084,"Zk_Emer":"BALLABAN","Nr_Pas":"","Vol":0,"Faqe":0,"Pronaret":"","Kufizimet":"","Siperfaqet":118.8}},
{"type":"Feature","geometry":{"type":"Polygon","coordinates":[[[20.122645365935966,40.42084769556654],[20.122779972039552,40.4208596077887],[20.122776041609956,40.420885550490965],[20.122641435455336,40.42087363826437],[20.122645365935966,40.42084769556654]]]},"properties":{"Zk_Numer":1084,"Zk_Emer":"BALLABAN","Nr_Pas":"","Vol":0,"Faqe":0,"Pronaret":"","Kufizimet":"","Siperfaqet":33.4}},
{"type":"Feature","geometry":{"type":"Polygon","coordinates":[[[20.122779972039552,40.4208596077887],[20.122645365935966,40.42084769556654],[20.122652345920052,40.420801624912905],[20.122693312962486,40.42080525038602],[20.12269805661685,40.420773940231],[20.12275423997072,40.42077891228255],[20.122749496342063,40.42081022243982],[20.122786951933,40.42081353712716],[20.122779972039552,40.4208596077887]]]},"properties":{"Zk_Numer":1084,"Zk_Emer":"BALLABAN","Nr_Pas":"","Vol":0,"Faqe":0,"Pronaret":"","Kufizimet":"","Siperfaqet":76}},
{"type":"Feature","geometry":{"type":"Polygon","coordinates":[[[20.12307432918932,40.42096919341666],[20.122993025841133,40.42096927993378],[20.122993073402924,40.4209953959453],[20.122927088051085,40.420995466120125],[20.12292704051481,40.420969350108535],[20.12294589346521,40.42096933006245],[20.122945809854265,40.42092340190392],[20.12297762418639,40.420923368069225],[20.122977579910398,40.420899053161655],[20.12301292915552,40.42089901555732],[20.123012893068456,40.420879203410344],[20.123074165075206,40.420879138203944],[20.12307432918932,40.42096919341666]]]},"properties":{"Zk_Numer":1084,"Zk_Emer":"BALLABAN","Nr_Pas":"","Vol":0,"Faqe":0,"Pronaret":"","Kufizimet":"","Siperfaqet":105.4}},
{"type":"Feature","geometry":{"type":"Polygon","coordinates":[[[20.123604161620506,40.42095400539874],[20.12352712710405,40.42089700081986],[20.12360007423248,40.42083941921468],[20.123677108744584,40.420896423745546],[20.123604161620506,40.42095400539874]]]},"properties":{"Zk_Numer":1084,"Zk_Emer":"BALLABAN","Nr_Pas":"","Vol":0,"Faqe":0,"Pronaret":"","Kufizimet":"","Siperfaqet":81}},
{"type":"Feature","geometry":{"type":"Polygon","coordinates":[[[20.122167016200855,40.42018706931178],[20.1221214060032,40.42012505104334],[20.122224121819265,40.42008092551491],[20.122269732081243,40.42014294374322],[20.122167016200855,40.42018706931178]]]},"properties":{"Zk_Numer":1084,"Zk_Emer":"BALLABAN","Nr_Pas":"","Vol":0,"Faqe":0,"Pronaret":"","Kufizimet":"","Siperfaqet":79}},
{"type":"Feature","geometry":{"type":"Polygon","coordinates":[[[20.134935081238645,40.416227248478705],[20.13502025793107,40.41618698628012],[20.13508223039575,40.41626357805143],[20.134997053643932,40.41630384029523],[20.134935081238645,40.416227248478705]]]},"properties":{"Zk_Numer":1084,"Zk_Emer":"BALLABAN","Nr_Pas":"","Vol":0,"Faqe":0,"Pronaret":"","Kufizimet":"","Siperfaqet":85}},
{"type":"Feature","geometry":{"type":"Polygon","coordinates":[[[20.133312795154538,40.406996793833066],[20.133241803760157,40.40690334150066],[20.13332330378762,40.40686716261425],[20.133394295256444,40.406960614897095],[20.133312795154538,40.406996793833066]]]},"properties":{"Zk_Numer":1084,"Zk_Emer":"BALLABAN","Nr_Pas":"","Vol":0,"Faqe":0,"Pronaret":"","Kufizimet":"","Siperfaqet":96}},
{"type":"Feature","geometry":{"type":"Polygon","coordinates":[[[20.132954481482074,40.406734029727424],[20.132886883304582,40.40666883832467],[20.13295882948178,40.40662524325343],[20.133024319881912,40.406688401862716],[20.132954481482074,40.406734029727424]]]},"properties":{"Zk_Numer":1084,"Zk_Emer":"BALLABAN","Nr_Pas":"","Vol":0,"Faqe":0,"Pronaret":"","Kufizimet":"","Siperfaqet":70.9}},
{"type":"Feature","geometry":{"type":"Polygon","coordinates":[[[20.142469325195435,40.41294571025355],[20.142444489896185,40.412909977785134],[20.1425204016122,40.41287915163048],[20.142545236940165,40.412914884082745],[20.142469325195435,40.41294571025355]]]},"properties":{"Zk_Numer":1084,"Zk_Emer":"BALLABAN","Nr_Pas":"","Vol":0,"Faqe":0,"Pronaret":"","Kufizimet":"","Siperfaqet":32.8}},
{"type":"Feature","geometry":{"type":"Polygon","coordinates":[[[20.122347951060256,40.421146685753364],[20.122451166691114,40.421091454827454],[20.122498758473395,40.421143405528944],[20.122395542802273,40.421198636496904],[20.122347951060256,40.421146685753364]]]},"properties":{"Zk_Numer":1084,"Zk_Emer":"BALLABAN","Nr_Pas":"","Vol":0,"Faqe":0,"Pronaret":"","Kufizimet":"","Siperfaqet":75.3}},
{"type":"Feature","geometry":{"type":"Polygon","coordinates":[[[20.12243275305208,40.4209116947398],[20.12247479537722,40.42086147841369],[20.12251648099295,40.420881864213634],[20.122474438686194,40.420932080554714],[20.12243275305208,40.4209116947398]]]},"properties":{"Zk_Numer":1084,"Zk_Emer":"BALLABAN","Nr_Pas":"","Vol":0,"Faqe":0,"Pronaret":"","Kufizimet":"","Siperfaqet":27.8}},
{"type":"Feature","geometry":{"type":"Polygon","coordinates":[[[20.122224054443237,40.42121969855742],[20.122315641570413,40.42116261055657],[20.12234580294487,40.42119087473419],[20.122254215804976,40.421247962758656],[20.122224054443237,40.42121969855742]]]},"properties":{"Zk_Numer":1084,"Zk_Emer":"BALLABAN","Nr_Pas":"","Vol":0,"Faqe":0,"Pronaret":"","Kufizimet":"","Siperfaqet":40.6}},
{"type":"Feature","geometry":{"type":"Polygon","coordinates":[[[20.122769071707726,40.42000847867513],[20.122665569330454,40.42000858853106],[20.122665500870625,40.41997089578531],[20.122769003190133,40.419970785929536],[20.122769071707726,40.42000847867513]]]},"properties":{"Zk_Numer":1084,"Zk_Emer":"BALLABAN","Nr_Pas":"","Vol":0,"Faqe":0,"Pronaret":"","Kufizimet":"","Siperfaqet":36.8}},
{"type":"Feature","geometry":{"type":"Polygon","coordinates":[[[20.124426551666666,40.41377195416666],[20.1244440515,40.413751613333325],[20.124452281709903,40.413754957245615],[20.124475406333328,40.41372367633332],[20.124483680729533,40.413726892393825],[20.124498015666667,40.41370342883331],[20.124586211333337,40.413744584166665],[20.124513679166668,40.413839459],[20.12446455566667,40.41381608999999],[20.12447846888478,40.41379561971812],[20.124426551666666,40.41377195416666]]]},"properties":{"Zk_Numer":1084,"Zk_Emer":"BALLABAN","Nr_Pas":"","Vol":0,"Faqe":0,"Pronaret":"","Kufizimet":"","Siperfaqet":102.3}},
{"type":"Feature","geometry":{"type":"Polygon","coordinates":[[[20.124494822,40.41369659850001],[20.124557180666667,40.41361590716665],[20.124675087833342,40.41367373183335],[20.124617261666668,40.41375419266667],[20.124494822,40.41369659850001]]]},"properties":{"Zk_Numer":1084,"Zk_Emer":"BALLABAN","Nr_Pas":"","Vol":0,"Faqe":0,"Pronaret":"","Kufizimet":"","Siperfaqet":123.9}},
{"type":"Feature","geometry":{"type":"Polygon","coordinates":[[[20.1244649874132,40.41398245422286],[20.124487714207774,40.4139537041007],[20.124543479122554,40.413979458369475],[20.124520752343106,40.41400820850246],[20.1244649874132,40.41398245422286]]]},"properties":{"Zk_Numer":1084,"Zk_Emer":"BALLABAN","Nr_Pas":"","Vol":0,"Faqe":0,"Pronaret":"","Kufizimet":"","Siperfaqet":20.6}},
{"type":"Feature","geometry":{"type":"Polygon","coordinates":[[[20.12525609164707,40.413860109598986],[20.125274257850702,40.41383632964146],[20.125340651407363,40.413865962272645],[20.12532248521919,40.41388974224045],[20.12525609164707,40.413860109598986]]]},"properties":{"Zk_Numer":1084,"Zk_Emer":"BALLABAN","Nr_Pas":"","Vol":0,"Faqe":0,"Pronaret":"","Kufizimet":"","Siperfaqet":20}},
{"type":"Feature","geometry":{"type":"Polygon","coordinates":[[[20.12488809748769,40.41400436585763],[20.124832057683204,40.41397809080087],[20.124894093666665,40.41390078949999],[20.125009587852244,40.41395494051162],[20.124957408707903,40.414019959633684],[20.124897954250823,40.413992083622695],[20.12488809748769,40.41400436585763]]]},"properties":{"Zk_Numer":1084,"Zk_Emer":"BALLABAN","Nr_Pas":"","Vol":0,"Faqe":0,"Pronaret":"","Kufizimet":"","Siperfaqet":106.3}},
{"type":"Feature","geometry":{"type":"Polygon","coordinates":[[[20.124957227333333,40.41368603516664],[20.12488070296205,40.41365723969592],[20.124902378310626,40.413623585787256],[20.124978902652956,40.41365238124386],[20.124957227333333,40.41368603516664]]]},"properties":{"Zk_Numer":1084,"Zk_Emer":"BALLABAN","Nr_Pas":"","Vol":0,"Faqe":0,"Pronaret":"","Kufizimet":"","Siperfaqet":30.2}},
{"type":"Feature","geometry":{"type":"Polygon","coordinates":[[[20.12574777416667,40.414604454833324],[20.125574359032267,40.414524653911705],[20.1256129295,40.414475685499994],[20.125786344553955,40.414555486364556],[20.12574777416667,40.414604454833324]]]},"properties":{"Zk_Numer":1084,"Zk_Emer":"BALLABAN","Nr_Pas":"","Vol":0,"Faqe":0,"Pronaret":"","Kufizimet":"","Siperfaqet":109}},
{"type":"Feature","geometry":{"type":"Polygon","coordinates":[[[20.125867336407637,40.41417736242481],[20.125963141189903,40.41405000151407],[20.126060421481675,40.41409288491247],[20.125964397000004,40.414220148999995],[20.125867336407637,40.41417736242481]]]},"properties":{"Zk_Numer":1084,"Zk_Emer":"BALLABAN","Nr_Pas":"","Vol":0,"Faqe":0,"Pronaret":"","Kufizimet":"","Siperfaqet":155.3}},
{"type":"Feature","geometry":{"type":"Polygon","coordinates":[[[20.125867336407637,40.41417736242481],[20.125964397000004,40.414220148999995],[20.12589032914596,40.41431831293586],[20.12579326845914,40.41427552629936],[20.125867336407637,40.41417736242481]]]},"properties":{"Zk_Numer":1084,"Zk_Emer":"BALLABAN","Nr_Pas":"","Vol":0,"Faqe":0,"Pronaret":"","Kufizimet":"","Siperfaqet":119.7}},
{"type":"Feature","geometry":{"type":"Polygon","coordinates":[[[20.12549123891784,40.414487495065096],[20.125355843491196,40.41442267188054],[20.12545597474504,40.41430048418344],[20.12544129695404,40.41429345689426],[20.125475945666516,40.414251175813476],[20.125471652165242,40.4142491202128],[20.125574847537198,40.41412319274694],[20.12571044227023,40.414188111287935],[20.125608873161926,40.41431205456042],[20.12562764478653,40.41432104181422],[20.12549123891784,40.414487495065096]]]},"properties":{"Zk_Numer":1084,"Zk_Emer":"BALLABAN","Nr_Pas":"","Vol":0,"Faqe":0,"Pronaret":"","Kufizimet":"","Siperfaqet":524.9}},
{"type":"Feature","geometry":{"type":"Polygon","coordinates":[[[20.12634685617254,40.414889756967284],[20.126373654686,40.41485524331091],[20.126461598398926,40.41489513681823],[20.12643479991468,40.41492965049471],[20.12634685617254,40.414889756967284]]]},"properties":{"Zk_Numer":1084,"Zk_Emer":"BALLABAN","Nr_Pas":"","Vol":0,"Faqe":0,"Pronaret":"","Kufizimet":"","Siperfaqet":38.7}},
{"type":"Feature","geometry":{"type":"Polygon","coordinates":[[[20.12658880006577,40.4146583093975],[20.126501463691596,40.41476313482678],[20.126419972412446,40.41472346860826],[20.12650730886211,40.41461864323969],[20.126694638304528,40.414393800192634],[20.126776129346258,40.41443346622019],[20.12658880006577,40.4146583093975]]]},"properties":{"Zk_Numer":1084,"Zk_Emer":"BALLABAN","Nr_Pas":"","Vol":0,"Faqe":0,"Pronaret":"","Kufizimet":"","Siperfaqet":355.9}},
{"type":"Feature","geometry":{"type":"Polygon","coordinates":[[[20.12887844447599,40.416127617706465],[20.128778474334588,40.416110308748564],[20.128786914217972,40.41608183156281],[20.128886884319353,40.41609914051358],[20.12887844447599,40.416127617706465]]]},"properties":{"Zk_Numer":1084,"Zk_Emer":"BALLABAN","Nr_Pas":"","Vol":0,"Faqe":0,"Pronaret":"","Kufizimet":"","Siperfaqet":28.2}},
{"type":"Feature","geometry":{"type":"Polygon","coordinates":[[[20.12368615927171,40.414799890846396],[20.123591793000003,40.41473415483333],[20.123706960653568,40.414637706454066],[20.123798335403084,40.41470145079692],[20.12380899675291,40.414708548542876],[20.123767209585825,40.41474521888011],[20.123777870939303,40.414752316628885],[20.123756977339458,40.41477065179368],[20.123735654633332,40.41475645629132],[20.12368615927171,40.414799890846396]]]},"properties":{"Zk_Numer":1084,"Zk_Emer":"BALLABAN","Nr_Pas":"","Vol":0,"Faqe":0,"Pronaret":"","Kufizimet":"","Siperfaqet":167.6}},
{"type":"Feature","geometry":{"type":"Polygon","coordinates":[[[20.1246060878702,40.4142450425351],[20.124679667737556,40.414261272956225],[20.124664967125494,40.41430020896225],[20.124591387219212,40.414283978531934],[20.1246060878702,40.4142450425351]]]},"properties":{"Zk_Numer":1084,"Zk_Emer":"BALLABAN","Nr_Pas":"","Vol":0,"Faqe":0,"Pronaret":"","Kufizimet":"","Siperfaqet":29.3}},
{"type":"Feature","geometry":{"type":"Polygon","coordinates":[[[20.13160598416673,40.41786354049994],[20.13180647992885,40.4179003369074],[20.13178997371669,40.41795287666952],[20.131732689148976,40.417942363437774],[20.13172099720344,40.41797957909524],[20.131577785787428,40.417953295877254],[20.13160598416673,40.41786354049994]]]},"properties":{"Zk_Numer":1084,"Zk_Emer":"BALLABAN","Nr_Pas":"","Vol":0,"Faqe":0,"Pronaret":"","Kufizimet":"","Siperfaqet":158.1}},
{"type":"Feature","geometry":{"type":"Polygon","coordinates":[[[20.131814127285352,40.417978081328435],[20.131835456099203,40.417916255097],[20.131955084561614,40.417940363337564],[20.131933755849754,40.418002189590666],[20.131814127285352,40.417978081328435]]]},"properties":{"Zk_Numer":1084,"Zk_Emer":"BALLABAN","Nr_Pas":"","Vol":0,"Faqe":0,"Pronaret":"","Kufizimet":"","Siperfaqet":74.5}},
{"type":"Feature","geometry":{"type":"Polygon","coordinates":[[[20.134350172384856,40.41752345824056],[20.13444788910744,40.41749197766379],[20.13447030354116,40.41753264346969],[20.13449744926083,40.41752390281443],[20.134511172405073,40.4175488002411],[20.134484026677185,40.41755754089954],[20.134518824198725,40.417620604010445],[20.134421107323437,40.417652084646704],[20.134350172384856,40.41752345824056]]]},"properties":{"Zk_Numer":1084,"Zk_Emer":"BALLABAN","Nr_Pas":"","Vol":0,"Faqe":0,"Pronaret":"","Kufizimet":"","Siperfaqet":147}},
{"type":"Feature","geometry":{"type":"Polygon","coordinates":[[[20.134222504427665,40.41751881117972],[20.13422279076195,40.417662899540346],[20.134157986946146,40.41766297475177],[20.134157700750105,40.41751888639076],[20.134222504427665,40.41751881117972]]]},"properties":{"Zk_Numer":1084,"Zk_Emer":"BALLABAN","Nr_Pas":"","Vol":0,"Faqe":0,"Pronaret":"","Kufizimet":"","Siperfaqet":88}},
{"type":"Feature","geometry":{"type":"Polygon","coordinates":[[[20.126311506245084,40.41555261584111],[20.12624798405983,40.41566896968553],[20.126204490140832,40.41565509757999],[20.126268012388135,40.41553874375901],[20.126311506245084,40.41555261584111]]]},"properties":{"Zk_Numer":1084,"Zk_Emer":"BALLABAN","Nr_Pas":"","Vol":0,"Faqe":0,"Pronaret":"","Kufizimet":"","Siperfaqet":56}},
{"type":"Feature","geometry":{"type":"Polygon","coordinates":[[[20.124684511994257,40.413969921862716],[20.12476488143658,40.41401090600072],[20.124708779863056,40.414075182374525],[20.12466957594373,40.41405519099942],[20.124623805335787,40.41410763089685],[20.124543437336328,40.41406664850752],[20.124589207971265,40.4140142086375],[20.12462841250444,40.414034199282305],[20.124684511994257,40.413969921862716]]]},"properties":{"Zk_Numer":1084,"Zk_Emer":"BALLABAN","Nr_Pas":"","Vol":0,"Faqe":0,"Pronaret":"","Kufizimet":"","Siperfaqet":127.8}},
{"type":"Feature","geometry":{"type":"Polygon","coordinates":[[[20.122898279882534,40.42026694592304],[20.12288664009,40.42030137829618],[20.12277916787163,40.42028015642845],[20.12279080771535,40.420245724065914],[20.122898279882534,40.42026694592304]]]},"properties":{"Zk_Numer":1084,"Zk_Emer":"BALLABAN","Nr_Pas":"","Vol":0,"Faqe":0,"Pronaret":"","Kufizimet":"","Siperfaqet":37.2}},
{"type":"Feature","geometry":{"type":"Polygon","coordinates":[[[20.143632547349007,40.41860206045469],[20.143618074335574,40.4185625760288],[20.143739309216137,40.41853661678531],[20.143753782294787,40.418576101196116],[20.143632547349007,40.41860206045469]]]},"properties":{"Zk_Numer":1084,"Zk_Emer":"BALLABAN","Nr_Pas":"","Vol":0,"Faqe":0,"Pronaret":"","Kufizimet":"","Siperfaqet":48.7}},
{"type":"Feature","geometry":{"type":"Polygon","coordinates":[[[20.14438824108919,40.41826773256584],[20.144244548907455,40.418327336368165],[20.1442161615862,40.418287358620695],[20.144363527061138,40.41822623113578],[20.14438824108919,40.41826773256584]]]},"properties":{"Zk_Numer":1084,"Zk_Emer":"BALLABAN","Nr_Pas":"","Vol":0,"Faqe":0,"Pronaret":"","Kufizimet":"","Siperfaqet":71}},
{"type":"Feature","geometry":{"type":"Polygon","coordinates":[[[20.14421628076572,40.41837003842667],[20.144057248997367,40.41843460854025],[20.144024119275393,40.418386943096564],[20.144183150963453,40.41832237302817],[20.14421628076572,40.41837003842667]]]},"properties":{"Zk_Numer":1084,"Zk_Emer":"BALLABAN","Nr_Pas":"","Vol":0,"Faqe":0,"Pronaret":"","Kufizimet":"","Siperfaqet":91.6}},
{"type":"Feature","geometry":{"type":"Polygon","coordinates":[[[20.124043712945543,40.41394776736513],[20.12399999044616,40.41392328867084],[20.12402157269845,40.41390076682022],[20.12400826585916,40.41389331678196],[20.124023234188414,40.41387769678808],[20.12403654102627,40.413885146824626],[20.12404106633332,40.4138804245],[20.124084788819765,40.41390490317895],[20.124043712945543,40.41394776736513]]]},"properties":{"Zk_Numer":1084,"Zk_Emer":"BALLABAN","Nr_Pas":"","Vol":0,"Faqe":0,"Pronaret":"","Kufizimet":"","Siperfaqet":30.1}},
{"type":"Feature","geometry":{"type":"Polygon","coordinates":[[[20.123625118832507,40.41404214100096],[20.12366998407603,40.41399032253096],[20.123753498183437,40.41403256741561],[20.12378340828326,40.41399802173852],[20.12383253426336,40.41402287162975],[20.12384228754554,40.41401160672926],[20.123930714392404,40.414056336473095],[20.123836432608996,40.41416523054712],[20.123792219130692,40.41414286564816],[20.123801972436883,40.414131600751254],[20.123625118832507,40.41404214100096]]]},"properties":{"Zk_Numer":1084,"Zk_Emer":"BALLABAN","Nr_Pas":"","Vol":0,"Faqe":0,"Pronaret":"","Kufizimet":"","Siperfaqet":239.9}},
{"type":"Feature","geometry":{"type":"Polygon","coordinates":[[[20.123485910484764,40.4143555216058],[20.123354887329224,40.414471315828486],[20.123262208860453,40.41441004901855],[20.123281477005698,40.41439302048107],[20.123297517496855,40.41440362435476],[20.12340927254173,40.41430485875799],[20.123485910484764,40.4143555216058]]]},"properties":{"Zk_Numer":1084,"Zk_Emer":"BALLABAN","Nr_Pas":"","Vol":0,"Faqe":0,"Pronaret":"","Kufizimet":"","Siperfaqet":150.7}},
{"type":"Feature","geometry":{"type":"Polygon","coordinates":[[[20.12425357495033,40.41365320673727],[20.12416219298255,40.41360634567622],[20.1241979667277,40.41356558819838],[20.124231036407735,40.413582546482154],[20.12426667881921,40.41354193855171],[20.12432499105713,40.41357184128333],[20.12425357495033,40.41365320673727]]]},"properties":{"Zk_Numer":1084,"Zk_Emer":"BALLABAN","Nr_Pas":"","Vol":0,"Faqe":0,"Pronaret":"","Kufizimet":"","Siperfaqet":83.3}},
{"type":"Feature","geometry":{"type":"Polygon","coordinates":[[[20.12417809163606,40.41378678313571],[20.124100653978736,40.41374682702271],[20.124150357232136,40.41369054798168],[20.12422779485417,40.413730504061846],[20.12417809163606,40.41378678313571]]]},"properties":{"Zk_Numer":1084,"Zk_Emer":"BALLABAN","Nr_Pas":"","Vol":0,"Faqe":0,"Pronaret":"","Kufizimet":"","Siperfaqet":59.8}},
{"type":"Feature","geometry":{"type":"Polygon","coordinates":[[[20.12412635286596,40.41384101808688],[20.124089645991784,40.41381842620111],[20.124141370253263,40.41376932620687],[20.124178077117975,40.4137919180764],[20.12412635286596,40.41384101808688]]]},"properties":{"Zk_Numer":1084,"Zk_Emer":"BALLABAN","Nr_Pas":"","Vol":0,"Faqe":0,"Pronaret":"","Kufizimet":"","Siperfaqet":28}},
{"type":"Feature","geometry":{"type":"Polygon","coordinates":[[[20.133457747278825,40.416524496312356],[20.133426021584018,40.41651258437108],[20.13344160648478,40.41648833560794],[20.13347333217092,40.416500247544995],[20.133457747278825,40.416524496312356]]]},"properties":{"Zk_Numer":1084,"Zk_Emer":"BALLABAN","Nr_Pas":"","Vol":0,"Faqe":0,"Pronaret":"","Kufizimet":"","Siperfaqet":9}},
{"type":"Feature","geometry":{"type":"Polygon","coordinates":[[[20.124374659863452,40.413864159653436],[20.124413782711475,40.41381915571531],[20.12451583834432,40.41387098890178],[20.124476715534595,40.413915992874074],[20.124374659863452,40.413864159653436]]]},"properties":{"Zk_Numer":1084,"Zk_Emer":"BALLABAN","Nr_Pas":"","Vol":0,"Faqe":0,"Pronaret":"","Kufizimet":"","Siperfaqet":62.4}},
{"type":"Feature","geometry":{"type":"Polygon","coordinates":[[[20.126670482390956,40.41504651334568],[20.126667214144057,40.415010577913705],[20.126708352092912,40.4150083921037],[20.12671162036158,40.4150443275345],[20.126670482390956,40.41504651334568]]]},"properties":{"Zk_Numer":1084,"Zk_Emer":"BALLABAN","Nr_Pas":"","Vol":0,"Faqe":0,"Pronaret":"","Kufizimet":"","Siperfaqet":14}},
{"type":"Feature","geometry":{"type":"Polygon","coordinates":[[[20.13671686634708,40.418521575097024],[20.136688381166667,40.418422523],[20.136790281036596,40.4184054046586],[20.13681876635909,40.41850445673059],[20.13671686634708,40.418521575097024]]]},"properties":{"Zk_Numer":1084,"Zk_Emer":"BALLABAN","Nr_Pas":"","Vol":0,"Faqe":0,"Pronaret":"","Kufizimet":"","Siperfaqet":99.7}},
{"type":"Feature","geometry":{"type":"Polygon","coordinates":[[[20.124815932315848,40.41351363520979],[20.124770912548325,40.41349152188823],[20.12479850757213,40.413458699037754],[20.124776757521254,40.413448015590895],[20.124790227460306,40.413431993788684],[20.124856997256455,40.41346479053885],[20.124815932315848,40.41351363520979]]]},"properties":{"Zk_Numer":1084,"Zk_Emer":"BALLABAN","Nr_Pas":"","Vol":0,"Faqe":0,"Pronaret":"","Kufizimet":"","Siperfaqet":33.9}},
{"type":"Feature","geometry":{"type":"Polygon","coordinates":[[[20.124196751176513,40.413703262351504],[20.124147092849242,40.413675835661124],[20.124187115052514,40.4136334992938],[20.12423677336482,40.4136609259672],[20.124196751176513,40.413703262351504]]]},"properties":{"Zk_Numer":1084,"Zk_Emer":"BALLABAN","Nr_Pas":"","Vol":0,"Faqe":0,"Pronaret":"","Kufizimet":"","Siperfaqet":30.2}},
{"type":"Feature","geometry":{"type":"Polygon","coordinates":[[[20.126665558318695,40.41483750338143],[20.126815187288262,40.41489863257539],[20.126755205309703,40.41498440866907],[20.126605576204053,40.41492327939862],[20.126665558318695,40.41483750338143]]]},"properties":{"Zk_Numer":1084,"Zk_Emer":"BALLABAN","Nr_Pas":"","Vol":0,"Faqe":0,"Pronaret":"","Kufizimet":"","Siperfaqet":155.5}},
{"type":"Feature","geometry":{"type":"Polygon","coordinates":[[[20.12620456659637,40.41469548316545],[20.12626687675019,40.41461693811278],[20.126337399002058,40.414649622980875],[20.126275088900297,40.414728168071015],[20.12620456659637,40.41469548316545]]]},"properties":{"Zk_Numer":1084,"Zk_Emer":"BALLABAN","Nr_Pas":"","Vol":0,"Faqe":0,"Pronaret":"","Kufizimet":"","Siperfaqet":71.4}},
{"type":"Feature","geometry":{"type":"Polygon","coordinates":[[[20.12690521505694,40.416235110952854],[20.126861815411026,40.41620103098348],[20.12689499182703,40.41617634914858],[20.126938391473765,40.416210429105625],[20.12690521505694,40.416235110952854]]]},"properties":{"Zk_Numer":1084,"Zk_Emer":"BALLABAN","Nr_Pas":"","Vol":0,"Faqe":0,"Pronaret":"","Kufizimet":"","Siperfaqet":20.8}},
{"type":"Feature","geometry":{"type":"Polygon","coordinates":[[[20.126747963563734,40.415924621532696],[20.126686484764914,40.41586984070935],[20.126725783369604,40.4158440751771],[20.126787262176734,40.415898855979805],[20.126747963563734,40.415924621532696]]]},"properties":{"Zk_Numer":1084,"Zk_Emer":"BALLABAN","Nr_Pas":"","Vol":0,"Faqe":0,"Pronaret":"","Kufizimet":"","Siperfaqet":35.2}},
{"type":"Feature","geometry":{"type":"Polygon","coordinates":[[[20.126873077974196,40.414297493461135],[20.126943704657013,40.41420670335419],[20.127023870403317,40.41424313718824],[20.126953243790403,40.41433392734345],[20.126873077974196,40.414297493461135]]]},"properties":{"Zk_Numer":1084,"Zk_Emer":"BALLABAN","Nr_Pas":"","Vol":0,"Faqe":0,"Pronaret":"","Kufizimet":"","Siperfaqet":92.8}},
{"type":"Feature","geometry":{"type":"Polygon","coordinates":[[[20.125965690292407,40.41508212858425],[20.125986554662326,40.41508832912598],[20.125955813448304,40.415148761819154],[20.125793620402565,40.41510056062394],[20.125824361739983,40.41504012797321],[20.12584742233097,40.415046981231605],[20.125965690292407,40.41508212858425]]]},"properties":{"Zk_Numer":1084,"Zk_Emer":"BALLABAN","Nr_Pas":"","Vol":0,"Faqe":0,"Pronaret":"","Kufizimet":"","Siperfaqet":106.3}},
{"type":"Feature","geometry":{"type":"Polygon","coordinates":[[[20.12602939182454,40.414946463047606],[20.126034003940106,40.41494783369149],[20.12601265595432,40.4149898008501],[20.125965690292407,40.41508212858425],[20.12584742233097,40.415046981231605],[20.12591573617861,40.41491268640759],[20.12602939182454,40.414946463047606]]]},"properties":{"Zk_Numer":1084,"Zk_Emer":"BALLABAN","Nr_Pas":"","Vol":0,"Faqe":0,"Pronaret":"","Kufizimet":"","Siperfaqet":172.3}},
{"type":"Feature","geometry":{"type":"Polygon","coordinates":[[[20.12601265595432,40.4149898008501],[20.126034003940106,40.41494783369149],[20.12602939182454,40.414946463047606],[20.126036351262986,40.41493278175327],[20.126075005183015,40.41494426904647],[20.126046697783426,40.414999917507906],[20.12601265595432,40.4149898008501]]]},"properties":{"Zk_Numer":1084,"Zk_Emer":"BALLABAN","Nr_Pas":"","Vol":0,"Faqe":0,"Pronaret":"","Kufizimet":"","Siperfaqet":21.2}},
{"type":"Feature","geometry":{"type":"Polygon","coordinates":[[[20.12595649163493,40.41719169785989],[20.126008724496657,40.41716803848556],[20.126071423235484,40.417248900931014],[20.126019190333334,40.417272560333366],[20.12595649163493,40.41719169785989]]]},"properties":{"Zk_Numer":1084,"Zk_Emer":"BALLABAN","Nr_Pas":"","Vol":0,"Faqe":0,"Pronaret":"","Kufizimet":"","Siperfaqet":53.8}},
{"type":"Feature","geometry":{"type":"Polygon","coordinates":[[[20.13363985832448,40.41634004897544],[20.13357783005754,40.416316861643836],[20.133567140242576,40.416333567473096],[20.133527328541906,40.416318685084576],[20.13354018493396,40.41629859338925],[20.133510905983524,40.4162876483355],[20.13353440141939,40.416250930159585],[20.133665520271663,40.4162999449017],[20.13363985832448,40.41634004897544]]]},"properties":{"Zk_Numer":1084,"Zk_Emer":"BALLABAN","Nr_Pas":"","Vol":0,"Faqe":0,"Pronaret":"","Kufizimet":"","Siperfaqet":68}},
{"type":"Feature","geometry":{"type":"Polygon","coordinates":[[[20.122210295449488,40.42085326839593],[20.122349931577492,40.42088908094031],[20.122301199136203,40.42100007030308],[20.122161562804262,40.420964257700845],[20.122210295449488,40.42085326839593]]]},"properties":{"Zk_Numer":1084,"Zk_Emer":"BALLABAN","Nr_Pas":"","Vol":0,"Faqe":0,"Pronaret":"","Kufizimet":"","Siperfaqet":162.5}}
]}