{"type":"FeatureCollection", "features": [
{"type":"Feature","geometry":{"type":"Point","coordinates":[19.669442390263118,40.14397298577067]},"properties":{"NR":2,"EMER":"ANASTAS PETRO BALA","NR_TEL":"692301418","ID":"G40503142V","KOORD_RAW":"N 40*14'39.76\"  E 19*66'94.47\"","LAT":40.144,"LON":19.6694,"SHENIME":"MUNGO FIRMA E DVASHK \nFIRMA TE GENPLANI"}},
{"type":"Feature","geometry":{"type":"Point","coordinates":[19.672989390091065,40.144336985834244]},"properties":{"NR":3,"EMER":"MELPOMENI UDHERA","NR_TEL":"SKA","ID":"F35622066N","KOORD_RAW":"N 40*14'43.40\"  E 19*67'29.94\"","LAT":40.1443,"LON":19.673,"SHENIME":"MUNGO FIRMA E DVASHK \nFIRMA TE GENPLANI\n"}},
{"type":"Feature","geometry":{"type":"Point","coordinates":[19.67141439019218,40.143365985806504]},"properties":{"NR":4,"EMER":"LEONORA TASO ANDONI","NR_TEL":"SKA","ID":"F65323079N","KOORD_RAW":"N 40*14'33.69\"  E 19*67'14.19\"","LAT":40.1434,"LON":19.6714,"SHENIME":"MUNGO FIRMA E DVASHK \nFIRMA TE GENPLANI\n"}},
{"type":"Feature","geometry":{"type":"Point","coordinates":[19.670499390262435,40.14242498579068]},"properties":{"NR":5,"EMER":"KANE DHAMO BALA","NR_TEL":"692816814","ID":"F15212022U","KOORD_RAW":"N 40*14'24.28\"  E 19*67'05.04\"","LAT":40.1424,"LON":19.6705,"SHENIME":"MUNGO FIRMA E DVASHK \nFIRMA TE GENPLANI\n"}},
{"type":"Feature","geometry":{"type":"Point","coordinates":[19.672032390151617,40.14377598581738]},"properties":{"NR":6,"EMER":"KANE DHAMO BALA","NR_TEL":"692816814","ID":"F15212022U","KOORD_RAW":"N 40*14'37.79\"  E 19*67'20.37\"","LAT":40.1438,"LON":19.672,"SHENIME":"MUNGO FIRMA E DVASHK \nFIRMA TE GENPLANI\n"}},
{"type":"Feature","geometry":{"type":"Point","coordinates":[19.67049839025347,40.14271998579045]},"properties":{"NR":7,"EMER":"KANE DHAMO BALA","NR_TEL":"692816814","ID":"F15212022U","KOORD_RAW":"N 40*14'27.23\"  E 19*67'05.03\"","LAT":40.1427,"LON":19.6705,"SHENIME":"MUNGO FIRMA E DVASHK \nFIRMA TE GENPLANI\n"}},
{"type":"Feature","geometry":{"type":"Point","coordinates":[19.672514390129567,40.14378198582603]},"properties":{"NR":9,"EMER":"ELVANE LLUKE CULE \nJOLANDA MITI KOTE","NR_TEL":"694080205","ID":"H35502060S\nE95402127N","KOORD_RAW":"N 40*14'37.85\"  E 19*67'25.19\"","LAT":40.1438,"LON":19.6725,"SHENIME":"MUNGO FIRMA E DVASHK \nFIRMA TE GENPLANI\n"}},
{"type":"Feature","geometry":{"type":"Point","coordinates":[19.673398390099507,40.14345298584215]},"properties":{"NR":10,"EMER":"JOLANDA MITI KOTE","NR_TEL":"696265932","ID":"E95402127N","KOORD_RAW":"N 40*14'34.56\"  E 19*67'34.03\"","LAT":40.1435,"LON":19.6734,"SHENIME":"MUNGO FIRMA E DVASHK \nFIRMA TE GENPLANI\n"}},
{"type":"Feature","geometry":{"type":"Point","coordinates":[19.670993390202643,40.14364898579876]},"properties":{"NR":11,"EMER":"PANDELI DHISEO GJOMEMO","NR_TEL":"693173515","ID":"G00905194V","KOORD_RAW":"N 40*14'36.52\"  E 19*67'09.98\"","LAT":40.1437,"LON":19.671,"SHENIME":"MUNGO FIRMA E DVASHK \nFIRMA TE GENPLANI\n"}},
{"type":"Feature","geometry":{"type":"Point","coordinates":[19.671587390153647,40.144370985809]},"properties":{"NR":12,"EMER":"THOMA LATI","NR_TEL":"306934335776","ID":"G20914022U","KOORD_RAW":"N 40*14'43.74\"  E 19*67'15.92\"","LAT":40.1444,"LON":19.6716,"SHENIME":"MUNGO FIRMA E DVASHK \nFIRMA TE GENPLANI\n"}},
{"type":"Feature","geometry":{"type":"Point","coordinates":[19.67103439016984,40.144661985798855]},"properties":{"NR":13,"EMER":"THOMA LATI","NR_TEL":"306934335776","ID":"G20914022U","KOORD_RAW":"N 40*14'46.65\"  E 19*67'10.39\"","LAT":40.1447,"LON":19.671,"SHENIME":"MUNGO FIRMA E DVASHK \nFIRMA TE GENPLANI\n"}},
{"type":"Feature","geometry":{"type":"Point","coordinates":[19.671725390156357,40.14407698581166]},"properties":{"NR":15,"EMER":"DHESPINA BOMBAJ","NR_TEL":"SKA","ID":"E95922010G","KOORD_RAW":"N 40*14'40.80\"  E 19*67'17.30\"","LAT":40.1441,"LON":19.6717,"SHENIME":"MUNGO FIRMA E DVASHK \nFIRMA TE GENPLANI\n"}},
{"type":"Feature","geometry":{"type":"Point","coordinates":[19.670115390281843,40.142359985783806]},"properties":{"NR":16,"EMER":"ILIA THOMA BIFSHA","NR_TEL":"696280345","ID":"G10720070Q","KOORD_RAW":"N 40*14'23.63\"  E 19*67'01.20\"","LAT":40.1424,"LON":19.6701,"SHENIME":"MUNGO FIRMA E DVASHK \nFIRMA TE GENPLANI\n"}},
{"type":"Feature","geometry":{"type":"Point","coordinates":[19.67802838992793,40.14219298592626]},"properties":{"NR":17,"EMER":"ILIA THOMA BIFSHA","NR_TEL":"696280345","ID":"G10720070Q","KOORD_RAW":"N 40*14'21.96\"  E 19*67'80.33\"","LAT":40.1422,"LON":19.678,"SHENIME":"MUNGO FIRMA E DVASHK \nFIRMA TE GENPLANI\n"}},
{"type":"Feature","geometry":{"type":"Point","coordinates":[19.672149390144824,40.143824985819464]},"properties":{"NR":18,"EMER":"QIRJAKULLA KLEANTHI NIKOLLARI","NR_TEL":"SKA","ID":"G55122070W","KOORD_RAW":"N 40*14'38.28\"  E 19*67'21.54\"","LAT":40.1438,"LON":19.6722,"SHENIME":"MUNGO FIRMA E DVASHK \nFIRMA TE GENPLANI\n"}},
{"type":"Feature","geometry":{"type":"Point","coordinates":[19.66399339060058,40.141017985674566]},"properties":{"NR":19,"EMER":"NEJADA TASHO NALLBANI","NR_TEL":"SKA","ID":"F06009058F","KOORD_RAW":"N 40*14'10.21\"  E 19*66'39.98\"","LAT":40.141,"LON":19.664,"SHENIME":"MUNGO FIRMA E DVASHK \nFIRMA TE GENPLANI\n"}},
{"type":"Feature","geometry":{"type":"Point","coordinates":[19.673480390138675,40.14204898584454]},"properties":{"NR":20,"EMER":"DRITA DHOMA GJIDEDE","NR_TEL":"SKA","ID":"G45308284I","KOORD_RAW":"N 40*14'20.52\"  E 19*67'34.85\"","LAT":40.1421,"LON":19.6735,"SHENIME":"MUNGO FIRMA E DVASHK \nFIRMA TE GENPLANI\n"}},
{"type":"Feature","geometry":{"type":"Point","coordinates":[19.67393039008649,40.143088985851975]},"properties":{"NR":21,"EMER":"JAKUP NAXHAKU","NR_TEL":"682061077\n682021670","ID":"G70929028K","KOORD_RAW":"N 40*14'30.92\"  E 19*67'39.35\"","LAT":40.1431,"LON":19.6739,"SHENIME":"MUNGO FIRMA E DVASHK \nFIRMA TE GENPLANI\n"}},
{"type":"Feature","geometry":{"type":"Point","coordinates":[19.66768539040507,40.14193498574038]},"properties":{"NR":24,"EMER":"EGLANTINA LEFTER BAJRAMAJ","NR_TEL":"682272744","ID":"E85830070A","KOORD_RAW":"N 40*14'19.38\"  E 19*66'76.90\"","LAT":40.1419,"LON":19.6677,"SHENIME":"MUNGO FIRMA E DVASHK \nFIRMA TE GENPLANI\n"}}
]}