{"type":"FeatureCollection", "features": [
{"type":"Feature","geometry":{"type":"Point","coordinates":[19.67402067336954,40.1425386367106]},"properties":{"ET_ID":7129,"FID_1":7138,"shenime":"","ET_X":472221.3085,"ET_Y":4445406.89591,"ET_Z":0,"ET_M":0}},
{"type":"Feature","geometry":{"type":"Point","coordinates":[19.672870516733813,40.142941700507265]},"properties":{"ET_ID":7130,"FID_1":7139,"shenime":"","ET_X":472123.46117,"ET_Y":4445452.01132,"ET_Z":0,"ET_M":0}},
{"type":"Feature","geometry":{"type":"Point","coordinates":[19.67191270178858,40.14225189920024]},"properties":{"ET_ID":7131,"FID_1":7140,"shenime":"","ET_X":472041.55748,"ET_Y":4445375.71826,"ET_Z":0,"ET_M":0}},
{"type":"Feature","geometry":{"type":"Point","coordinates":[19.67203692879393,40.14216123208843]},"properties":{"ET_ID":7132,"FID_1":7141,"shenime":"","ET_X":472052.10653,"ET_Y":4445365.61172,"ET_Z":0,"ET_M":0}},
{"type":"Feature","geometry":{"type":"Point","coordinates":[19.67327659220147,40.143561197557815]},"properties":{"ET_ID":7135,"FID_1":7144,"shenime":"","ET_X":472158.3181,"ET_Y":4445520.67155,"ET_Z":0,"ET_M":0}},
{"type":"Feature","geometry":{"type":"Point","coordinates":[19.671956205007668,40.143732306545616]},"properties":{"ET_ID":7140,"FID_1":7149,"shenime":"","ET_X":472045.87144,"ET_Y":4445540.08559,"ET_Z":0,"ET_M":0}},
{"type":"Feature","geometry":{"type":"Point","coordinates":[19.67245798164223,40.143527200001465]},"properties":{"ET_ID":7142,"FID_1":7151,"shenime":"","ET_X":472088.54629,"ET_Y":4445517.15332,"ET_Z":0,"ET_M":0}},
{"type":"Feature","geometry":{"type":"Point","coordinates":[19.670872827363773,40.141841387985714]},"properties":{"ET_ID":7162,"FID_1":7171,"shenime":"","ET_X":471952.77407,"ET_Y":4445330.4637,"ET_Z":0,"ET_M":0}},
{"type":"Feature","geometry":{"type":"Point","coordinates":[19.67080136428097,40.14182036899449]},"properties":{"ET_ID":7163,"FID_1":7172,"shenime":"","ET_X":471946.67555,"ET_Y":4445328.15236,"ET_Z":0,"ET_M":0}},
{"type":"Feature","geometry":{"type":"Point","coordinates":[19.67056706947367,40.14239299619645]},"properties":{"ET_ID":7165,"FID_1":7174,"shenime":"","ET_X":471926.94529,"ET_Y":4445391.80954,"ET_Z":0,"ET_M":0}},
{"type":"Feature","geometry":{"type":"Point","coordinates":[19.670044303344387,40.142149568772105]},"properties":{"ET_ID":7168,"FID_1":7177,"shenime":"","ET_X":471882.29666,"ET_Y":4445364.94518,"ET_Z":0,"ET_M":0}},
{"type":"Feature","geometry":{"type":"Point","coordinates":[19.669983937190718,40.14202190258696]},"properties":{"ET_ID":7169,"FID_1":7178,"shenime":"","ET_X":471877.09982,"ET_Y":4445350.78853,"ET_Z":0,"ET_M":0}},
{"type":"Feature","geometry":{"type":"Point","coordinates":[19.67063314283064,40.14283436490816]},"properties":{"ET_ID":7170,"FID_1":7179,"shenime":"","ET_X":471932.75746,"ET_Y":4445440.79723,"ET_Z":0,"ET_M":0}},
{"type":"Feature","geometry":{"type":"Point","coordinates":[19.669566386715495,40.143355764019034]},"properties":{"ET_ID":7171,"FID_1":7180,"shenime":"","ET_X":471842.06813,"ET_Y":4445499.02963,"ET_Z":0,"ET_M":0}},
{"type":"Feature","geometry":{"type":"Point","coordinates":[19.669383772407564,40.143476580465524]},"properties":{"ET_ID":7175,"FID_1":7184,"shenime":"","ET_X":471826.55651,"ET_Y":4445512.50269,"ET_Z":0,"ET_M":0}},
{"type":"Feature","geometry":{"type":"Point","coordinates":[19.67047891492465,40.14398879567022]},"properties":{"ET_ID":7176,"FID_1":7185,"shenime":"","ET_X":471920.09009,"ET_Y":4445569.03129,"ET_Z":0,"ET_M":0}},
{"type":"Feature","geometry":{"type":"Point","coordinates":[19.671474661620966,40.14380565120366]},"properties":{"ET_ID":7179,"FID_1":7188,"shenime":"","ET_X":472004.86693,"ET_Y":4445548.3812,"ET_Z":0,"ET_M":0}},
{"type":"Feature","geometry":{"type":"Point","coordinates":[19.671204173220026,40.14360215431178]},"properties":{"ET_ID":7181,"FID_1":7190,"shenime":"","ET_X":471981.73375,"ET_Y":4445525.87061,"ET_Z":0,"ET_M":0}},
{"type":"Feature","geometry":{"type":"Point","coordinates":[19.670080160862376,40.14477875963336]},"properties":{"ET_ID":7185,"FID_1":7194,"shenime":"","ET_X":471886.43611,"ET_Y":4445656.87316,"ET_Z":0,"ET_M":0}},
{"type":"Feature","geometry":{"type":"Point","coordinates":[19.670331770953055,40.14482293707783]},"properties":{"ET_ID":7186,"FID_1":7195,"shenime":"","ET_X":471907.89488,"ET_Y":4445661.69896,"ET_Z":0,"ET_M":0}},
{"type":"Feature","geometry":{"type":"Point","coordinates":[19.67329790925786,40.14447026472134]},"properties":{"ET_ID":7188,"FID_1":7197,"shenime":"","ET_X":472160.50571,"ET_Y":4445621.60561,"ET_Z":0,"ET_M":0}},
{"type":"Feature","geometry":{"type":"Point","coordinates":[19.67217127603066,40.14410662752294]},"properties":{"ET_ID":7190,"FID_1":7199,"shenime":"","ET_X":472064.35199,"ET_Y":4445581.58171,"ET_Z":0,"ET_M":0}},
{"type":"Feature","geometry":{"type":"Point","coordinates":[19.672165025450084,40.14400615906097]},"properties":{"ET_ID":7191,"FID_1":7200,"shenime":"","ET_X":472063.7782,"ET_Y":4445570.42789,"ET_Z":0,"ET_M":0}},
{"type":"Feature","geometry":{"type":"Point","coordinates":[19.671823302231015,40.143917140967616]},"properties":{"ET_ID":7192,"FID_1":7201,"shenime":"","ET_X":472034.62195,"ET_Y":4445560.651,"ET_Z":0,"ET_M":0}},
{"type":"Feature","geometry":{"type":"Point","coordinates":[19.671294888292493,40.144819459257214]},"properties":{"ET_ID":7193,"FID_1":7202,"shenime":"","ET_X":471989.96398,"ET_Y":4445661.00878,"ET_Z":0,"ET_M":0}},
{"type":"Feature","geometry":{"type":"Point","coordinates":[19.67280513556103,40.14417417785976]},"properties":{"ET_ID":7274,"FID_1":7284,"shenime":"","ET_X":472118.39352,"ET_Y":4445588.88329,"ET_Z":0,"ET_M":0}}
]}