{"type":"FeatureCollection", "features": [
{"type":"Feature","geometry":{"type":"Polygon","coordinates":[[[19.671680296393514,40.143632871477664],[19.671679918284003,40.14363402824191],[19.671678865055103,40.14363725042327],[19.671692239006916,40.14364033544449],[19.67171683992629,40.143646010228984],[19.671748426496357,40.14365329641015],[19.671748335468312,40.14365356340725],[19.671746849639682,40.14365792153533],[19.67175156818088,40.143659009976346],[19.67176448687027,40.143661989970646],[19.671765474804516,40.14366221786046],[19.67178853025134,40.14366753612769],[19.671788597883094,40.143667551728505],[19.671796307794033,40.14366933019495],[19.671807193161218,40.14367184115161],[19.6718089764568,40.14367225250905],[19.67178984254968,40.14372110615935],[19.671777173878578,40.143718183843085],[19.6717740640948,40.14371746650071],[19.67177073369859,40.14372596982255],[19.671766737325502,40.143725047968005],[19.671766374114963,40.14372580706656],[19.67176282843663,40.14373525810627],[19.671696210179537,40.14371818884905],[19.671671059071592,40.143718474965304],[19.671582249329386,40.14368819948475],[19.671611463563917,40.14361786973863],[19.671680296393514,40.143632871477664]]]},"properties":{"SIP":145.644027649,"nr_pas":"1/27","BASHKIA":"HIMARE","ZK":"1982","ADRESA":"ILIAS","NR_PASURIE":"1/27","POSEDUESI":"DRITAN PETRO NAÇO, IRIDA LLAZAR NAÇO","ZONA":"ILIAS","NR_UNIK":""}},
{"type":"Feature","geometry":{"type":"Polygon","coordinates":[[[19.67178984254968,40.14372110615935],[19.6718089764568,40.14367225250905],[19.671807193161218,40.14367184115161],[19.671796307794033,40.14366933019495],[19.671788597883115,40.143667551728505],[19.67178853025134,40.14366753612769],[19.671765474804516,40.14366221786046],[19.67176448687027,40.143661989970646],[19.67175156818088,40.143659009976346],[19.671746849639682,40.14365792153533],[19.671748335468312,40.14365356340725],[19.671748426496357,40.14365329641015],[19.67171683992629,40.143646010228984],[19.671692239006916,40.14364033544449],[19.671678865055103,40.14363725042327],[19.671679918284003,40.14363402824191],[19.671680296393514,40.143632871477664],[19.671679962855304,40.143632798784964],[19.671611463563917,40.14361786973863],[19.671631837740396,40.14355054259957],[19.67163535827726,40.1435504503755],[19.671688212507988,40.14354943001319],[19.67176000868124,40.1435471554013],[19.67181536351921,40.143554746719225],[19.671842916290085,40.14355863732818],[19.671884563928035,40.14357572108467],[19.671866652865063,40.14362553097032],[19.67186399120072,40.143632075045055],[19.671851949916906,40.14366168021155],[19.671844332686106,40.14368040821587],[19.671859277571482,40.14368385558478],[19.671840143696997,40.14373270924341],[19.67178984254968,40.14372110615935]]]},"properties":{"SIP":260.235467271,"nr_pas":"1/28","BASHKIA":"HIMARE","ZK":"1982","ADRESA":"ILIAS","NR_PASURIE":"1/28","POSEDUESI":"RAJMONDA THOMA GJINI","ZONA":"ILIAS","NR_UNIK":""}},
{"type":"Feature","geometry":{"type":"Polygon","coordinates":[[[19.671418432789338,40.14365436806552],[19.67131145426931,40.14363021240439],[19.671350602336258,40.14352810015229],[19.671380743028376,40.14345884536502],[19.671435121238638,40.143482232249674],[19.67156486995933,40.143521916995645],[19.671617495508194,40.143522423665104],[19.67160990790513,40.14355063867203],[19.671481984139895,40.143518822489675],[19.67142461176408,40.143650320546946],[19.671418432789338,40.14365436806552]]]},"properties":{"SIP":217.626174151,"nr_pas":"1/21","BASHKIA":"HIMARE","ZK":"1982","ADRESA":"ILIAS","NR_PASURIE":"1/21","POSEDUESI":"VERDHIQI PELI PAPASAVA, VLASH PANO PAPASAVA","ZONA":"ILIAS","NR_UNIK":""}},
{"type":"Feature","geometry":{"type":"Polygon","coordinates":[[[19.67089908959569,40.14375710417431],[19.670856201072716,40.143765560462775],[19.670737629759035,40.14375807489628],[19.67071976419797,40.14372847701849],[19.670721125785263,40.143703699469654],[19.670662786603046,40.1436968616466],[19.670664470378465,40.143605365804625],[19.670734739081432,40.14358507329752],[19.670843940325547,40.143603969812396],[19.670870281034823,40.14367886550977],[19.67089908959569,40.14375710417431]]]},"properties":{"SIP":290.643782474,"nr_pas":"1/4","BASHKIA":"HIMARE","ZK":"1982","ADRESA":"ILIAS","NR_PASURIE":"1/4","POSEDUESI":"SKËNDER ZAIM LIKAJ, FATBARDHA BAJAZIT LIKAJ","ZONA":"ILIAS","NR_UNIK":""}},
{"type":"Feature","geometry":{"type":"Polygon","coordinates":[[[19.6723501712818,40.14315187888018],[19.67237790927565,40.143205931512114],[19.672242697608247,40.14323700223961],[19.67216732900269,40.143220347374324],[19.67213269679641,40.14315841490824],[19.67213135288332,40.1431473309475],[19.67214316611519,40.14311197938019],[19.672175890576845,40.14308633746986],[19.672179714299403,40.1430659751046],[19.67228552832249,40.143046616263156],[19.672294770691785,40.14306165424268],[19.67231543550823,40.14309669933848],[19.6723501712818,40.14315187888018]]]},"properties":{"SIP":298.090185975,"nr_pas":"1/59/1","BASHKIA":"HIMARE","ZK":"1982","ADRESA":"ILIAS","NR_PASURIE":"1/59/1","POSEDUESI":"EVANTHI ILIA KAPO, RESUL HAMDI KAPO","ZONA":"ILIAS","NR_UNIK":""}},
{"type":"Feature","geometry":{"type":"Polygon","coordinates":[[[19.670879853909415,40.14355097984843],[19.670896769636318,40.14351293260768],[19.67089695108434,40.1435125244904],[19.670898835651894,40.143508286591015],[19.670896810734238,40.143507756358126],[19.670894422858773,40.14350713108318],[19.670891501401737,40.14350636608765],[19.670844683973147,40.14349410673919],[19.67083045047883,40.14349037963178],[19.67084849621331,40.14344979081674],[19.670853150062197,40.14343932328135],[19.670854899343283,40.14343538876043],[19.67085773534987,40.14343613138218],[19.670865315717446,40.14340316484293],[19.671020031002588,40.14340989514752],[19.671105424239858,40.143414522116174],[19.671171997394893,40.143420072541765],[19.671169504884272,40.14344014839885],[19.671161806837013,40.14350215202741],[19.671140404176455,40.14350076072919],[19.67110501230445,40.14349994536662],[19.67103558781997,40.14350618180613],[19.670983398705907,40.143511752326155],[19.6709414366304,40.14352128355203],[19.670931737056513,40.143537627755705],[19.670879853909415,40.14355097984843]]]},"properties":{"SIP":304.304465029,"nr_pas":"1/17/1","BASHKIA":"HIMARE","ZK":"1982","ADRESA":"ILIAS","NR_PASURIE":"1/17/1","POSEDUESI":"SHINA MINO NAÇO,THEOFILLO ILIA NAÇO","ZONA":"ILIAS","NR_UNIK":""}},
{"type":"Feature","geometry":{"type":"Polygon","coordinates":[[[19.671467726511988,40.14338920512634],[19.67149614421434,40.143307558411514],[19.671501502358378,40.14329635445771],[19.671691483329102,40.14333650776476],[19.67163443508242,40.14349688912042],[19.67144328794595,40.143457030265324],[19.671467726511988,40.14338920512634]]]},"properties":{"SIP":311.941161037,"nr_pas":"352/50","BASHKIA":"HIMARE","ZK":"1982","ADRESA":"ILIAS","NR_PASURIE":"352/50","POSEDUESI":"KRISTOFOR NAKO GJOMEMO, LIRIJA TASO GJOMEMO","ZONA":"ILIAS","NR_UNIK":""}},
{"type":"Feature","geometry":{"type":"Polygon","coordinates":[[[19.67214271240966,40.14356109132107],[19.67213404651723,40.14350911135038],[19.672123679278684,40.143402877154124],[19.672305401639857,40.143384924611375],[19.672360617982626,40.14348265901854],[19.67236915917019,40.143532827484435],[19.672305539807915,40.14353132260901],[19.672303475682003,40.14352492367733],[19.67214271240966,40.14356109132107]]]},"properties":{"SIP":300.244279135,"nr_pas":"1/58/1","BASHKIA":"HIMARE","ZK":"1982","ADRESA":"ILIAS","NR_PASURIE":"1/58/1","POSEDUESI":"SPIRO SIMO MARKU, JANULLA LABO MARKU","ZONA":"ILIAS","NR_UNIK":""}},
{"type":"Feature","geometry":{"type":"Polygon","coordinates":[[[19.670459711523804,40.142717684065786],[19.67046175302091,40.14263310387891],[19.670462029178154,40.14262166253504],[19.670465622874666,40.14262171362359],[19.670466963749156,40.142566160287366],[19.67047789438709,40.14256631567828],[19.670478160055406,40.14254599493392],[19.67065330911601,40.14254508733235],[19.670655651660265,40.14270295643889],[19.670594255301616,40.1427185680526],[19.670501711081602,40.14271828113117],[19.670459711523804,40.142717684065786]]]},"properties":{"SIP":306.075042703,"nr_pas":"1/15/1","BASHKIA":"HIMARE","ZK":"1982","ADRESA":"ILIAS","NR_PASURIE":"1/15/1","POSEDUESI":"KIÇO STEFAN BALA, KANË DHAMO BALA","ZONA":"ILIAS","NR_UNIK":""}},
{"type":"Feature","geometry":{"type":"Polygon","coordinates":[[[19.672553171725358,40.143937819963305],[19.672719469424138,40.14396402463275],[19.672779189950475,40.143974260854236],[19.67275008773958,40.1440861715717],[19.672478918073374,40.144044420277375],[19.6724987243998,40.143928670811775],[19.672553171725358,40.143937819963305]]]},"properties":{"SIP":307.435090696,"nr_pas":"1/38/1","BASHKIA":"HIMARE","ZK":"1982","ADRESA":"ILIAS","NR_PASURIE":"1/38/1","POSEDUESI":"THOMA HARILLA GJOMEMO, RODOTHEA JANI GJOMEMO","ZONA":"ILIAS","NR_UNIK":""}},
{"type":"Feature","geometry":{"type":"Polygon","coordinates":[[[19.672827416573924,40.14333829376033],[19.672844741652693,40.14322182236143],[19.67311846181801,40.143249044742966],[19.673098356541903,40.14336264893947],[19.672827416573924,40.14333829376033]]]},"properties":{"SIP":301.002366147,"nr_pas":"1/61/1","BASHKIA":"HIMARE","ZK":"1982","ADRESA":"ILIAS","NR_PASURIE":"1/61/1","POSEDUESI":"GOGO KOÇO GJOMEMO, LIDA NEÇO GJOMEMO","ZONA":"ILIAS","NR_UNIK":""}},
{"type":"Feature","geometry":{"type":"Polygon","coordinates":[[[19.67325547722904,40.143140413303705],[19.673250544738302,40.14314953486898],[19.673112909235382,40.14310339610711],[19.673082334121684,40.143069354477724],[19.673129762901223,40.142987995602695],[19.67321810670406,40.14301826858493],[19.673229373142433,40.14299971430895],[19.673400504765898,40.1430534533209],[19.673356283929067,40.143125278481534],[19.673341452740505,40.14314960160367],[19.67326632608856,40.143122621238106],[19.67325547722904,40.143140413303705]]]},"properties":{"SIP":303.903979947,"nr_pas":"1/62/1","BASHKIA":"HIMARE","ZK":"1982","ADRESA":"ILIAS","NR_PASURIE":"1/62/1","POSEDUESI":"ANDREA KOÇO MARKU, VASILIQI SPIRO MARKU","ZONA":"ILIAS","NR_UNIK":""}},
{"type":"Feature","geometry":{"type":"Polygon","coordinates":[[[19.67114422410399,40.14379873966603],[19.671164525343887,40.14374289429545],[19.671175879545384,40.14371590711253],[19.6714269207226,40.1437300231025],[19.671359896943745,40.14386624986365],[19.671140754864286,40.14383673593443],[19.67114422410399,40.14379873966603]]]},"properties":{"SIP":301.188684159,"nr_pas":"1/19/3","BASHKIA":"HIMARE","ZK":"1982","ADRESA":"ILIAS","NR_PASURIE":"1/19/3","POSEDUESI":"MARJETA LEKË GJOMEMO","ZONA":"ILIAS","NR_UNIK":""}},
{"type":"Feature","geometry":{"type":"Polygon","coordinates":[[[19.671175879545384,40.14371590711253],[19.671164525343908,40.14374289429545],[19.67114422410399,40.14379873966603],[19.671140754864286,40.14383673593443],[19.67112979363385,40.14390453202866],[19.671123663301064,40.143920241288846],[19.67093144756781,40.14389253098299],[19.670920333843856,40.143879274700716],[19.670914862351275,40.14385495429755],[19.6709135582892,40.14383564967791],[19.671049077147938,40.14383782184303],[19.671055902928863,40.14377982975218],[19.67107755725225,40.143720262479846],[19.671086659422624,40.143680638060225],[19.671190466667234,40.143684936014346],[19.671175879545384,40.14371590711253]]]},"properties":{"SIP":280.31659983,"nr_pas":"1/19/2","BASHKIA":"HIMARE","ZK":"1982","ADRESA":"ILIAS","NR_PASURIE":"1/19/2","POSEDUESI":"DHIMITËR LLAMBRO GJOMEMO, LULJETA OVRISTE GJOMEMO","ZONA":"ILIAS","NR_UNIK":""}},
{"type":"Feature","geometry":{"type":"Polygon","coordinates":[[[19.67089908959569,40.14375710417431],[19.670868877010488,40.1436748733899],[19.670919239835804,40.1436743306351],[19.671054307010703,40.14367352297402],[19.67105749375363,40.14365655437014],[19.671205421566665,40.14364476248],[19.671190466667234,40.143684936014346],[19.671086659422624,40.143680638060225],[19.671080361593724,40.14370805436343],[19.67107755725225,40.143720262479846],[19.671055902928863,40.14377982975218],[19.671053621219652,40.143799215250716],[19.671049077147938,40.14383782184303],[19.6709135582892,40.14383564967791],[19.670912542914397,40.143775283978485],[19.67089908959569,40.14375710417431]]]},"properties":{"SIP":300.331914503,"nr_pas":"1/19/1","BASHKIA":"HIMARE","ZK":"1982","ADRESA":"ILIAS","NR_PASURIE":"1/19/1","POSEDUESI":"DHIMITËR LLAMBRO GJOMEMO, LULJETA OVRISTE GJOMEMO","ZONA":"ILIAS","NR_UNIK":""}},
{"type":"Feature","geometry":{"type":"Polygon","coordinates":[[[19.669526568787326,40.143338143707204],[19.66948587257941,40.143350483646046],[19.669438829240626,40.14325527448947],[19.669697560507213,40.14317166061666],[19.669750527461044,40.14319778452072],[19.669778479226345,40.14326029435357],[19.669577879546445,40.14332161031958],[19.669526568787326,40.143338143707204]]]},"properties":{"SIP":304.068498281,"nr_pas":"1/311","BASHKIA":"HIMARE","ZK":"1982","ADRESA":"ILIAS","NR_PASURIE":"1/311","POSEDUESI":"DHISEO STEFAN BALA, ANTIGONI KIO BALA","ZONA":"ILIAS","NR_UNIK":""}},
{"type":"Feature","geometry":{"type":"Polygon","coordinates":[[[19.67284483289699,40.1439848933204],[19.672849210245523,40.143849084439495],[19.673086696746957,40.14385726103581],[19.673082325010384,40.1439919976689],[19.67284483289699,40.1439848933204]]]},"properties":{"SIP":304.295908584,"nr_pas":"1/50/1","BASHKIA":"HIMARE","ZK":"1982","ADRESA":"ILIAS","NR_PASURIE":"1/50/1","POSEDUESI":"THODHORI SIMO MARKU, SIMON THODHORI MARKU","ZONA":"ILIAS","NR_UNIK":""}},
{"type":"Feature","geometry":{"type":"Polygon","coordinates":[[[19.672387341082068,40.143657890698755],[19.672400598128654,40.14367746740132],[19.672407016475024,40.143698692736514],[19.672384392489228,40.143754625213084],[19.672341546846443,40.1437681973127],[19.672280189323942,40.14384022340143],[19.67222366410724,40.14381186324017],[19.67223621296332,40.143797132475584],[19.672204222380124,40.14378318586026],[19.672211404225997,40.14377474714693],[19.67221751196432,40.14376368428093],[19.672221606692048,40.14375154344369],[19.672224293923232,40.14374154316836],[19.672225424713908,40.143732372477615],[19.672225177783417,40.14371914707798],[19.672222658421987,40.14369744826055],[19.67224996614627,40.14363604856497],[19.67225106885307,40.14363537924071],[19.672291796115132,40.14363998741771],[19.672387341082068,40.143657890698755]]]},"properties":{"SIP":244.702327569,"nr_pas":"1/36, 1/37","BASHKIA":"HIMARE","ZK":"1982","ADRESA":"ILIAS","NR_PASURIE":"","POSEDUESI":"LLUKË MIT NIKOLLORI, ELENI NIKO NIKOLLORI, ELVANA LLUKË ÇULE, GENTI NIKO ÇULE","ZONA":"","NR_UNIK":""}},
{"type":"Feature","geometry":{"type":"Polygon","coordinates":[[[19.67183110000133,40.14375196470735],[19.67187209672332,40.143761079370634],[19.671868375179656,40.14377093808993],[19.67188459698869,40.1437782282049],[19.671905139498282,40.143783945627966],[19.671910530028786,40.14379289650913],[19.671914355232246,40.143804523637726],[19.671914247772186,40.1438268623543],[19.671910687453654,40.143840851386955],[19.671903221689004,40.14385989286565],[19.6718957731148,40.14387536014922],[19.67186679942554,40.143927998141564],[19.671836774581966,40.14395710271244],[19.67173205391307,40.143942508927424],[19.67172820006076,40.14393683878407],[19.671727459683186,40.143929390345065],[19.67175302077817,40.14386006291232],[19.671764013407223,40.143861740209005],[19.671782450110946,40.14381289989849],[19.671783722534,40.14380952914483],[19.671789903086157,40.14379315634692],[19.671793278579077,40.14379390681042],[19.671807092233955,40.14375731325231],[19.67182737845228,40.1437618234253],[19.67183110000133,40.14375196470735]]]},"properties":{"SIP":232.909225,"nr_pas":"1/25","BASHKIA":"HIMARE","ZK":"1982","ADRESA":"ILIAS","NR_PASURIE":"1/25","POSEDUESI":"MIHAL RASHO LATI, VASILIQI JANI LATI","ZONA":"ILIAS","NR_UNIK":""}},
{"type":"Feature","geometry":{"type":"Polygon","coordinates":[[[19.670508843130783,40.14341860931068],[19.670465730816076,40.14337702540906],[19.67052122224319,40.143343141342065],[19.670564334570575,40.14338472522332],[19.670508843130783,40.14341860931068]]]},"properties":{"SIP":35.6572033869,"nr_pas":"1/13/1","BASHKIA":"HIMARE","ZK":"1982","ADRESA":"ILIAS","NR_PASURIE":"1/13/1","POSEDUESI":"ELTON GORKI BIFSHA","ZONA":"ILIAS","NR_UNIK":"11_9031651"}},
{"type":"Feature","geometry":{"type":"Polygon","coordinates":[[[19.6724987243998,40.143928670811775],[19.672450503169866,40.1439190081653],[19.67242397368117,40.1439153588785],[19.672356934205446,40.143909807853035],[19.672333230018793,40.14389973290123],[19.672283006674206,40.14388386410866],[19.672321580880496,40.14382996231816],[19.672359183218003,40.14377827709603],[19.672467726757855,40.14382478637455],[19.672529092606183,40.143847030718376],[19.672578360498434,40.14386790064353],[19.672590276348245,40.143870863392095],[19.672697969783933,40.1438812899467],[19.672686304153572,40.14395225512508],[19.672687378614622,40.143958967883904],[19.672578610607747,40.14394182855931],[19.672553171725358,40.143937819963305],[19.6724987243998,40.143928670811775]]]},"properties":{"SIP":336.06105241,"nr_pas":"1/51","BASHKIA":"HIMARE","ZK":"1982","ADRESA":"ILIAS","NR_PASURIE":"1/51","POSEDUESI":"LEFTER LAME LIKAJ","ZONA":"ILIAS","NR_UNIK":"11_9030034"}},
{"type":"Feature","geometry":{"type":"Polygon","coordinates":[[[19.672294770691785,40.14306165424268],[19.67229341598686,40.143059450043715],[19.672464799386688,40.142998827375344],[19.67246694059662,40.143003685661924],[19.672490501096057,40.1430405706122],[19.6725603252283,40.14314988295825],[19.672377883540946,40.14320588136333],[19.672375138603744,40.14320053234757],[19.6723501712818,40.14315187888018],[19.67231543550823,40.14309669933848],[19.672294770691785,40.14306165424268]]]},"properties":{"SIP":295.967615693,"nr_pas":"1/60/1","BASHKIA":"HIMARE","ZK":"1982","ADRESA":"ILIAS","NR_PASURIE":"1/60/1","POSEDUESI":"LLUKË MITI NIKOLLORI","ZONA":"ILIAS","NR_UNIK":""}},
{"type":"Feature","geometry":{"type":"Polygon","coordinates":[[[19.67037228337615,40.14254926236476],[19.670385328574316,40.14266069676882],[19.670223559374136,40.14269157071108],[19.67018976685216,40.1426952447271],[19.670191346550773,40.142703802418545],[19.670142105532197,40.1427091560193],[19.670142067966196,40.142708952512386],[19.670127474855512,40.14271109507007],[19.670111576121563,40.1426472852676],[19.67009879660878,40.14259334926198],[19.670158350997365,40.1425809057398],[19.67026883917135,40.142561822339225],[19.6702692015385,40.142561759751366],[19.67037228337615,40.14254926236476]]]},"properties":{"SIP":304.235852691,"nr_pas":"1/72/1","BASHKIA":"HIMARE","ZK":"1982","ADRESA":"ILIAS","NR_PASURIE":"1/72/1","POSEDUESI":"SOFOKLI NAPOLON BIFSHA, SILVA DHIONIS BIFSHA","ZONA":"ILIAS","NR_UNIK":""}},
{"type":"Feature","geometry":{"type":"Polygon","coordinates":[[[19.67037228337615,40.14254926236476],[19.6702692015385,40.142561759751366],[19.67026883917135,40.142561822339225],[19.670227770260535,40.1425689157317],[19.670158350997365,40.1425809057398],[19.670152533603982,40.14258191051063],[19.670118244935015,40.14246498302401],[19.670113363871888,40.142450910425914],[19.670200998857823,40.14243471851795],[19.670371002411184,40.14243198573827],[19.670380692067763,40.14254710397904],[19.67037228337615,40.14254926236476]]]},"properties":{"SIP":298.537486102,"nr_pas":"1/72","BASHKIA":"HIMARE","ZK":"1982","ADRESA":"ILIAS","NR_PASURIE":"1/72","POSEDUESI":"NAPOLON SOFO BIFSHA, LISHABETA VANGJEL BIFSHA","ZONA":"ILIAS","NR_UNIK":"11_9031511"}},
{"type":"Feature","geometry":{"type":"Polygon","coordinates":[[[19.67271154222077,40.1441794184736],[19.672751051372337,40.14420603787947],[19.672713011687996,40.144239289976774],[19.672700916686225,40.14423114093469],[19.672652223650257,40.144273705504766],[19.67263222792799,40.14428321842433],[19.672602103315455,40.14427169568004],[19.672553040637847,40.14424682319405],[19.672508524298188,40.144167492078815],[19.672478776220913,40.14411717791428],[19.672484528564613,40.144108997252545],[19.672536717102734,40.14410361668159],[19.672596056794447,40.14410912200528],[19.672647856031205,40.144133096734514],[19.67271154222077,40.1441794184736]]]},"properties":{"SIP":258.872625984,"nr_pas":"1/38/1","BASHKIA":"HIMARE","ZK":"1982","ADRESA":"ILIAS","NR_PASURIE":"1/38/1","POSEDUESI":"KALIRO THOMA BALA, PETRO STEFAN BALA","ZONA":"ILIAS","NR_UNIK":"11_9031002"}},
{"type":"Feature","geometry":{"type":"Polygon","coordinates":[[[19.670710273743936,40.1440863924759],[19.67071748565478,40.14395922949771],[19.670953783785045,40.14397241102966],[19.670941541254134,40.14409658119198],[19.670710273743936,40.1440863924759]]]},"properties":{"SIP":279.060839849,"nr_pas":"1/304","BASHKIA":"HIMARE","ZK":"1982","ADRESA":"ILIAS","NR_PASURIE":"1/304","POSEDUESI":"PILO VANGJEL BALA, LEONORA PANDELI BALA","ZONA":"ILIAS","NR_UNIK":""}},
{"type":"Feature","geometry":{"type":"Polygon","coordinates":[[[19.672084469912253,40.14414170115273],[19.672053841364498,40.14417621396292],[19.67199142525138,40.1442508580065],[19.671858850217564,40.14418519289938],[19.671829664535284,40.144120535533204],[19.6719079993909,40.14403712021159],[19.672092289355952,40.144131287377355],[19.672084469912253,40.14414170115273]]]},"properties":{"SIP":292.732868226,"nr_pas":"1/24/1","BASHKIA":"HIMARE","ZK":"1982","ADRESA":"ILIAS","NR_PASURIE":"1/24/1","POSEDUESI":"MILO MINELLO NIKOLLARI, QIRJAKULLA KLEANTHI NIKOLLARI","ZONA":"ILIAS","NR_UNIK":""}},
{"type":"Feature","geometry":{"type":"Polygon","coordinates":[[[19.670465730816076,40.14337702540906],[19.67042255582291,40.14333538098414],[19.670478047237314,40.14330149693754],[19.670535179121856,40.14326661112731],[19.670592567042675,40.14323211220684],[19.670601525105255,40.143225584908585],[19.670532352146097,40.14316373242069],[19.67065416688951,40.143094083328194],[19.670751715984263,40.1432272034472],[19.670634253685517,40.143279589509255],[19.67052122224319,40.143343141342065],[19.670465730816076,40.14337702540906]]]},"properties":{"SIP":304.223603586,"nr_pas":"1/121","BASHKIA":"HIMARE","ZK":"1982","ADRESA":"ILIAS","NR_PASURIE":"1/121","POSEDUESI":"CIDHO FOTO BIFSHA","ZONA":"ILIAS","NR_UNIK":"11_8289414"}},
{"type":"Feature","geometry":{"type":"Polygon","coordinates":[[[19.671842916290085,40.14355863732818],[19.67184739675945,40.14342595882839],[19.672036165315827,40.14339551682274],[19.672037595999328,40.143420838433606],[19.67205400385821,40.14347926421362],[19.672071168496007,40.14356583502144],[19.672075178867523,40.143586061522115],[19.671968296651436,40.143598542782144],[19.671943202823197,40.14359928323949],[19.671884563928035,40.14357572108467],[19.671842916290085,40.14355863732818]]]},"properties":{"SIP":354.077282098,"nr_pas":"1/33/1","BASHKIA":"HIMARE","ZK":"1982","ADRESA":"ILIAS","NR_PASURIE":"1/33/1","POSEDUESI":"NEÇO KRISTOFOR ANDONI, DONIKA LABO ANDONI","ZONA":"ILIAS","NR_UNIK":"11_9020250, 11_9023577"}},
{"type":"Feature","geometry":{"type":"Polygon","coordinates":[[[19.669696707764412,40.143385850619715],[19.66956562720895,40.14342908242957],[19.669517577627655,40.1434453868313],[19.669485710905004,40.143389895109244],[19.669667009857914,40.14332872098102],[19.66982600758235,40.14328135104936],[19.669909484038165,40.14343498364691],[19.669813859962993,40.143465687807314],[19.669757688230646,40.143363959544146],[19.669696707764412,40.143385850619715]]]},"properties":{"SIP":316.172633589,"nr_pas":"1/7","BASHKIA":"HIMARE","ZK":"1982","ADRESA":"ILIAS","NR_PASURIE":"1/7","POSEDUESI":"PETRO STEFAN BALA, KALIRO HTOMA BALA","ZONA":"ILIAS","NR_UNIK":""}},
{"type":"Feature","geometry":{"type":"Polygon","coordinates":[[[19.67272866964265,40.143607181192124],[19.672722679124462,40.14371677439595],[19.672660833915526,40.1437158370864],[19.67259121059047,40.14370526700906],[19.672522093929317,40.14369318918857],[19.672508443878264,40.14369024354388],[19.672481432647825,40.14367701393525],[19.672459345262244,40.143672948310765],[19.6724384686958,40.143675367401904],[19.67241279922878,40.14364136330382],[19.672417158908228,40.14356112195555],[19.672521515517573,40.14357830607127],[19.67255456498735,40.143583748215114],[19.672546552726907,40.143610752899995],[19.672575860869294,40.143615874369054],[19.672615669309042,40.143622830705716],[19.672619316424157,40.14361983468059],[19.672621089915292,40.14361259589425],[19.672681174353126,40.14361810327973],[19.67272866964265,40.143607181192124]]]},"properties":{"SIP":296.196676017,"nr_pas":"1/53/1","BASHKIA":"HIMARE","ZK":"1982","ADRESA":"ILIAS","NR_PASURIE":"1/53/1","POSEDUESI":"THANAS ALEKS NIKOLLORI","ZONA":"ILIAS","NR_UNIK":"11_9021449, 11_9023592"}},
{"type":"Feature","geometry":{"type":"Polygon","coordinates":[[[19.671793278579077,40.14379390681042],[19.671789903086157,40.14379315634692],[19.671783722534,40.14380952914483],[19.671782450110946,40.14381289989849],[19.67177403457751,40.14383519333238],[19.671764013407223,40.143861740209005],[19.67175302077817,40.14386006291232],[19.671750675276716,40.14385277685858],[19.671724434989326,40.14383421172248],[19.67169778052128,40.14379848903804],[19.67165920156538,40.143763113789824],[19.671659787514034,40.143738143404065],[19.67166445111845,40.14373684607123],[19.67166726040789,40.14373375635892],[19.671668049241802,40.1437311374837],[19.671671059071592,40.143718474965304],[19.671696210179537,40.14371818884905],[19.67173118437753,40.14372715011575],[19.671762828436663,40.14373525810627],[19.671767047745515,40.143725119573475],[19.67177073369859,40.14372596982255],[19.6717740640948,40.14371746650071],[19.671777173878578,40.143718183843085],[19.67178984254968,40.14372110615935],[19.671840143696997,40.14373270924341],[19.67183110000133,40.14375196470735],[19.67182737845228,40.1437618234253],[19.671807092233955,40.14375731325231],[19.67179329070161,40.143793874696804],[19.671793278579077,40.14379390681042]]]},"properties":{"SIP":132.331183528,"nr_pas":"1/26","BASHKIA":"HIMARE","ZK":"1982","ADRESA":"ILIAS","NR_PASURIE":"1/26","POSEDUESI":"THEOFILLO ILIA NAÇO, SHINA MINO NAÇO","ZONA":"ILIAS","NR_UNIK":""}},
{"type":"Feature","geometry":{"type":"Polygon","coordinates":[[[19.67225106885307,40.14363537924071],[19.67223397791645,40.143634225681126],[19.67215966421573,40.143636212777075],[19.672147747695558,40.1435961475127],[19.67214271240966,40.14356109132107],[19.672303475682003,40.14352492367733],[19.672305539807915,40.14353132260901],[19.67236915917019,40.143532827484435],[19.672368237202974,40.143587478514405],[19.67236992269792,40.14362441713285],[19.67237268502096,40.14363109686932],[19.672387341082068,40.143657890698755],[19.672291796115132,40.14363998741771],[19.67225106885307,40.14363537924071]]]},"properties":{"SIP":211.615666665,"nr_pas":"1/71","BASHKIA":"HIMARE","ZK":"1982","ADRESA":"ILIAS","NR_PASURIE":"1/71","POSEDUESI":"FOTO MILO MARKU, ARGJIRO VANGJEL MARKU","ZONA":"ILIAS","NR_UNIK":""}},
{"type":"Feature","geometry":{"type":"Polygon","coordinates":[[[19.669517577627655,40.1434453868313],[19.66956562720895,40.14342908242957],[19.669613903415428,40.143413160429084],[19.669696707764412,40.143385850619715],[19.669757688230646,40.143363959544146],[19.669811448743403,40.143461321041514],[19.669813859962993,40.143465687807314],[19.66982175961105,40.14348215536049],[19.66967700840493,40.143533656446365],[19.669586197767345,40.14356413586539],[19.669517577627655,40.1434453868313]]]},"properties":{"SIP":318.644636516,"nr_pas":"1/8","BASHKIA":"HIMARE","ZK":"1982","ADRESA":"ILIAS","NR_PASURIE":"1/8","POSEDUESI":"ARTUR PETRO BALA","ZONA":"ILIAS","NR_UNIK":"11_9021379"}},
{"type":"Feature","geometry":{"type":"Polygon","coordinates":[[[19.67272866964265,40.143607181192124],[19.672681174353126,40.14361810327973],[19.672621089915292,40.14361259589425],[19.672619316424157,40.14361983468059],[19.672615669309042,40.143622830705716],[19.67257586086933,40.143615874369054],[19.672546552726907,40.143610752899995],[19.67255456498735,40.143583748215114],[19.672571905101773,40.14352530466593],[19.672584738801007,40.14349228736438],[19.672814181270994,40.14352819577617],[19.672790815734356,40.14359639780851],[19.67272866964265,40.143607181192124]]]},"properties":{"SIP":232.728088095,"nr_pas":"1/56/2","BASHKIA":"HIMARE","ZK":"1982","ADRESA":"ILIAS","NR_PASURIE":"1/56/2","POSEDUESI":"KRISTAQ ARQILE KONDI, ERMIRA IBRAHIM KONDI","ZONA":"ILIAS","NR_UNIK":"11_9021233"}},
{"type":"Feature","geometry":{"type":"Polygon","coordinates":[[[19.672873235183797,40.144129204674364],[19.67301448363636,40.14419930134652],[19.672881490382117,40.14435011622153],[19.672728725342953,40.14425353744231],[19.672873235183797,40.144129204674364]]]},"properties":{"SIP":300.777126287,"nr_pas":"1/42/1","BASHKIA":"HIMARE","ZK":"1982","ADRESA":"ILIAS","NR_PASURIE":"1/42/1","POSEDUESI":"ANASTAS PETRO GJOMEMO","ZONA":"ILIAS","NR_UNIK":""}},
{"type":"Feature","geometry":{"type":"Polygon","coordinates":[[[19.670564334570575,40.14338472522332],[19.670590222394157,40.14340969522291],[19.670534730946738,40.14344357932251],[19.670508843130783,40.14341860931068],[19.670564334570575,40.14338472522332]]]},"properties":{"SIP":21.4111959677,"nr_pas":"1/13/2","BASHKIA":"HIMARE","ZK":"1982","ADRESA":"ILIAS","NR_PASURIE":"1/13/2","POSEDUESI":"VENIAMIN ANDON BIFSHA","ZONA":"ILIAS","NR_UNIK":"11_9031652"}},
{"type":"Feature","geometry":{"type":"Polygon","coordinates":[[[19.670718426068728,40.143456211888015],[19.67073541277759,40.14341176289523],[19.6707361749626,40.14341078334034],[19.670736980169032,40.143409825000475],[19.670737828379337,40.143408888776285],[19.670738718402298,40.14340797555506],[19.67073964904669,40.143407086224016],[19.67074061910374,40.14340622257112],[19.6707416285559,40.143405385497054],[19.6707426738822,40.14340457496145],[19.670743755047525,40.14340379276568],[19.67074487203431,40.1434030398105],[19.670746021304033,40.14340231695619],[19.670747201665495,40.143401625089965],[19.670748414292337,40.14340096422534],[19.670749654437273,40.14340033701053],[19.670750922117847,40.14339974254483],[19.67075221731653,40.14339918172893],[19.670753535303547,40.14339865631041],[19.67075487727014,40.143398165402004],[19.670756239660232,40.14339771076468],[19.670757622473804,40.1433972923985],[19.670759023346,40.143396911177234],[19.67076043992952,40.14339656707386],[19.670761871033143,40.14339626097568],[19.67076331546566,40.14339599376988],[19.67076477208852,40.14339576364162],[19.67076623732811,40.14339557325259],[19.670767710028308,40.14339542168861],[19.670769187841834,40.14339530892269],[19.670770671924764,40.14339523586909],[19.6707721564264,40.143395201559684],[19.670773642502805,40.143395206908664],[19.670775127806717,40.143395251889054],[19.670776609990806,40.143395336473965],[19.67080290633744,40.14339458429277],[19.67079007735671,40.1434245366323],[19.670851964940606,40.143440148265164],[19.670830450478828,40.14349037963179],[19.670898835651872,40.143508286591],[19.670896951084337,40.1435125244904],[19.670862711732738,40.1435895363787],[19.670678149809632,40.14355920080776],[19.670718426068728,40.143456211888015]]]},"properties":{"SIP":241.556402727,"nr_pas":"1/300","BASHKIA":"HIMARE","ZK":"1982","ADRESA":"ILIAS, BASHKIA HIMARE","NR_PASURIE":"1/300","POSEDUESI":"ARBEN LLAMBRO BALA, NIKO LLAMBRO BALA","ZONA":"ILJAZ","NR_UNIK":"11_8185365"}},
{"type":"Feature","geometry":{"type":"Polygon","coordinates":[[[19.669534255127807,40.144070848853445],[19.669261561939358,40.144054788062355],[19.66927483298252,40.14392128039087],[19.66954752888831,40.14393811075335],[19.669534255127807,40.144070848853445]]]},"properties":{"SIP":345.559195711,"nr_pas":"1/584","BASHKIA":"HIMARE","ZK":"1982","ADRESA":"ILIAS","NR_PASURIE":"","POSEDUESI":"ANASTAS BALA","ZONA":"","NR_UNIK":"11_8248202"}}
]}