{"type":"FeatureCollection", "features": [
{"type":"Feature","geometry":{"type":"Polygon","coordinates":[[[19.62078914316416,40.16703090990782],[19.620702225458082,40.16702974893247],[19.62067909249694,40.16702919188803],[19.62068025692323,40.16695949830169],[19.620729121502144,40.16689098934482],[19.62079542785871,40.16692054710309],[19.620823155033094,40.16695520072556],[19.620823120665396,40.16703115290934],[19.62078914316416,40.16703090990782]]]},"properties":{"SIP":151.36663598,"nr_pas":"200/85","BASHKIA":"PALASE","ZK":"2863","ADRESA":"PALASE","NR_PASURIE":"200/85","POSEDUESI":"ERIOL THANAS PAPA","NR_UNIK":"11_8187490","ZONA":"Perfunduar_legalizimi"}},
{"type":"Feature","geometry":{"type":"Polygon","coordinates":[[[19.620699820488174,40.16715819176551],[19.620786727508786,40.16715877092641],[19.620826594136922,40.16715812535061],[19.6208223605723,40.16724913509774],[19.62067328714879,40.16724674055305],[19.620674097776096,40.16715691100615],[19.620699820488174,40.16715819176551]]]},"properties":{"SIP":127.856088126,"nr_pas":"200/963","BASHKIA":"PALASE","ZK":"2863","ADRESA":"PALASE","NR_PASURIE":"200/963","POSEDUESI":"KALIOPI THANAS PAÇO","NR_UNIK":"","ZONA":"Perfunduar_legalizimi"}},
{"type":"Feature","geometry":{"type":"Polygon","coordinates":[[[19.62067409786918,40.167156911865625],[19.62067854664662,40.167096147026825],[19.620698733440236,40.16709648909684],[19.620785648467855,40.16709755378301],[19.620786728613815,40.16715877207835],[19.620699822273377,40.16715819223631],[19.62067409786918,40.167156911865625]]]},"properties":{"SIP":63.8269911669,"nr_pas":"200/90","BASHKIA":"PALASE","ZK":"2863","ADRESA":"PALASE","NR_PASURIE":"200/90","POSEDUESI":"ARETUSHA THANAS GJOVASHO","NR_UNIK":"11_8301562","ZONA":"Perfunduar_legalizimi"}},
{"type":"Feature","geometry":{"type":"Polygon","coordinates":[[[19.622728005346655,40.16753377372804],[19.62277153134212,40.16747280605444],[19.622838958357118,40.167524017998595],[19.62279856997679,40.16757927715799],[19.622757065892117,40.16761715763498],[19.62269219517904,40.16772131363998],[19.622631549681156,40.1676794167009],[19.62268733595029,40.16764528594452],[19.622663523156604,40.16762662236951],[19.62270753668839,40.167585218846845],[19.622686501250865,40.16757165417997],[19.622728005346655,40.16753377372804]]]},"properties":{"SIP":172.499257054,"nr_pas":"200/187","BASHKIA":"PALASE","ZK":"2863","ADRESA":"PALASE","NR_PASURIE":"200/187","POSEDUESI":"FOTAQ LLUKE KONOMAJ","NR_UNIK":"11_8311440","ZONA":"Perfunduar_legalizimi"}},
{"type":"Feature","geometry":{"type":"Polygon","coordinates":[[[19.62790814765036,40.1625580813928],[19.628013733043364,40.16244618986135],[19.62810395976206,40.162359983351216],[19.62827606082776,40.162466094889375],[19.62813329430705,40.162618851745734],[19.628091334080214,40.16262479316648],[19.628046165515993,40.16262107384759],[19.627945277598194,40.16258357773212],[19.62790814765036,40.1625580813928]]]},"properties":{"SIP":502.934893633,"nr_pas":"201/261","BASHKIA":"PALASE","ZK":"2863","ADRESA":"PALASE","NR_PASURIE":"201/261","POSEDUESI":"ANDREA FOTO ÇAÇI","NR_UNIK":"11_8289385","ZONA":"Perfunduar_legalizimi"}},
{"type":"Feature","geometry":{"type":"Polygon","coordinates":[[[19.624208764634226,40.16764444452428],[19.624253775668898,40.167684338970815],[19.62431127336759,40.16764630099505],[19.624362078866046,40.167612843590646],[19.624364550884057,40.16761485704928],[19.62439331964661,40.16759621674817],[19.6243909502808,40.16759306346844],[19.62443361177561,40.16756475399927],[19.624438879724643,40.16759515200432],[19.6244461299252,40.16761811013522],[19.6244588664038,40.16763185264424],[19.624418339847967,40.16765882573462],[19.62438313372948,40.16770666571975],[19.62428567899442,40.167777834033885],[19.62418540334515,40.16772687373901],[19.62413746826626,40.16768918877242],[19.624208764634226,40.16764444452428]]]},"properties":{"SIP":251.437948413,"nr_pas":"200/98","BASHKIA":"PALASE","ZK":"2863","ADRESA":"PALASE","NR_PASURIE":"200/98","POSEDUESI":"LEONARD FILIP BILLA , VIOLETA TELI BILLA","NR_UNIK":"","ZONA":"Perfunduar_legalizimi"}},
{"type":"Feature","geometry":{"type":"Polygon","coordinates":[[[19.621103780579745,40.1665167657953],[19.62112025249934,40.16640315930851],[19.62113477340804,40.1663052730281],[19.621166620226397,40.166275353731415],[19.621245225930284,40.16621484904706],[19.62130202760851,40.16622146844949],[19.621302693223573,40.16626936525767],[19.621347944425843,40.16634242746563],[19.62132273121806,40.16635235284116],[19.62127321089453,40.16654448423613],[19.621103780579745,40.1665167657953]]]},"properties":{"SIP":503.598537873,"nr_pas":"200/361","BASHKIA":"PALASE","ZK":"2863","ADRESA":"PALASE","NR_PASURIE":"200/361","POSEDUESI":"VIOLETA KAPO DHIMOLEA","NR_UNIK":"11_2216877","ZONA":"Perfunduar_legalizimi"}},
{"type":"Feature","geometry":{"type":"Polygon","coordinates":[[[19.615768518512898,40.17155012295209],[19.61574175384852,40.1715127501799],[19.615823095781227,40.17147846929287],[19.615849860477073,40.17151584204663],[19.615768518512898,40.17155012295209]]]},"properties":{"SIP":37.4316892491,"nr_pas":"30/268/1","BASHKIA":"PALASE","ZK":"2863","ADRESA":"PALASE","NR_PASURIE":"30/268/1","POSEDUESI":"ROLAND KIÇO NESTURI","NR_UNIK":"11_8301682","ZONA":"Perfunduar_legalizimi"}},
{"type":"Feature","geometry":{"type":"Polygon","coordinates":[[[19.62635779512646,40.16446715491061],[19.62617191148099,40.16446691233736],[19.626172231772976,40.164323586841356],[19.626348793750154,40.16432451417775],[19.626347853665163,40.16441100745469],[19.62635779512646,40.16446715491061]]]},"properties":{"SIP":240.769603256,"nr_pas":"201/262","BASHKIA":"PALASE","ZK":"2863","ADRESA":"PALASE","NR_PASURIE":"201/262","POSEDUESI":"KALTRA KOZMA ÇEÇO","NR_UNIK":"11_8186581","ZONA":"Perfunduar_legalizimi"}},
{"type":"Feature","geometry":{"type":"Polygon","coordinates":[[[19.623183463251266,40.164587799381586],[19.623355091492783,40.16438569910943],[19.623504475245,40.16441513619123],[19.623436515339357,40.16457325346511],[19.623339065339007,40.16467230001408],[19.623183463251266,40.164587799381586]]]},"properties":{"SIP":463.096314279,"nr_pas":"200/270","BASHKIA":"PALASE","ZK":"2863","ADRESA":"PALASE","NR_PASURIE":"200/270","POSEDUESI":"ROLAND KIÇO NESTURI","NR_UNIK":"11_3022549","ZONA":"Perfunduar_legalizimi"}},
{"type":"Feature","geometry":{"type":"Polygon","coordinates":[[[19.624637231048766,40.167339018342965],[19.624614433798886,40.16741505758246],[19.624595252495734,40.16743461646708],[19.624559744047854,40.167402308480945],[19.6245280871899,40.167369739942835],[19.624594678141257,40.167333320054816],[19.62456888428263,40.16729362208532],[19.62450662636542,40.1673187376295],[19.62447274845986,40.16726650363107],[19.624409337303593,40.16728953041762],[19.624391117929314,40.167284407828134],[19.624345575628215,40.167305705432724],[19.624339424537023,40.16729466494631],[19.624337581852632,40.16727678783887],[19.62434507334557,40.16725596249436],[19.62435683547122,40.167235151004746],[19.624452962132878,40.1671934656786],[19.62446031242153,40.16719825515349],[19.624518325869904,40.16716836023463],[19.624561239936916,40.16720126313137],[19.62464129905814,40.167251288831494],[19.62468115271392,40.16726950749223],[19.624648746292866,40.16732079422217],[19.624637231048766,40.167339018342965]]]},"properties":{"SIP":336.0338904,"nr_pas":"200/237","BASHKIA":"PALASE","ZK":"2863","ADRESA":"PALASE","NR_PASURIE":"200/237","POSEDUESI":"LEFTER DHIMITER KASHTA, LEONORA THOMA KASHTA","NR_UNIK":"","ZONA":"Perfunduar_legalizimi"}},
{"type":"Feature","geometry":{"type":"Polygon","coordinates":[[[19.62634980889776,40.16527156445077],[19.62631489109009,40.165182334365056],[19.626258569761333,40.16503155847254],[19.6264329475045,40.16494967569927],[19.626534527586422,40.16522974624391],[19.62634980889776,40.16527156445077]]]},"properties":{"SIP":499.186146216,"nr_pas":"200/350","BASHKIA":"PALASE","ZK":"2863","ADRESA":"PALASE","NR_PASURIE":"200/350","POSEDUESI":"HARALLAMB VANGJEL SHOLLA","NR_UNIK":"11_8311355","ZONA":"Perfunduar_legalizimi"}},
{"type":"Feature","geometry":{"type":"Polygon","coordinates":[[[19.620698731768314,40.16709648784457],[19.62067854664663,40.167096147026825],[19.62067909249695,40.16702919188805],[19.620702225458093,40.16702974893247],[19.620789143164174,40.167030909907844],[19.62079801329741,40.16703097334652],[19.62079650416347,40.16709727671208],[19.620785647742867,40.16709755335438],[19.620698731768314,40.16709648784457]]]},"properties":{"SIP":74.7700117398,"nr_pas":"200/88","BASHKIA":"PALASE","ZK":"2863","ADRESA":"PALASE","NR_PASURIE":"200/88","POSEDUESI":"MARIJE THANAS BOÇI","NR_UNIK":"11_8301564","ZONA":"Perfunduar_legalizimi"}},
{"type":"Feature","geometry":{"type":"Polygon","coordinates":[[[19.62295226964726,40.16621626378278],[19.622758603083494,40.16618971796364],[19.622861505662822,40.16601807345648],[19.622939885232753,40.166024971964674],[19.62301221456218,40.16604177787314],[19.62296743098967,40.166149662604475],[19.62296683066318,40.16615413145458],[19.62295226964726,40.16621626378278]]]},"properties":{"SIP":298.862787977,"nr_pas":"3/42","BASHKIA":"PALASE","ZK":"2863","ADRESA":"PALASE","NR_PASURIE":"3/42","POSEDUESI":"VIOLETA KLEARKO PAPA","NR_UNIK":"","ZONA":"Perfunduar_legalizimi"}},
{"type":"Feature","geometry":{"type":"Polygon","coordinates":[[[19.62398345757354,40.16687334821814],[19.623937404470567,40.16685137663643],[19.624026003101516,40.166742288590314],[19.624077250387202,40.166769102881716],[19.62398345757354,40.16687334821814]]]},"properties":{"SIP":70.1285145262,"nr_pas":"3/25","BASHKIA":"PALASE","ZK":"2863","ADRESA":"PALASE","NR_PASURIE":"3/25","POSEDUESI":"MILO NIKOLLA PETROMILO","NR_UNIK":"","ZONA":"Perfunduar_legalizimi"}},
{"type":"Feature","geometry":{"type":"Polygon","coordinates":[[[19.624125816455482,40.167040458591],[19.624164135263683,40.16700289187046],[19.62423974199515,40.16693344602911],[19.624256612788844,40.16694359503098],[19.624264850337106,40.16693579694161],[19.62431614597612,40.16696962513288],[19.62426302682937,40.16701703208791],[19.624262837836145,40.16705130893818],[19.624107092020232,40.16718316968648],[19.624045594481203,40.16714848642699],[19.624125816455482,40.167040458591]]]},"properties":{"SIP":246.565223175,"nr_pas":"200/352","BASHKIA":"PALASE","ZK":"2863","ADRESA":"PALASE","NR_PASURIE":"200/352","POSEDUESI":"VEZIR THODHORI GJIKOKAJ, ORELDA SERVET GJIKOKAJ","NR_UNIK":"","ZONA":"Perfunduar_legalizimi"}},
{"type":"Feature","geometry":{"type":"Polygon","coordinates":[[[19.624797905503623,40.1672046323542],[19.62477387251114,40.16721230733867],[19.624725667695515,40.1671076945452],[19.62472059331476,40.167064410536945],[19.62477668499465,40.16707694780005],[19.62479472291713,40.167089218541186],[19.624850802836438,40.16706584572277],[19.62485685972197,40.16707388787312],[19.624904582315356,40.16705082440338],[19.624946736034783,40.1670544346809],[19.62496413430709,40.167044823232075],[19.625042098542444,40.16711570548544],[19.62499726804679,40.167173998913256],[19.62498700392356,40.167193732859396],[19.624982955672117,40.16721006639613],[19.624903539401515,40.16714465603742],[19.624793971670805,40.16719653096764],[19.624797905503623,40.1672046323542]]]},"properties":{"SIP":300.759196592,"nr_pas":"3/12","BASHKIA":"PALASE","ZK":"2863","ADRESA":"PALASE","NR_PASURIE":"3/12","POSEDUESI":"KRISTO KLEARKO PAÇO","NR_UNIK":"","ZONA":"Perfunduar_legalizimi"}},
{"type":"Feature","geometry":{"type":"Polygon","coordinates":[[[19.62467279035439,40.167779988998504],[19.624620902253223,40.16774840211428],[19.624664714073408,40.16770767339703],[19.624708284556682,40.16766716896815],[19.624749811148238,40.167694974113196],[19.62474431193879,40.16772216585109],[19.624719217944314,40.16774248594951],[19.624714794434652,40.16773937908325],[19.62467279035439,40.167779988998504]]]},"properties":{"SIP":66.0523383982,"nr_pas":"3/3","BASHKIA":"PALASE","ZK":"2863","ADRESA":"PALASE","NR_PASURIE":"3/3","POSEDUESI":"AFROVITI STEFO ÇEÇO","NR_UNIK":"","ZONA":"Perfunduar_legalizimi"}},
{"type":"Feature","geometry":{"type":"Polygon","coordinates":[[[19.625575197552514,40.16817436679932],[19.625498745467514,40.16809084862296],[19.625462097050317,40.16805081288177],[19.62541276835591,40.167996924763635],[19.625479978490237,40.167940474544466],[19.625568072028532,40.167988018182896],[19.625685911235536,40.16811286481512],[19.625575197552514,40.16817436679932]]]},"properties":{"SIP":275.452689402,"nr_pas":"201/1","BASHKIA":"PALASE","ZK":"2863","ADRESA":"PALASE","NR_PASURIE":"201/1","POSEDUESI":"THOMA MARKO PJERO","NR_UNIK":"","ZONA":"Perfunduar_legalizimi"}},
{"type":"Feature","geometry":{"type":"Polygon","coordinates":[[[19.62477940785645,40.16670728142532],[19.624748663290223,40.16666192184863],[19.624795630199156,40.16664106345015],[19.62476810053209,40.16659803579528],[19.624835472558114,40.16657258781766],[19.624860971849387,40.1665629561284],[19.624913174014985,40.16657844702417],[19.624895575446846,40.16664667683548],[19.624872392020585,40.166664586269796],[19.62477940785645,40.16670728142532]]]},"properties":{"SIP":128.292633286,"nr_pas":"200/300","BASHKIA":"PALASE","ZK":"2863","ADRESA":"PALASE","NR_PASURIE":"200/300","POSEDUESI":"KLEANTH KOSTA BABE, ELSA EFTIQIO BABE","NR_UNIK":"","ZONA":"Perfunduar_legalizimi"}},
{"type":"Feature","geometry":{"type":"Polygon","coordinates":[[[19.624779718456928,40.16639416442865],[19.624863609481793,40.16643591945989],[19.624860683602222,40.16643988055034],[19.624884536480597,40.16645025054493],[19.624892707756853,40.166438386745355],[19.62492388208105,40.16645193971217],[19.624915510658628,40.16646407447956],[19.624932293385786,40.166471617264406],[19.624943673153094,40.16647673175479],[19.624889838533765,40.16654555905011],[19.624845054410343,40.16654432676657],[19.62479344597301,40.166508275216785],[19.624731181952093,40.16643202849033],[19.624779718456928,40.16639416442865]]]},"properties":{"SIP":162.99913533,"nr_pas":"3/131","BASHKIA":"PALASE","ZK":"2863","ADRESA":"PALASE","NR_PASURIE":"3/131","POSEDUESI":"OLLGA JORGJI BABE","NR_UNIK":"","ZONA":"Perfunduar_legalizimi"}},
{"type":"Feature","geometry":{"type":"Polygon","coordinates":[[[19.625945771140213,40.166488414970715],[19.62596017454288,40.16650028136128],[19.62580515677838,40.16661595480907],[19.625674176960914,40.16651351931747],[19.625827667718763,40.166401034641446],[19.625945771140213,40.166488414970715]]]},"properties":{"SIP":289.976440147,"nr_pas":"3/73","BASHKIA":"PALASE","ZK":"2863","ADRESA":"PALASE","NR_PASURIE":"3/73","POSEDUESI":"KOSTË VANGJEL GJERGJI, LLUIZA MANOL GJERGJI","NR_UNIK":"11_9032158","ZONA":"Perfunduar_legalizimi"}},
{"type":"Feature","geometry":{"type":"Polygon","coordinates":[[[19.62535242540065,40.16633283383585],[19.62532866894394,40.16631645233884],[19.62533953752178,40.166307809189306],[19.625307815335514,40.16628298410485],[19.62535380525809,40.16624667309807],[19.625382056992585,40.16626791918996],[19.62535689205094,40.16628796326338],[19.625384238084525,40.16630852822931],[19.62535242540065,40.16633283383585]]]},"properties":{"SIP":31.0480444664,"nr_pas":"3/101","BASHKIA":"PALASE","ZK":"2863","ADRESA":"PALASE","NR_PASURIE":"3/101","POSEDUESI":"KIÇO MILO KONOMAJ","NR_UNIK":"","ZONA":"Perfunduar_legalizimi"}},
{"type":"Feature","geometry":{"type":"Polygon","coordinates":[[[19.625085521388794,40.1664794995515],[19.62505796879943,40.16645996889403],[19.62511711424715,40.16641085967073],[19.625154287266383,40.16645728301472],[19.625181868595508,40.166513313412615],[19.6252008575555,40.166551888689376],[19.625170896539608,40.166597480096534],[19.62507465397665,40.16655827150951],[19.62509953129214,40.16650993784341],[19.625085521388794,40.1664794995515]]]},"properties":{"SIP":132.743699958,"nr_pas":"200/678","BASHKIA":"PALASE","ZK":"2863","ADRESA":"PALASE","NR_PASURIE":"200/678","POSEDUESI":"MIRELA ARISTOTEL DUMI","NR_UNIK":"","ZONA":"Perfunduar_legalizimi"}},
{"type":"Feature","geometry":{"type":"Polygon","coordinates":[[[19.625827667718763,40.166401034641446],[19.625820790680734,40.16639594656616],[19.625680252793025,40.166269377875636],[19.62585392662931,40.16623852281387],[19.625985209243687,40.166240896185144],[19.626008822482348,40.16631984947532],[19.62603406602972,40.16640425366411],[19.62604252366657,40.166461137539],[19.625945771140213,40.166488414970715],[19.625827667718763,40.166401034641446]]]},"properties":{"SIP":500.933461487,"nr_pas":"3/99","BASHKIA":"PALASE","ZK":"2863","ADRESA":"PALASE","NR_PASURIE":"3/99","POSEDUESI":"KRISTAQ VANGJEL VERA","NR_UNIK":"11_9034377","ZONA":"Perfunduar_legalizimi"}},
{"type":"Feature","geometry":{"type":"Polygon","coordinates":[[[19.625278360556084,40.16343615421828],[19.625323094063948,40.16342021495392],[19.62538299915787,40.16339866556462],[19.625621837813334,40.16331335872577],[19.625659551471877,40.16338042653891],[19.62531759529869,40.163502404408824],[19.625278360556084,40.16343615421828]]]},"properties":{"SIP":260.733475266,"nr_pas":"200/125","BASHKIA":"PALASE","ZK":"2863","ADRESA":"PALASE","NR_PASURIE":"200/125","POSEDUESI":"LEONARD THODHORI ÇEÇO, DRITA PRENG ÇEÇO","NR_UNIK":"","ZONA":"Perfunduar_legalizimi"}},
{"type":"Feature","geometry":{"type":"Polygon","coordinates":[[[19.622899366698903,40.162409502321246],[19.622926021845934,40.16236212267949],[19.623000767277457,40.16238687533646],[19.623012653884402,40.1623908116927],[19.622986225703414,40.16243778800723],[19.622954808291794,40.162427383845205],[19.622899366698903,40.162409502321246]]]},"properties":{"SIP":45.7949187285,"nr_pas":"2/395","BASHKIA":"PALASE","ZK":"2863","ADRESA":"PALASE","NR_PASURIE":"2/395","POSEDUESI":"ARISTIDHI THANAS PAÇO","NR_UNIK":"","ZONA":"Perfunduar_legalizimi"}},
{"type":"Feature","geometry":{"type":"Polygon","coordinates":[[[19.624125816455482,40.167040458591],[19.624157973631423,40.16700893257138],[19.6241780075866,40.16702033943869],[19.624305773586585,40.16708473272475],[19.62439560991096,40.167184030245096],[19.6243502912405,40.16720233516334],[19.624327223388956,40.16721751035007],[19.624270435567112,40.16726450586338],[19.62421745361081,40.1672972167975],[19.62417177966622,40.167304827600226],[19.62399260861256,40.16729219776463],[19.62399663810724,40.16723740605524],[19.62400797717585,40.16720884907141],[19.624045594481203,40.16714848642699],[19.624125816455482,40.167040458591]]]},"properties":{"SIP":677.540389231,"nr_pas":"200/96","BASHKIA":"PALASE","ZK":"2863","ADRESA":"PALASE","NR_PASURIE":"200/96","POSEDUESI":"STEFAN SPIRO STEFANIU, JOANA JORGO STEFANIU","NR_UNIK":"","ZONA":"Perfunduar_legalizimi"}},
{"type":"Feature","geometry":{"type":"Polygon","coordinates":[[[19.625057319127233,40.16743023441777],[19.625078478974128,40.167484273745956],[19.624929915094782,40.16753025751861],[19.624902600791195,40.167484597656276],[19.624889138593378,40.16746161942808],[19.62486806079167,40.16741151197946],[19.62486865562459,40.167373984536354],[19.625018338033126,40.16733634432331],[19.625033183239076,40.1673754333325],[19.625057319127233,40.16743023441777]]]},"properties":{"SIP":252.700648394,"nr_pas":"3/216","BASHKIA":"PALASE","ZK":"2863","ADRESA":"PALASE","NR_PASURIE":"3/216","POSEDUESI":"FOTO VANGJEL KASHTA","NR_UNIK":"","ZONA":"Perfunduar_legalizimi"}},
{"type":"Feature","geometry":{"type":"Polygon","coordinates":[[[19.622779490901078,40.16723714622314],[19.622774134850363,40.16733334161344],[19.62270348666977,40.16733102645465],[19.622708842819975,40.167234831068015],[19.622714195309218,40.16717801300589],[19.62277621508392,40.167184791657434],[19.62277408366507,40.16719951052327],[19.622788415586083,40.16720270253445],[19.622779490901078,40.16723714622314]]]},"properties":{"SIP":100.409659031,"nr_pas":"200/639","BASHKIA":"PALASE","ZK":"2863","ADRESA":"PALASE","NR_PASURIE":"200/639","POSEDUESI":"FOTINA LLUKA PAÇO, STEFO LLUKA PAÇO, NIKOLLA LLUKA PAÇO, KALIRO LLUKA PAÇO, EFTALIA LLUKA PAÇO","NR_UNIK":"","ZONA":"Perfunduar_legalizimi"}},
{"type":"Feature","geometry":{"type":"Polygon","coordinates":[[[19.627205344813802,40.16261562107655],[19.627133823787567,40.16256896527953],[19.627199477217275,40.162509723012874],[19.627222179332037,40.16252453244005],[19.627246933929936,40.162502195125185],[19.627247982826344,40.162502879358605],[19.627295752820572,40.16253404144454],[19.627205344813802,40.16261562107655]]]},"properties":{"SIP":86.8302293958,"nr_pas":"200/865","BASHKIA":"PALASE","ZK":"2863","ADRESA":"PALASE","NR_PASURIE":"200/865","POSEDUESI":"ANDON DHIMITRI NESTURI, KATINA MANTHO NESTURI","NR_UNIK":"11_9030830","ZONA":"Perfunduar_legalizimi"}},
{"type":"Feature","geometry":{"type":"Polygon","coordinates":[[[19.622445864466663,40.167328982411895],[19.622471788368316,40.16715163946633],[19.622690650014576,40.16715472606369],[19.62268847912683,40.16718284958059],[19.62267493209475,40.16726913034444],[19.622608642553153,40.16726300454683],[19.622602422011845,40.167302622723284],[19.62256229931476,40.16729891497723],[19.622554605036843,40.16734023794162],[19.622445864466663,40.167328982411895]]]},"properties":{"SIP":321.4296447,"nr_pas":"3/67","BASHKIA":"PALASE","ZK":"2863","ADRESA":"PALASE","NR_PASURIE":"3/67","POSEDUESI":"LILJANA ARISTIDH PAÇO,MANTHO JORGJI PAÇO","NR_UNIK":"11_9021659","ZONA":"Perfunduar_legalizimi"}},
{"type":"Feature","geometry":{"type":"Polygon","coordinates":[[[19.62153208582875,40.16341507188513],[19.621464682370643,40.163360523281256],[19.621523495018092,40.16331774679647],[19.62135386326656,40.16318240265926],[19.621438886663245,40.16314002821567],[19.621643513497112,40.1633718304693],[19.621545386275105,40.16342488491547],[19.62153208582875,40.16341507188513]]]},"properties":{"SIP":257.419271963,"nr_pas":"3/199","BASHKIA":"PALASE","ZK":"2863","ADRESA":"PALASE","NR_PASURIE":"3/199","POSEDUESI":"VIOLETA SPIRO RISTANI","NR_UNIK":"","ZONA":"Perfunduar_legalizimi"}},
{"type":"Feature","geometry":{"type":"Polygon","coordinates":[[[19.62507465397665,40.16655827150951],[19.625066310705915,40.16657103111341],[19.625084593496435,40.166578715331255],[19.625047031786103,40.16663149224733],[19.625040188205393,40.16668984911321],[19.625029434124684,40.16672507998474],[19.62488622114685,40.16667386208682],[19.624908048956094,40.166658206206215],[19.62492756447858,40.16657037807554],[19.624918749213233,40.16656589358678],[19.624994960609428,40.16647772019145],[19.62500195218132,40.1664587587816],[19.625051217728206,40.166480363687825],[19.62506762424866,40.16646681316284],[19.625085521388794,40.1664794995515],[19.62509953129214,40.16650993784341],[19.62507465397665,40.16655827150951]]]},"properties":{"SIP":299.454075938,"nr_pas":"3/1","BASHKIA":"PALASE","ZK":"2863","ADRESA":"PALASE","NR_PASURIE":"3/1","POSEDUESI":"MIHAL THANAS LALUCI","NR_UNIK":"","ZONA":"Perfunduar_legalizimi"}},
{"type":"Feature","geometry":{"type":"Polygon","coordinates":[[[19.624089315508687,40.16745371142931],[19.62409914562121,40.16743812639267],[19.624180898546367,40.167468474845975],[19.624143887096555,40.16752715428394],[19.624159963655714,40.16753333865794],[19.62411889272352,40.16758860582935],[19.624039218923894,40.167533244504654],[19.623985453869427,40.16749673195214],[19.623980939603133,40.16747050630385],[19.624003324072614,40.16742441191586],[19.624089315508687,40.16745371142931]]]},"properties":{"SIP":172.993273577,"nr_pas":"3/5","BASHKIA":"PALASE","ZK":"2863","ADRESA":"PALASE","NR_PASURIE":"3/5","POSEDUESI":"AHILEA THODHORI THODOJANI","NR_UNIK":"","ZONA":"Perfunduar_legalizimi"}},
{"type":"Feature","geometry":{"type":"Polygon","coordinates":[[[19.624637231048766,40.167339018342965],[19.624650247632335,40.16731841818902],[19.62480570351078,40.167273381646396],[19.624842372892815,40.16729816262428],[19.624853860720087,40.16732715107488],[19.624862857773326,40.16738544010537],[19.624849797146876,40.16738825716919],[19.62485757165359,40.16741473162947],[19.624759150996244,40.16743585805757],[19.624687364705146,40.16744277383707],[19.624621204509314,40.167443274206015],[19.62461149565532,40.16742966067127],[19.624614155985483,40.16741534086468],[19.624614433798907,40.16741505758246],[19.624637231048766,40.167339018342965]]]},"properties":{"SIP":297.811752042,"nr_pas":"3/11","BASHKIA":"PALASE","ZK":"2863","ADRESA":"PALASE","NR_PASURIE":"3/11","POSEDUESI":"VAJINA ALEKS BILLA","NR_UNIK":"","ZONA":"Perfunduar_legalizimi"}},
{"type":"Feature","geometry":{"type":"Polygon","coordinates":[[[19.622954808291794,40.162427383845205],[19.62292906725458,40.16247436300575],[19.62287362563042,40.16245648146953],[19.622899366698903,40.162409502321246],[19.622954808291794,40.162427383845205]]]},"properties":{"SIP":28.9928592503,"nr_pas":"200/450","BASHKIA":"PALASE","ZK":"2863","ADRESA":"PALASE","NR_PASURIE":"200/450","POSEDUESI":"ALBERT FOTO PAÇO, LEONORA HYSEN PAÇO","NR_UNIK":"11_9028438","ZONA":"Perfunduar_legalizimi"}},
{"type":"Feature","geometry":{"type":"Polygon","coordinates":[[[19.627623082520127,40.162477531749985],[19.627691969797375,40.16251018369635],[19.62769496074831,40.162511601378384],[19.627743343961324,40.16256447436372],[19.627655400427578,40.16267320557283],[19.62748420546279,40.16260027678985],[19.62755821419966,40.16248405457749],[19.62754117678173,40.16247595775863],[19.62756346929397,40.16244594637189],[19.627623082520127,40.162477531749985]]]},"properties":{"SIP":303.662684458,"nr_pas":"201/1","BASHKIA":"PALASE","ZK":"2863","ADRESA":"PALASE","NR_PASURIE":"201/1","POSEDUESI":"THOMA MARKO PJERO","NR_UNIK":"","ZONA":"Perfunduar_legalizimi"}},
{"type":"Feature","geometry":{"type":"Polygon","coordinates":[[[19.625566422369545,40.16611635974015],[19.625559800676427,40.1660953771356],[19.62556594911675,40.16609428458641],[19.62550995686248,40.16604850510083],[19.62553803140617,40.16602643569538],[19.62555713951669,40.165996950551296],[19.625608433366224,40.165988538277475],[19.62566074665531,40.16596416439763],[19.625752823222467,40.1659949621168],[19.625746957873073,40.1660449823315],[19.625693482039868,40.16605481730338],[19.625696809496844,40.166071031220945],[19.625718772586012,40.16614377816061],[19.625607351961175,40.16616357717016],[19.625566422369545,40.16611635974015]]]},"properties":{"SIP":278.101234005,"nr_pas":"200/696","BASHKIA":"PALASE","ZK":"2863","ADRESA":"PALASE","NR_PASURIE":"200/696","POSEDUESI":"DHIMITRAQ THOMA GJERGJI ,LENA PANO GJERGJI","NR_UNIK":"11_9032156","ZONA":"Perfunduar_legalizimi"}},
{"type":"Feature","geometry":{"type":"Polygon","coordinates":[[[19.625012685876897,40.166905118431984],[19.62502795131016,40.166921128775634],[19.62503583203261,40.16692830274945],[19.624978744183373,40.16697351052882],[19.624950492342577,40.16694303809764],[19.62491854098421,40.16690754975855],[19.624898468272384,40.166883565165854],[19.62488519274884,40.16686270985302],[19.624855933222815,40.16681674426559],[19.624916624488634,40.16679400627291],[19.624945884046074,40.166839971845285],[19.624958533476175,40.1668354124707],[19.625012685876897,40.166905118431984]]]},"properties":{"SIP":126.054663352,"nr_pas":"200/344","BASHKIA":"PALASE","ZK":"2863","ADRESA":"PALASE","NR_PASURIE":"200/344","POSEDUESI":"JANI ARISTOTEL ÇAÇI, VALENTINA KOÇO ÇAÇI , MIMOZA ABDI ÇAÇI","NR_UNIK":"","ZONA":"Perfunduar_legalizimi"}},
{"type":"Feature","geometry":{"type":"Polygon","coordinates":[[[19.62312090572396,40.16625045194728],[19.623176340988675,40.16609071160311],[19.623360126764773,40.16613842288896],[19.623294663305185,40.16629404619212],[19.62312090572396,40.16625045194728]]]},"properties":{"SIP":292.748966324,"nr_pas":"3/40","BASHKIA":"PALASE","ZK":"2863","ADRESA":"PALASE","NR_PASURIE":"3/40","POSEDUESI":"KASIANI JORGJI KUÇI","NR_UNIK":"","ZONA":"Perfunduar_legalizimi"}},
{"type":"Feature","geometry":{"type":"Polygon","coordinates":[[[19.62223958790267,40.16320893928868],[19.62235984888435,40.16315482460365],[19.62237969412898,40.163146549461615],[19.62238509120306,40.16315341766714],[19.622471826152996,40.16326450157521],[19.622270222946593,40.16335528473253],[19.622183509676507,40.16324032866576],[19.62223958790267,40.16320893928868]]]},"properties":{"SIP":301.806325428,"nr_pas":"3/178","BASHKIA":"PALASE","ZK":"2863","ADRESA":"PALASE","NR_PASURIE":"3/178","POSEDUESI":"SPIRO HARILLA THODHORJANI, MIRELA PAVLLO THODHORJANI","NR_UNIK":"","ZONA":"Perfunduar_legalizimi"}},
{"type":"Feature","geometry":{"type":"Polygon","coordinates":[[[19.6204833161889,40.170696398745825],[19.620427992621774,40.17066117410891],[19.620529464161688,40.17056738550448],[19.620584787705877,40.170602610093376],[19.6204833161889,40.170696398745825]]]},"properties":{"SIP":82.8854704239,"nr_pas":"201/111","BASHKIA":"PALASE","ZK":"2863","ADRESA":"PALASE","NR_PASURIE":"201/111","POSEDUESI":"VANGJEL SIMO BABE, KALIOPI KRISTO ÇURI","NR_UNIK":"","ZONA":"Perfunduar_legalizimi"}},
{"type":"Feature","geometry":{"type":"Polygon","coordinates":[[[19.625776335563426,40.16514844749041],[19.62575657932669,40.165128694770154],[19.62572338644735,40.165087624817104],[19.62565153116922,40.16498067490349],[19.6257576917655,40.16493243784344],[19.625792951954985,40.16503037816515],[19.62583371734962,40.16503673429164],[19.625842421172692,40.16506155952801],[19.62585915419636,40.16505446514446],[19.625887668834892,40.1650935759283],[19.625851116915452,40.165112603764406],[19.625776335563426,40.16514844749041]]]},"properties":{"SIP":250.836757193,"nr_pas":"201/250","BASHKIA":"PALASE","ZK":"2863","ADRESA":"PALASE","NR_PASURIE":"201/250","POSEDUESI":"KIÇO VASIL KONOMAJ, MIRELA VASIL KONOMAJ","NR_UNIK":"11_9032145","ZONA":"Perfunduar_legalizimi"}},
{"type":"Feature","geometry":{"type":"Polygon","coordinates":[[[19.624979816868823,40.16519361688699],[19.62493933685192,40.165043129946326],[19.62514479003378,40.16501496318144],[19.62517932617632,40.16517329410999],[19.624979816868823,40.16519361688699]]]},"properties":{"SIP":304.346486845,"nr_pas":"3/142","BASHKIA":"PALASE","ZK":"2863","ADRESA":"PALASE","NR_PASURIE":"3/142","POSEDUESI":"VALENTINA MINELLA GJIKOKA","NR_UNIK":"","ZONA":"Perfunduar_legalizimi"}},
{"type":"Feature","geometry":{"type":"Polygon","coordinates":[[[19.6253355452781,40.166557491813705],[19.625392235664325,40.16658448193971],[19.625448947704477,40.166607540459054],[19.62542498333181,40.16664463488749],[19.625373840258636,40.16662552602417],[19.625359779259487,40.16664084970125],[19.62528752798085,40.16664776435046],[19.625191298421825,40.16660956608589],[19.625214327211086,40.16657318352261],[19.625290303517843,40.166566638396795],[19.6253355452781,40.166557491813705]]]},"properties":{"SIP":141.106475531,"nr_pas":"3/93","BASHKIA":"PALASE","ZK":"2863","ADRESA":"PALASE","NR_PASURIE":"3/93","POSEDUESI":"PETRO KOSTA MILO","NR_UNIK":"","ZONA":"Perfunduar_legalizimi"}},
{"type":"Feature","geometry":{"type":"Polygon","coordinates":[[[19.62535065032095,40.16523799147788],[19.62524757603838,40.165089327486484],[19.62543336087585,40.16502309059994],[19.625553202990258,40.16517252350127],[19.62535065032095,40.16523799147788]]]},"properties":{"SIP":343.186800294,"nr_pas":"200/456","BASHKIA":"PALASE","ZK":"2863","ADRESA":"PALASE","NR_PASURIE":"200/456","POSEDUESI":"HRISTO PASKAL GJERGJI","NR_UNIK":"","ZONA":"Perfunduar_legalizimi"}},
{"type":"Feature","geometry":{"type":"Polygon","coordinates":[[[19.625566422369545,40.16611635974015],[19.625607351961175,40.16616357717016],[19.625632062800403,40.16621064678092],[19.62564566898729,40.1662074143987],[19.625666394755527,40.16625096782971],[19.625612738256365,40.16626538910368],[19.625568486093766,40.16626405459832],[19.625447635554014,40.16628361982023],[19.625422359390715,40.16629098435682],[19.62533567044684,40.16620056386942],[19.625335529563337,40.16619794231406],[19.625364557599625,40.16617194438755],[19.62543176488054,40.16615023990196],[19.625487095031048,40.1661326867484],[19.62556020992855,40.166109809887445],[19.625566422369545,40.16611635974015]]]},"properties":{"SIP":337.881115098,"nr_pas":"3/89","BASHKIA":"PALASE","ZK":"2863","ADRESA":"PALASE","NR_PASURIE":"3/89","POSEDUESI":"KRISTO KOSTA BABE","NR_UNIK":"","ZONA":"Perfunduar_legalizimi"}},
{"type":"Feature","geometry":{"type":"Polygon","coordinates":[[[19.62572338644735,40.165087624817104],[19.62575657932669,40.165128694770154],[19.625776335563426,40.16514844749041],[19.625786168395457,40.16516538651943],[19.625657163210697,40.165242172815475],[19.625584913606957,40.16516425933513],[19.62550408047618,40.16506582581071],[19.625655427806507,40.16498647469624],[19.62572338644735,40.165087624817104]]]},"properties":{"SIP":339.814457791,"nr_pas":"200/348","BASHKIA":"PALASE","ZK":"2863","ADRESA":"PALASE","NR_PASURIE":"200/348","POSEDUESI":"LEFTER VASIL KONOMAJ, MIMOZA KISTRO KONOMAJ","NR_UNIK":"","ZONA":"Perfunduar_legalizimi"}},
{"type":"Feature","geometry":{"type":"Polygon","coordinates":[[[19.623074301463852,40.16649866535273],[19.62317790548325,40.16651205616324],[19.62319107910414,40.166513793067466],[19.623184788314884,40.16654625031154],[19.623170816592314,40.16654433699147],[19.623066391796325,40.16653084009491],[19.622995265590212,40.1665216469815],[19.62300235456178,40.16648936616427],[19.623074301463852,40.16649866535273]]]},"properties":{"SIP":59.3968326828,"nr_pas":"3/13","BASHKIA":"PALASE","ZK":"2863","ADRESA":"PALASE","NR_PASURIE":"3/13","POSEDUESI":"QIRJAKO VANGJEL NIKA, MELPO ANDREA NIKA","NR_UNIK":"","ZONA":"Perfunduar_legalizimi"}},
{"type":"Feature","geometry":{"type":"Polygon","coordinates":[[[19.621599485955343,40.166328754330316],[19.621602476094704,40.166210590073604],[19.62158064760867,40.1661487460334],[19.621716054004388,40.166140235894396],[19.62173199301998,40.166211908828636],[19.62174764386689,40.166335505357786],[19.621599485955343,40.166328754330316]]]},"properties":{"SIP":242.797813109,"nr_pas":"200/230","BASHKIA":"PALASE","ZK":"2863","ADRESA":"PALASE","NR_PASURIE":"200/230","POSEDUESI":"EMILIANO UMBERTO PAPUÇIU","NR_UNIK":"11_8304863","ZONA":"Perfunduar_legalizimi"}},
{"type":"Feature","geometry":{"type":"Polygon","coordinates":[[[19.619433798050917,40.167717621736195],[19.619551248302653,40.16776671118905],[19.619567969832257,40.16777582083599],[19.619524855071074,40.167820952683655],[19.619299756690157,40.16797223647861],[19.61917096465168,40.16789746905488],[19.61937772023137,40.167693703241696],[19.619433798050917,40.167717621736195]]]},"properties":{"SIP":496.760481073,"nr_pas":"200/220","BASHKIA":"PALASE","ZK":"2863","ADRESA":"PALASE","NR_PASURIE":"200/220","POSEDUESI":"TATIANA LEANDRO PAPUÇIU","NR_UNIK":"11_3022710","ZONA":"Perfunduar_legalizimi"}},
{"type":"Feature","geometry":{"type":"Polygon","coordinates":[[[19.623093198872013,40.16497722863671],[19.622967232612876,40.1649114475392],[19.62312208170029,40.16473905046617],[19.623248485222987,40.164812993043],[19.623093198872013,40.16497722863671]]]},"properties":{"SIP":303.382848162,"nr_pas":"200/581","BASHKIA":"HIMARE","ZK":"2863","ADRESA":"GJILEKE","NR_PASURIE":"200/581","POSEDUESI":"KSENOFON ILIA BABE, AFËRDITA LEFTER BABE","NR_UNIK":"","ZONA":"Perfunduar_legalizimi"}},
{"type":"Feature","geometry":{"type":"Polygon","coordinates":[[[19.623095494420976,40.16628409983518],[19.623060415121714,40.166286557399886],[19.622950648929685,40.16627458858072],[19.622967430989657,40.16614966260449],[19.623013610025478,40.16603841616172],[19.623190135151475,40.16605096269743],[19.623115917628883,40.16626482543107],[19.623095494420976,40.16628409983518]]]},"properties":{"SIP":400.49269446,"nr_pas":"200/187","BASHKIA":"HIMARE","ZK":"2863","ADRESA":"PALASE, BASHKIA HIMARE","NR_PASURIE":"","POSEDUESI":"11_8311440 FOTAQ LLUKE KONOMAJ","NR_UNIK":"11_8311440","ZONA":"Perfunduar_legalizimi"}},
{"type":"Feature","geometry":{"type":"Polygon","coordinates":[[[19.623094704835314,40.16275682728645],[19.623249613781173,40.162875404229624],[19.6231962715488,40.16293687231764],[19.623152167583584,40.162968791376485],[19.62313388521879,40.162983865092684],[19.622976879962625,40.16283607085517],[19.623094704835314,40.16275682728645]]]},"properties":{"SIP":291.482059755,"nr_pas":"200/244","BASHKIA":"HIMARE","ZK":"2863","ADRESA":"PALASE, BASHKIA HIMARE","NR_PASURIE":"","POSEDUESI":"11_8309835 ARTUR THODHORI GJERGJI","NR_UNIK":"11_8309835","ZONA":"Perfunduar_legalizimi"}},
{"type":"Feature","geometry":{"type":"Polygon","coordinates":[[[19.62225298836506,40.15578019198537],[19.62204481855902,40.15569849910362],[19.622042605409938,40.15567758692848],[19.622045394938123,40.15564176204719],[19.622090532321934,40.155547299051754],[19.622098402616945,40.155528706014714],[19.622224545481277,40.155576175399766],[19.62238462364117,40.15563140170408],[19.622292522189387,40.15579338963204],[19.62225298836506,40.15578019198537]]]},"properties":{"SIP":500.46522398,"nr_pas":"200/222","BASHKIA":"HIMARE","ZK":"2863","ADRESA":"GJILEKE , BASHKIA HIMARE","NR_PASURIE":"","POSEDUESI":"11_8143302 GENC THANAS JANI","NR_UNIK":"11_8143302","ZONA":"Perfunduar_legalizimi"}},
{"type":"Feature","geometry":{"type":"Polygon","coordinates":[[[19.625942451056105,40.16506028184446],[19.625880535578634,40.165044034154825],[19.62579295195498,40.16503037816516],[19.625757691765507,40.164932437843426],[19.62582645951742,40.16491454224939],[19.62611056797227,40.16487461660374],[19.62617027010969,40.16501496354957],[19.625942451056105,40.16506028184446]]]},"properties":{"SIP":500.512593541,"nr_pas":"200/250","BASHKIA":"HIMARE","ZK":"2863","ADRESA":"PALASE , BASHKIA HIMARE","NR_PASURIE":"","POSEDUESI":"11_8304797 KIÇO VASIL KONOMAJ","NR_UNIK":"11_8304797","ZONA":"Perfunduar_legalizimi"}},
{"type":"Feature","geometry":{"type":"Polygon","coordinates":[[[19.623002354561773,40.16648936616425],[19.623011503403333,40.166448528625395],[19.623069363756283,40.16645615745735],[19.62306717593834,40.166465923426415],[19.623197940663783,40.16648316445066],[19.623191079104128,40.16651379306748],[19.623060314322103,40.16649655203461],[19.623002354561773,40.16648936616425]]]},"properties":{"SIP":61.8902998369,"nr_pas":"200/112","BASHKIA":"HIMARE","ZK":"2863","ADRESA":"PALASE, BASHKIA HIMARE","NR_PASURIE":"","POSEDUESI":"11_8143314 DHIMITER MILTO NIKA","NR_UNIK":"11_8143314","ZONA":"Perfunduar_legalizimi"}},
{"type":"Feature","geometry":{"type":"Polygon","coordinates":[[[19.623002354561773,40.16648936616425],[19.622797157216677,40.1664623096263],[19.622791548622416,40.166378653764724],[19.622939361887582,40.166372821086114],[19.622950648929685,40.16627458858072],[19.623060415121714,40.166286557399886],[19.623095494420976,40.16628409983518],[19.623085374169886,40.16638469040159],[19.62327342047911,40.16640948568303],[19.623264669363,40.16644854777526],[19.62321548752927,40.16644206280601],[19.6232082284174,40.16647446689436],[19.623069363756283,40.16645615745735],[19.623011503403333,40.166448528625395],[19.623002354561773,40.16648936616425]]]},"properties":{"SIP":499.190380934,"nr_pas":"200/113","BASHKIA":"HIMARE","ZK":"2863","ADRESA":"PALASE, BASHKIA HIMARE","NR_PASURIE":"","POSEDUESI":"11_2215791 EFTIHIA MILTO PANAJOTI; AFERDITA MILTO*","NR_UNIK":"11_2215791","ZONA":"Perfunduar_legalizimi"}},
{"type":"Feature","geometry":{"type":"Polygon","coordinates":[[[19.628355820496566,40.16246948469528],[19.628298260204872,40.16234097422848],[19.6285454430394,40.162276660585135],[19.628601306694453,40.16240430938279],[19.628355820496566,40.16246948469528]]]},"properties":{"SIP":333.19088281,"nr_pas":"200/105","BASHKIA":"HIMARE","ZK":"2863","ADRESA":"PALASE, BASHKIA HIMARE","NR_PASURIE":"","POSEDUESI":"11_3020778 ILIA KOSTA GJOVASHI","NR_UNIK":"11_3020778","ZONA":"Perfunduar_legalizimi"}},
{"type":"Feature","geometry":{"type":"Polygon","coordinates":[[[19.624364802181205,40.16292528050411],[19.624628085061993,40.16283030678109],[19.624629003960145,40.16284557642268],[19.624642956293282,40.1628883435474],[19.62468828430385,40.16294299615618],[19.624734634008227,40.16300410599954],[19.624481304883847,40.16309459367469],[19.624364802181205,40.16292528050411]]]},"properties":{"SIP":500.297994966,"nr_pas":"200/100","BASHKIA":"HIMARE","ZK":"2863","ADRESA":"PALASE, BASHKIA HIMARE","NR_PASURIE":"","POSEDUESI":"11_8143312 PASKAL KOÇO MILO","NR_UNIK":"11_8143312","ZONA":"Perfunduar_legalizimi"}},
{"type":"Feature","geometry":{"type":"Polygon","coordinates":[[[19.624481304883847,40.16309459367469],[19.62422186422793,40.16316612237135],[19.624153767143234,40.16305915247391],[19.624117879627214,40.16300186678401],[19.62412235200246,40.16298054042738],[19.624364802181205,40.16292528050411],[19.624481304883847,40.16309459367469]]]},"properties":{"SIP":500.259828263,"nr_pas":"200/104","BASHKIA":"HIMARE","ZK":"2863","ADRESA":"PALASE , BASHKIA HIMARE","NR_PASURIE":"","POSEDUESI":"11_8143313 LLUKA KOÇO PETROMILO","NR_UNIK":"11_8143313","ZONA":"Perfunduar_legalizimi"}},
{"type":"Feature","geometry":{"type":"Polygon","coordinates":[[[19.626949632337446,40.16544080173026],[19.62687616856474,40.16533969597951],[19.626957291465597,40.1653050028389],[19.627021716344274,40.165393484087566],[19.6269819967839,40.16541004651978],[19.626991373034944,40.16542294975314],[19.626949632337446,40.16544080173026]]]},"properties":{"SIP":95.5273730936,"nr_pas":"22/8-ND","BASHKIA":"HIMARE","ZK":"2863","ADRESA":"PALASE, BASHKIA HIMARE","NR_PASURIE":"","POSEDUESI":"11_8304771 ADISELDO BANUSH RRAPAJ","NR_UNIK":"11_8304771","ZONA":"Perfunduar_legalizimi"}},
{"type":"Feature","geometry":{"type":"Polygon","coordinates":[[[19.62389091629169,40.167574403654065],[19.62389007569889,40.16752534075172],[19.623929950066458,40.16744929171592],[19.623985985783303,40.16736372701441],[19.624031956163012,40.16734894668314],[19.623953834055733,40.16748287590769],[19.623984708901318,40.16749240401507],[19.623995465266923,40.167495723466665],[19.623992446464243,40.167501480718464],[19.623967419960337,40.16754920949604],[19.623898627934132,40.16757658544061],[19.62389091629169,40.167574403654065]]]},"properties":{"SIP":0,"nr_pas":"200/189","BASHKIA":"","ZK":"2863","ADRESA":"PALASE","NR_PASURIE":"200/189","POSEDUESI":"VANGJEL KUCI","NR_UNIK":"","ZONA":"Perfunduar_legalizimi"}},
{"type":"Feature","geometry":{"type":"Polygon","coordinates":[[[19.62269678475051,40.16710715526668],[19.622474765423906,40.16711242239685],[19.62248733938267,40.16694986693034],[19.62255209315449,40.16690181966086],[19.622683513819478,40.16689798419842],[19.62269678475051,40.16710715526668]]]},"properties":{"SIP":0,"nr_pas":"200/636","BASHKIA":"HIMARE","ZK":"","ADRESA":"PALASE","NR_PASURIE":"200/636","POSEDUESI":"ILIR,LAURETA  PACO,HASANAJ","NR_UNIK":"11_8185134","ZONA":"Perfunduar_legalizimi"}},
{"type":"Feature","geometry":{"type":"Polygon","coordinates":[[[19.6259977566382,40.16579535558853],[19.625810128803924,40.165786566564776],[19.625707367141995,40.16576852324067],[19.62569550760464,40.16568863307941],[19.62581995454911,40.165675615862156],[19.626009227005344,40.16568528734026],[19.6259977566382,40.16579535558853]]]},"properties":{"SIP":0,"nr_pas":"200/251","BASHKIA":"HIMARE","ZK":"","ADRESA":"PALASE","NR_PASURIE":"200/251","POSEDUESI":"PILO KLIO GJIKOKAJ","NR_UNIK":"","ZONA":"Perfunduar_legalizimi"}},
{"type":"Feature","geometry":{"type":"Polygon","coordinates":[[[19.62717616760344,40.164842929006994],[19.627176139785593,40.16484294291265],[19.62705253936625,40.164904728228095],[19.62704644771956,40.164897555468734],[19.627036210508372,40.16490264191729],[19.626925642724615,40.16477207357973],[19.627058097175897,40.164705348596264],[19.62717616760344,40.164842929006994]]]},"properties":{"SIP":0,"nr_pas":"200/351","BASHKIA":"","ZK":"","ADRESA":"","NR_PASURIE":"200/351","POSEDUESI":"FLORENCA KONDI","NR_UNIK":"","ZONA":"Perfunduar_legalizimi"}},
{"type":"Feature","geometry":{"type":"Polygon","coordinates":[[[19.62717616760344,40.164842929006994],[19.627058097175897,40.164705348596264],[19.627058320700865,40.1647052359935],[19.627186799318732,40.164640513553394],[19.627303433210823,40.1647793112761],[19.62717616760344,40.164842929006994]]]},"properties":{"SIP":0,"nr_pas":"200/352","BASHKIA":"","ZK":"","ADRESA":"","NR_PASURIE":"200/352","POSEDUESI":"ANDREA VANGJELI","NR_UNIK":"","ZONA":"Perfunduar_legalizimi"}},
{"type":"Feature","geometry":{"type":"Polygon","coordinates":[[[19.627303433210823,40.1647793112761],[19.627186799318732,40.164640513553394],[19.62731772428708,40.16457455848279],[19.627436174535795,40.16471295606476],[19.627303433210823,40.1647793112761]]]},"properties":{"SIP":0,"nr_pas":"200/353","BASHKIA":"","ZK":"","ADRESA":"","NR_PASURIE":"200/353","POSEDUESI":"ALBES LAZAJ","NR_UNIK":"","ZONA":"Perfunduar_legalizimi"}},
{"type":"Feature","geometry":{"type":"Polygon","coordinates":[[[19.62525514214708,40.164000376622376],[19.625248620917816,40.16398412854888],[19.625203545248976,40.16385511155351],[19.6251872264518,40.16376688279898],[19.62538588152718,40.16375297174016],[19.625435684905952,40.163972868405885],[19.62525514214708,40.164000376622376]]]},"properties":{"SIP":0,"nr_pas":"200/259","BASHKIA":"","ZK":"","ADRESA":"","NR_PASURIE":"200/259","POSEDUESI":"VANGJEL NIKOLLA PETROMILO","NR_UNIK":"11_8304797","ZONA":"Perfunduar_legalizimi"}}
]}