{"type":"FeatureCollection", "features": [
{"type":"Feature","geometry":{"type":"Point","coordinates":[20.038442589443864,40.275580322374786]},"properties":{"NAME":"1 - MINELLA PASKAL PACO","SOURCE":"KRISTI-ARSEN","NR":"1","EMER_MBIEM":"MINELLA PASKAL PACO","NR_TEL":"0694916837","ID":"G30317210H","VETDEKL":"JO","GEN_PLAN":"PO","FOTOGRAFI":"PO","DEKLARATE":"JO","KOORD_ORIG":"N40*16'32.10\" E19*62'18.41\"","PENALITET":"JO","GR_PUNIM":"KRISTI/ARSEN","KONVERTIM":"DMS → WGS84 (vlerat >60 u normalizuan matematikisht)","LAT_WGS84":40.27558333,"LON_WGS84":20.03844722,"INFO_ALL":"NR: 1 | Emer Mbiemer: MINELLA PASKAL PACO | nr tel: 0694916837 | ID: G30317210H | Vetdeklarimi/Aplikim: JO | gen plan/akt konsttimi/planimetri: PO | fotografite: PO | deklarate: JO | Koordinatat: N40*16'32.10\" E19*62'18.41\" | deshmi penaliteti: JO | gr p","shenime":""}},
{"type":"Feature","geometry":{"type":"Point","coordinates":[20.03811480945315,40.275760882368694]},"properties":{"NAME":"2 - KRISTAQ PASKAL PACO","SOURCE":"KRISTI-ARSEN","NR":"2","EMER_MBIEM":"KRISTAQ PASKAL PACO","NR_TEL":"06949168370684091395","ID":"G01212007P","VETDEKL":"JO","GEN_PLAN":"PO","FOTOGRAFI":"PO","DEKLARATE":"JO","KOORD_ORIG":"N40*16'32.75\" E19*62'17.23\"","PENALITET":"JO","GR_PUNIM":"KRISTI/ARSEN","KONVERTIM":"DMS → WGS84 (vlerat >60 u normalizuan matematikisht)","LAT_WGS84":40.27576389,"LON_WGS84":20.03811944,"INFO_ALL":"NR: 2 | Emer Mbiemer: KRISTAQ PASKAL PACO | nr tel: 06949168370684091395 | ID: G01212007P | Vetdeklarimi/Aplikim: JO | gen plan/akt konsttimi/planimetri: PO | fotografite: PO | deklarate: JO | Koordinatat: N40*16'32.75\" E19*62'17.23\" | deshmi penaliteti:","shenime":""}},
{"type":"Feature","geometry":{"type":"Point","coordinates":[20.037770369465957,40.275852552362345]},"properties":{"NAME":"3 - JONILDA AKILEA PACO","SOURCE":"KRISTI-ARSEN","NR":"3","EMER_MBIEM":"JONILDA AKILEA PACO","NR_TEL":"0693240801","ID":"H76008080H","VETDEKL":"JO","GEN_PLAN":"PO","FOTOGRAFI":"PO","DEKLARATE":"JO","KOORD_ORIG":"N40*16'33.08\" E19*62'15.99\"","PENALITET":"JO","GR_PUNIM":"KRISTI/ARSEN","KONVERTIM":"DMS → WGS84 (vlerat >60 u normalizuan matematikisht)","LAT_WGS84":40.27585556,"LON_WGS84":20.037775,"INFO_ALL":"NR: 3 | Emer Mbiemer: JONILDA AKILEA PACO | nr tel: 0693240801 | ID: H76008080H | Vetdeklarimi/Aplikim: JO | gen plan/akt konsttimi/planimetri: PO | fotografite: PO | deklarate: JO | Koordinatat: N40*16'33.08\" E19*62'15.99\" | deshmi penaliteti: JO | gr p","shenime":""}},
{"type":"Feature","geometry":{"type":"Point","coordinates":[20.043389808902873,40.28572755245869]},"properties":{"NAME":"4 - NAPOLEON DHIMDEA\nANDREA DHIMDEA\nTIMOTHEO DHIMDEA","SOURCE":"KRISTI-ARSEN","NR":"4","EMER_MBIEM":"NAPOLEON DHIMDEA ,ANDREA DHIMDEA,TIMOTHEO DHIMDEA","NR_TEL":"069777553206853488610692205229","ID":"F70915197J","VETDEKL":"JO","GEN_PLAN":"PO","FOTOGRAFI":"PO","DEKLARATE":"JO","KOORD_ORIG":"N40*16'68.63\" E19*62'36.22\"","PENALITET":"JO","GR_PUNIM":"KRISTI/ARSEN","KONVERTIM":"DMS → WGS84 (vlerat >60 u normalizuan matematikisht)","LAT_WGS84":40.28573056,"LON_WGS84":20.04339444,"INFO_ALL":"NR: 4 | Emer Mbiemer: NAPOLEON DHIMDEAANDREA DHIMDEATIMOTHEO DHIMDEA | nr tel: 069777553206853488610692205229 | ID: F70915197J | Vetdeklarimi/Aplikim: JO | gen plan/akt konsttimi/planimetri: PO | fotografite: PO | deklarate: JO | Koordinatat: N40*16'68.6","shenime":""}},
{"type":"Feature","geometry":{"type":"Point","coordinates":[20.04820092864484,40.28698588254582]},"properties":{"NAME":"5 - KSENOFON SPIRO BILLA","SOURCE":"KRISTI-ARSEN","NR":"5","EMER_MBIEM":"KSENOFON SPIRO BILLA","NR_TEL":"JO","ID":"JO","VETDEKL":"JO","GEN_PLAN":"PO","FOTOGRAFI":"PO","DEKLARATE":"JO","KOORD_ORIG":"N40*16'73.16\" E19*62'53.54\"","PENALITET":"JO","GR_PUNIM":"KRISTI/ARSEN","KONVERTIM":"DMS → WGS84 (vlerat >60 u normalizuan matematikisht)","LAT_WGS84":40.28698889,"LON_WGS84":20.04820556,"INFO_ALL":"NR: 5 | Emer Mbiemer: KSENOFON SPIRO BILLA | nr tel: JO | ID: JO | Vetdeklarimi/Aplikim: JO | gen plan/akt konsttimi/planimetri: PO | fotografite: PO | deklarate: JO | Koordinatat: N40*16'73.16\" E19*62'53.54\" | deshmi penaliteti: JO | gr punimit: KRISTI/","shenime":""}},
{"type":"Feature","geometry":{"type":"Point","coordinates":[19.625097441597106,40.166218924959594]},"properties":{"NAME":"6 - NAPOLON MARKO PIRO","SOURCE":"KRISTI-ARSEN","NR":"6","EMER_MBIEM":"NAPOLON MARKO PIRO","NR_TEL":"0693630074","ID":"F91013012M","VETDEKL":"JO","GEN_PLAN":"PO","FOTOGRAFI":"PO","DEKLARATE":"PO","KOORD_ORIG":"KRRGJSH 4448053.08N468063.74 E","PENALITET":"JO","GR_PUNIM":"KRISTI/ARSEN","KONVERTIM":"KRGJSH → WGS84","LAT_WGS84":40.16622194,"LON_WGS84":19.62510205,"INFO_ALL":"NR: 6 | Emer Mbiemer: NAPOLON MARKO PIRO | nr tel: 0693630074 | ID: F91013012M | Vetdeklarimi/Aplikim: JO | gen plan/akt konsttimi/planimetri: PO | fotografite: PO | deklarate: PO | Koordinatat: KRRGJSH 4448053.08N468063.74 E | deshmi penaliteti: JO | gr","shenime":"miratuar me vendim (PJERO)"}},
{"type":"Feature","geometry":{"type":"Point","coordinates":[19.623598241657906,40.166457574932544]},"properties":{"NAME":"7 - MASIM LLUKA DHIMDEA","SOURCE":"KRISTI-ARSEN","NR":"7","EMER_MBIEM":"MASIM LLUKA DHIMDEA","NR_TEL":"0697564108","ID":"F50710062B","VETDEKL":"JO","GEN_PLAN":"PO","FOTOGRAFI":"PO","DEKLARATE":"JO","KOORD_ORIG":"KRRGJSH 4448080.12 N467936.14 E","PENALITET":"JO","GR_PUNIM":"KRISTI/ARSEN","KONVERTIM":"KRGJSH → WGS84","LAT_WGS84":40.16646059,"LON_WGS84":19.62360285,"INFO_ALL":"NR: 7 | Emer Mbiemer: MASIM LLUKA DHIMDEA | nr tel: 0697564108 | ID: F50710062B | Vetdeklarimi/Aplikim: JO | gen plan/akt konsttimi/planimetri: PO | fotografite: PO | deklarate: JO | Koordinatat: KRRGJSH 4448080.12 N467936.14 E | deshmi penaliteti: JO |","shenime":""}},
{"type":"Feature","geometry":{"type":"Point","coordinates":[19.625269651580837,40.16649568496251]},"properties":{"NAME":"8 - AFRODHITI PANO BITRI","SOURCE":"KRISTI-ARSEN","NR":"8","EMER_MBIEM":"AFRODHITI PANO BITRI","NR_TEL":"0672040523","ID":"F15310062S","VETDEKL":"JO","GEN_PLAN":"PO","FOTOGRAFI":"PO","DEKLARATE":"JO","KOORD_ORIG":"KRRGJSH 4448083.75 N468078.54 E","PENALITET":"JO","GR_PUNIM":"KRISTI/ARSEN","KONVERTIM":"KRGJSH → WGS84","LAT_WGS84":40.1664987,"LON_WGS84":19.62527426,"INFO_ALL":"NR: 8 | Emer Mbiemer: AFRODHITI PANO BITRI | nr tel: 0672040523 | ID: F15310062S | Vetdeklarimi/Aplikim: JO | gen plan/akt konsttimi/planimetri: PO | fotografite: PO | deklarate: JO | Koordinatat: KRRGJSH 4448083.75 N468078.54 E | deshmi penaliteti: JO |","shenime":"miratuar me vendim"}},
{"type":"Feature","geometry":{"type":"Point","coordinates":[19.62459384155107,40.16847795494913]},"properties":{"NAME":"9 - NIKOLLAQ VASIL ELMAZAJ","SOURCE":"KRISTI-ARSEN","NR":"9","EMER_MBIEM":"NIKOLLAQ VASIL ELMAZAJ","NR_TEL":"0699255886","ID":"K10708042B","VETDEKL":"JO","GEN_PLAN":"PO","FOTOGRAFI":"PO","DEKLARATE":"JO","KOORD_ORIG":"KRRGJSH 444830.41 N468021.9 E","PENALITET":"JO","GR_PUNIM":"KRISTI/ARSEN","KONVERTIM":"KRGJSH → WGS84 (northing normalized ×10)","LAT_WGS84":40.16848097,"LON_WGS84":19.62459845,"INFO_ALL":"NR: 9 | Emer Mbiemer: NIKOLLAQ VASIL ELMAZAJ | nr tel: 0699255886 | ID: K10708042B | Vetdeklarimi/Aplikim: JO | gen plan/akt konsttimi/planimetri: PO | fotografite: PO | deklarate: JO | Koordinatat: KRRGJSH 444830.41 N468021.9 E | deshmi penaliteti: JO |","shenime":""}},
{"type":"Feature","geometry":{"type":"Point","coordinates":[19.625232781562914,40.16713841496144]},"properties":{"NAME":"10 - KRISTO ILJA BILLA","SOURCE":"KRISTI-ARSEN","NR":"10","EMER_MBIEM":"KRISTO ILJA BILLA","NR_TEL":"0682159544","ID":"G61223029O","VETDEKL":"JO","GEN_PLAN":"PO","FOTOGRAFI":"PO","DEKLARATE":"JO","KOORD_ORIG":"KRRGJSH 4448155.13 N468075.7 E","PENALITET":"JO","GR_PUNIM":"KRISTI/ARSEN","KONVERTIM":"KRGJSH → WGS84","LAT_WGS84":40.16714143,"LON_WGS84":19.62523739,"INFO_ALL":"NR: 10 | Emer Mbiemer: KRISTO ILJA BILLA | nr tel: 0682159544 | ID: G61223029O | Vetdeklarimi/Aplikim: JO | gen plan/akt konsttimi/planimetri: PO | fotografite: PO | deklarate: JO | Koordinatat: KRRGJSH 4448155.13 N468075.7 E | deshmi penaliteti: JO | gr","shenime":""}},
{"type":"Feature","geometry":{"type":"Point","coordinates":[19.62531089158631,40.166254824963424]},"properties":{"NAME":"11 - ILIJA MILO KONOMAJ","SOURCE":"KRISTI-ARSEN","NR":"11","EMER_MBIEM":"ILIJA MILO KONOMAJ","NR_TEL":"00306977041521","ID":"G50523042B","VETDEKL":"PO","GEN_PLAN":"PO","FOTOGRAFI":"PO","DEKLARATE":"JO","KOORD_ORIG":"KRRGJSH 4448056.99 N468081.94 E","PENALITET":"PO","GR_PUNIM":"KRISTI/ARSEN","KONVERTIM":"KRGJSH → WGS84","LAT_WGS84":40.16625784,"LON_WGS84":19.6253155,"INFO_ALL":"NR: 11 | Emer Mbiemer: ILIJA MILO KONOMAJ | nr tel: 00306977041521 | ID: G50523042B | Vetdeklarimi/Aplikim: PO | gen plan/akt konsttimi/planimetri: PO | fotografite: PO | deklarate: JO | Koordinatat: KRRGJSH 4448056.99 N468081.94 E | deshmi penaliteti: P","shenime":""}},
{"type":"Feature","geometry":{"type":"Point","coordinates":[19.62425928162931,40.16641087494445]},"properties":{"NAME":"Arqile Jorgji Gjini","SOURCE":"Olsjan Koci","NR":"","EMER_MBIEM":"Arqile Jorgji Gjini","NR_TEL":"692627518","ID":"ska","VETDEKL":"po","GEN_PLAN":"po","FOTOGRAFI":"po","DEKLARATE":"","KOORD_ORIG":"N 40*09'59.09\" E 19*37'27.35\"","PENALITET":"","GR_PUNIM":"Olsjan Koci","KONVERTIM":"","LAT_WGS84":40.16641389,"LON_WGS84":19.62426389,"INFO_ALL":"Emer Mbiemer: Arqile Jorgji Gjini | nr tel: 692627518 | ID: ska | Vetdeklarimi/Aplikim: po | gen plan/akt konsttimi/planimetri: po | fotografite: po | deklarate mosdhurim banese: po | Koordinatat: N 40*09'59.09\" E 19*37'27.35\" | gr punimit: Olsjan Koci |","shenime":""}},
{"type":"Feature","geometry":{"type":"Point","coordinates":[19.625050191568555,40.16722518495812]},"properties":{"NAME":"Liri Ilia Caci","SOURCE":"Olsjan Koci","NR":"","EMER_MBIEM":"Liri Ilia Caci","NR_TEL":"692362724","ID":"F16120011R","VETDEKL":"po","GEN_PLAN":"po","FOTOGRAFI":"po","DEKLARATE":"","KOORD_ORIG":"N 40.1672282 E 19.6250548","PENALITET":"","GR_PUNIM":"Olsjan Koci","KONVERTIM":"","LAT_WGS84":40.1672282,"LON_WGS84":19.6250548,"INFO_ALL":"Emer Mbiemer: Liri Ilia Caci | nr tel: 692362724 | ID: F16120011R | Vetdeklarimi/Aplikim: po | gen plan/akt konsttimi/planimetri: po | fotografite: po | deklarate mosdhurim banese: po | Koordinatat: N 40.1672282 E 19.6250548 | gr punimit: Olsjan Koci | K","shenime":""}},
{"type":"Feature","geometry":{"type":"Point","coordinates":[19.624767891594335,40.16680018495332]},"properties":{"NAME":"Spiro Vangjel Caci","SOURCE":"Olsjan Koci","NR":"","EMER_MBIEM":"Spiro Vangjel Caci","NR_TEL":"694711966","ID":"F40220061E","VETDEKL":"po","GEN_PLAN":"po","FOTOGRAFI":"po","DEKLARATE":"","KOORD_ORIG":"N 40.1668032 S 19.6247725","PENALITET":"","GR_PUNIM":"Olsjan Koci","KONVERTIM":"","LAT_WGS84":40.1668032,"LON_WGS84":19.6247725,"INFO_ALL":"Emer Mbiemer: Spiro Vangjel Caci | nr tel: 694711966 | ID: F40220061E | Vetdeklarimi/Aplikim: po | gen plan/akt konsttimi/planimetri: po | fotografite: po | Koordinatat: N 40.1668032 S 19.6247725 | gr punimit: Olsjan Koci | Koordinata të konvertuara: 40","shenime":""}},
{"type":"Feature","geometry":{"type":"Point","coordinates":[19.625401291555143,40.167142184964476]},"properties":{"NAME":"Stefo Miltiadh Kashta","SOURCE":"Olsjan Koci","NR":"","EMER_MBIEM":"Stefo Miltiadh Kashta","NR_TEL":"684557200","ID":"F81221031R","VETDEKL":"po","GEN_PLAN":"po","FOTOGRAFI":"po","DEKLARATE":"","KOORD_ORIG":"N 40.1671452 E 19.6254059","PENALITET":"","GR_PUNIM":"Olsjan Koci","KONVERTIM":"","LAT_WGS84":40.1671452,"LON_WGS84":19.6254059,"INFO_ALL":"Emer Mbiemer: Stefo Miltiadh Kashta | nr tel: 684557200 | ID: F81221031R | Vetdeklarimi/Aplikim: po | gen plan/akt konsttimi/planimetri: po | fotografite: po | Koordinatat: N 40.1671452 E 19.6254059 | gr punimit: Olsjan Koci | Koordinata të konvertuara:","shenime":""}},
{"type":"Feature","geometry":{"type":"Point","coordinates":[19.625401391555144,40.167142184964476]},"properties":{"NAME":"Kristaq Miltiadh Kashta","SOURCE":"Olsjan Koci","NR":"","EMER_MBIEM":"Kristaq Miltiadh Kashta","NR_TEL":"684557200","ID":"G2119073U","VETDEKL":"po","GEN_PLAN":"po","FOTOGRAFI":"po","DEKLARATE":"","KOORD_ORIG":"N 40.1671452 E 19.6254060","PENALITET":"","GR_PUNIM":"Olsjan Koci","KONVERTIM":"","LAT_WGS84":40.1671452,"LON_WGS84":19.625406,"INFO_ALL":"Emer Mbiemer: Kristaq Miltiadh Kashta | nr tel: 684557200 | ID: G2119073U | Vetdeklarimi/Aplikim: po | gen plan/akt konsttimi/planimetri: po | fotografite: po | deklarate mosdhurim banese: po | Koordinatat: N 40.1671452 E 19.6254060 | gr punimit: Olsjan","shenime":""}},
{"type":"Feature","geometry":{"type":"Point","coordinates":[19.62540149155513,40.16714218496448]},"properties":{"NAME":"Hektor Miltiadh Kashta","SOURCE":"Olsjan Koci","NR":"","EMER_MBIEM":"Hektor Miltiadh Kashta","NR_TEL":"684557200","ID":"H30711074G","VETDEKL":"po","GEN_PLAN":"po","FOTOGRAFI":"po","DEKLARATE":"","KOORD_ORIG":"N 40.1671452 E 19.6254061","PENALITET":"","GR_PUNIM":"Olsjan Koci","KONVERTIM":"","LAT_WGS84":40.1671452,"LON_WGS84":19.6254061,"INFO_ALL":"Emer Mbiemer: Hektor Miltiadh Kashta | nr tel: 684557200 | ID: H30711074G | Vetdeklarimi/Aplikim: po | gen plan/akt konsttimi/planimetri: po | fotografite: po | Koordinatat: N 40.1671452 E 19.6254061 | gr punimit: Olsjan Koci | Koordinata të konvertuara","shenime":""}},
{"type":"Feature","geometry":{"type":"Point","coordinates":[19.625297391638604,40.164560084964236]},"properties":{"NAME":"Llambro Jani Milo","SOURCE":"Olsjan Koci","NR":"","EMER_MBIEM":"Llambro Jani Milo","NR_TEL":"692149281","ID":"E80310174U","VETDEKL":"jo","GEN_PLAN":"po","FOTOGRAFI":"po","DEKLARATE":"","KOORD_ORIG":"N 40.1645631 E 19.625302","PENALITET":"","GR_PUNIM":"Olsjan Koci","KONVERTIM":"","LAT_WGS84":40.1645631,"LON_WGS84":19.625302,"INFO_ALL":"Emer Mbiemer: Llambro Jani Milo | nr tel: 692149281 | ID: E80310174U | Vetdeklarimi/Aplikim: jo | gen plan/akt konsttimi/planimetri: po | fotografite: po | Koordinatat: N 40.1645631 E 19.625302 | gr punimit: Olsjan Koci | Koordinata të konvertuara: 40.1","shenime":"miratuar me vendim"}},
{"type":"Feature","geometry":{"type":"Point","coordinates":[19.62758229158427,40.1629399850063]},"properties":{"NAME":"Hektor Aleks Petromilo","SOURCE":"Olsjan Koci","NR":"","EMER_MBIEM":"Hektor Aleks Petromilo","NR_TEL":"682040031","ID":"E00623012W","VETDEKL":"po","GEN_PLAN":"po","FOTOGRAFI":"po","DEKLARATE":"","KOORD_ORIG":"N 40.1629430 E 19.6275869","PENALITET":"","GR_PUNIM":"Olsjan Koci","KONVERTIM":"","LAT_WGS84":40.162943,"LON_WGS84":19.6275869,"INFO_ALL":"Emer Mbiemer: Hektor Aleks Petromilo | nr tel: 682040031 | ID: E00623012W | Vetdeklarimi/Aplikim: po | gen plan/akt konsttimi/planimetri: po | fotografite: po | Koordinatat: N 40.1629430 E 19.6275869 | gr punimit: Olsjan Koci | Koordinata të konvertuara","shenime":"miratuar me vendim"}},
{"type":"Feature","geometry":{"type":"Point","coordinates":[19.625192991585212,40.16646646496117]},"properties":{"NAME":"Thoma Vangjel Milo","SOURCE":"Olsjan Koci","NR":"","EMER_MBIEM":"Thoma Vangjel Milo","NR_TEL":"693015568","ID":"E30325113M","VETDEKL":"po","GEN_PLAN":"po","FOTOGRAFI":"po","DEKLARATE":"","KOORD_ORIG":"N 40.16646948 E 19.6251976","PENALITET":"","GR_PUNIM":"Olsjan Koci","KONVERTIM":"","LAT_WGS84":40.16646948,"LON_WGS84":19.6251976,"INFO_ALL":"Emer Mbiemer: Thoma Vangjel Milo | nr tel: 693015568 | ID: E30325113M | Vetdeklarimi/Aplikim: po | gen plan/akt konsttimi/planimetri: po | fotografite: po | Koordinatat: N 40.16646948 E 19.6251976 | gr punimit: Olsjan Koci | Koordinata të konvertuara: 4","shenime":""}},
{"type":"Feature","geometry":{"type":"Point","coordinates":[19.625470991570733,40.166527284966115]},"properties":{"NAME":"Arqile Andrea Vera","SOURCE":"Olsjan Koci","NR":"","EMER_MBIEM":"Arqile Andrea Vera","NR_TEL":"696362664","ID":"F90615134F","VETDEKL":"po","GEN_PLAN":"po","FOTOGRAFI":"po","DEKLARATE":"","KOORD_ORIG":"N40.1665303 E 19.6254756","PENALITET":"","GR_PUNIM":"Olsjan Koci","KONVERTIM":"","LAT_WGS84":40.1665303,"LON_WGS84":19.6254756,"INFO_ALL":"Emer Mbiemer: Arqile Andrea Vera | nr tel: 696362664 | ID: F90615134F | Vetdeklarimi/Aplikim: po | gen plan/akt konsttimi/planimetri: po | fotografite: po | Koordinatat: N40.1665303 E 19.6254756 | gr punimit: Olsjan Koci | Koordinata të konvertuara: 40.","shenime":""}},
{"type":"Feature","geometry":{"type":"Point","coordinates":[19.625470991570733,40.166527284966115]},"properties":{"NAME":"Sotir Andrea Vera","SOURCE":"Olsjan Koci","NR":"","EMER_MBIEM":"Sotir Andrea Vera","NR_TEL":"696362664","ID":"ska","VETDEKL":"ska","GEN_PLAN":"jo","FOTOGRAFI":"jo","DEKLARATE":"","KOORD_ORIG":"N 40.1665303 E 19.6254756","PENALITET":"","GR_PUNIM":"Olsjan Koci","KONVERTIM":"","LAT_WGS84":40.1665303,"LON_WGS84":19.6254756,"INFO_ALL":"Emer Mbiemer: Sotir Andrea Vera | nr tel: 696362664 | ID: ska | Vetdeklarimi/Aplikim: ska | gen plan/akt konsttimi/planimetri: jo | fotografite: jo | Koordinatat: N 40.1665303 E 19.6254756 | gr punimit: Olsjan Koci | Koordinata të konvertuara: 40.166530","shenime":"miratuar me vendim"}},
{"type":"Feature","geometry":{"type":"Point","coordinates":[19.2916620770035,40.15777475902285]},"properties":{"NAME":"Aleks Jordan Caci","SOURCE":"Olsjan Koci","NR":"","EMER_MBIEM":"Aleks Jordan Caci","NR_TEL":"699568701","ID":"ska","VETDEKL":"ska","GEN_PLAN":"po","FOTOGRAFI":"po","DEKLARATE":"","KOORD_ORIG":"N 40*09'28\" E 19*17'30\"","PENALITET":"","GR_PUNIM":"Olsjan Koci","KONVERTIM":"","LAT_WGS84":40.15777778,"LON_WGS84":19.29166667,"INFO_ALL":"Emer Mbiemer: Aleks Jordan Caci | nr tel: 699568701 | ID: ska | Vetdeklarimi/Aplikim: ska | gen plan/akt konsttimi/planimetri: po | fotografite: po | Koordinatat: N 40*09'28\" E 19*17'30\" | gr punimit: Olsjan Koci | Koordinata të konvertuara: 40.15777778","shenime":""}},
{"type":"Feature","geometry":{"type":"Point","coordinates":[19.62555095154599,40.1672192049671]},"properties":{"NAME":"Thothori Lluka Kashta","SOURCE":"Olsjan Koci","NR":"","EMER_MBIEM":"Thothori Lluka Kashta","NR_TEL":"694438781","ID":"F20223017H","VETDEKL":"po","GEN_PLAN":"po","FOTOGRAFI":"po","DEKLARATE":"","KOORD_ORIG":"N 40*10'02\" E 19*37'32\"","PENALITET":"","GR_PUNIM":"Olsjan Koci","KONVERTIM":"","LAT_WGS84":40.16722222,"LON_WGS84":19.62555556,"INFO_ALL":"Emer Mbiemer: Thothori Lluka Kashta | nr tel: 694438781 | ID: F20223017H | Vetdeklarimi/Aplikim: po | gen plan/akt konsttimi/planimetri: po | fotografite: po | deklarate mosdhurim banese: po | Koordinatat: N 40*10'02\" E 19*37'32\" | gr punimit: Olsjan Koc","shenime":""}},
{"type":"Feature","geometry":{"type":"Point","coordinates":[19.62473706157194,40.16758031495228]},"properties":{"NAME":"Mimoza Jani Gjini","SOURCE":"Olsjan Koci","NR":"","EMER_MBIEM":"Mimoza Jani Gjini","NR_TEL":"699568701","ID":"ska","VETDEKL":"po","GEN_PLAN":"po","FOTOGRAFI":"po","DEKLARATE":"","KOORD_ORIG":"N 40*10'3.30\" E 19*37'29.07\"","PENALITET":"","GR_PUNIM":"Olsjan Koci","KONVERTIM":"","LAT_WGS84":40.16758333,"LON_WGS84":19.62474167,"INFO_ALL":"Emer Mbiemer: Mimoza Jani Gjini | nr tel: 699568701 | ID: ska | Vetdeklarimi/Aplikim: po | gen plan/akt konsttimi/planimetri: po | fotografite: po | Koordinatat: N 40*10'3.30\" E 19*37'29.07\" | gr punimit: Olsjan Koci | Koordinata të konvertuara: 40.1675","shenime":""}},
{"type":"Feature","geometry":{"type":"Point","coordinates":[19.62416206119389,40.18083031493355]},"properties":{"NAME":"Kesiani lluka Mehilli","SOURCE":"Olsjan Koci","NR":"","EMER_MBIEM":"Kesiani lluka Mehilli","NR_TEL":"694820398","ID":"ska","VETDEKL":"jo","GEN_PLAN":"jo","FOTOGRAFI":"jo","DEKLARATE":"","KOORD_ORIG":"N 40*10'51\" E 19*37'27\"","PENALITET":"","GR_PUNIM":"Olsjan Koci","KONVERTIM":"","LAT_WGS84":40.18083333,"LON_WGS84":19.62416667,"INFO_ALL":"Emer Mbiemer: Kesiani lluka Mehilli | nr tel: 694820398 | ID: ska | Vetdeklarimi/Aplikim: jo | gen plan/akt konsttimi/planimetri: jo | fotografite: jo | Koordinatat: N 40*10'51\" E 19*37'27\" | gr punimit: Olsjan Koci | Koordinata të konvertuara: 40.18083","shenime":""}},
{"type":"Feature","geometry":{"type":"Point","coordinates":[19.623606501642776,40.16694142493238]},"properties":{"NAME":"Hektor Arqile Shishko","SOURCE":"Olsjan Koci","NR":"","EMER_MBIEM":"Hektor Arqile Shishko","NR_TEL":"692546552","ID":"G80613072B","VETDEKL":"po","GEN_PLAN":"po","FOTOGRAFI":"po","DEKLARATE":"","KOORD_ORIG":"N 40*10'01\" E 19*37'25\"","PENALITET":"","GR_PUNIM":"Olsjan Koci","KONVERTIM":"","LAT_WGS84":40.16694444,"LON_WGS84":19.62361111,"INFO_ALL":"Emer Mbiemer: Hektor Arqile Shishko | nr tel: 692546552 | ID: G80613072B | Vetdeklarimi/Aplikim: po | gen plan/akt konsttimi/planimetri: po | fotografite: po | Koordinatat: N 40*10'01\" E 19*37'25\" | gr punimit: Olsjan Koci | Koordinata të konvertuara: 4","shenime":""}},
{"type":"Feature","geometry":{"type":"Point","coordinates":[19.624885891574287,40.16728208495514]},"properties":{"NAME":"Stefo Gjini","SOURCE":"Olsjan Koci","NR":"","EMER_MBIEM":"Stefo Gjini","NR_TEL":"692627518","ID":"ska","VETDEKL":"po","GEN_PLAN":"po","FOTOGRAFI":"po","DEKLARATE":"","KOORD_ORIG":"N 40.1672851 E 19.6248905","PENALITET":"","GR_PUNIM":"Olsjan Koci","KONVERTIM":"","LAT_WGS84":40.1672851,"LON_WGS84":19.6248905,"INFO_ALL":"Emer Mbiemer: Stefo Gjini | nr tel: 692627518 | ID: ska | Vetdeklarimi/Aplikim: po | gen plan/akt konsttimi/planimetri: po | fotografite: po | deklarate mosdhurim banese: po | Koordinatat: N 40.1672851 E 19.6248905 | gr punimit: Olsjan Koci | Koordinata","shenime":""}},
{"type":"Feature","geometry":{"type":"Point","coordinates":[19.62488599157428,40.16728208495514]},"properties":{"NAME":"Jorgji Gjini","SOURCE":"Olsjan Koci","NR":"","EMER_MBIEM":"Jorgji Gjini","NR_TEL":"692627518","ID":"ska","VETDEKL":"po","GEN_PLAN":"po","FOTOGRAFI":"po","DEKLARATE":"","KOORD_ORIG":"N 40.1672851 E 19.6248906","PENALITET":"","GR_PUNIM":"Olsjan Koci","KONVERTIM":"","LAT_WGS84":40.1672851,"LON_WGS84":19.6248906,"INFO_ALL":"Emer Mbiemer: Jorgji Gjini | nr tel: 692627518 | ID: ska | Vetdeklarimi/Aplikim: po | gen plan/akt konsttimi/planimetri: po | fotografite: po | deklarate mosdhurim banese: po | Koordinatat: N 40.1672851 E 19.6248906 | gr punimit: Olsjan Koci | Koordinata","shenime":""}},
{"type":"Feature","geometry":{"type":"Point","coordinates":[19.624886091574275,40.16728208495514]},"properties":{"NAME":"Arqile Gjini","SOURCE":"Olsjan Koci","NR":"","EMER_MBIEM":"Arqile Gjini","NR_TEL":"692627518","ID":"ska","VETDEKL":"po","GEN_PLAN":"po","FOTOGRAFI":"po","DEKLARATE":"","KOORD_ORIG":"N 40.1672851 E 19.6248907","PENALITET":"","GR_PUNIM":"Olsjan Koci","KONVERTIM":"","LAT_WGS84":40.1672851,"LON_WGS84":19.6248907,"INFO_ALL":"Emer Mbiemer: Arqile Gjini | nr tel: 692627518 | ID: ska | Vetdeklarimi/Aplikim: po | gen plan/akt konsttimi/planimetri: po | fotografite: po | deklarate mosdhurim banese: po | Koordinatat: N 40.1672851 E 19.6248907 | gr punimit: Olsjan Koci | Koordinata","shenime":""}},
{"type":"Feature","geometry":{"type":"Point","coordinates":[19.625420391552975,40.1671849849648]},"properties":{"NAME":"Thothori Petro Caci","SOURCE":"Olsjan Koci","NR":"","EMER_MBIEM":"Thothori Petro Caci","NR_TEL":"692374600","ID":"E60520120M","VETDEKL":"jo","GEN_PLAN":"po","FOTOGRAFI":"po","DEKLARATE":"","KOORD_ORIG":"N 40.1671880 E 19.6254250","PENALITET":"","GR_PUNIM":"Olsjan Koci","KONVERTIM":"","LAT_WGS84":40.167188,"LON_WGS84":19.625425,"INFO_ALL":"Emer Mbiemer: Thothori Petro Caci | nr tel: 692374600 | ID: E60520120M | Vetdeklarimi/Aplikim: jo | gen plan/akt konsttimi/planimetri: po | fotografite: po | Koordinatat: N 40.1671880 E 19.6254250 | gr punimit: Olsjan Koci | Koordinata të konvertuara: 4","shenime":"miratuar me vendim"}},
{"type":"Feature","geometry":{"type":"Point","coordinates":[19.630550951047738,40.17610809505123]},"properties":{"NAME":"Jorgji Thoma Gjijni","SOURCE":"Olsjan Koci","NR":"","EMER_MBIEM":"Jorgji Thoma Gjijni","NR_TEL":"692627518","ID":"ska","VETDEKL":"ska","GEN_PLAN":"po","FOTOGRAFI":"po","DEKLARATE":"","KOORD_ORIG":"N 40*10'034\" E 19*37'50\"","PENALITET":"","GR_PUNIM":"Olsjan Koci","KONVERTIM":"","LAT_WGS84":40.17611111,"LON_WGS84":19.63055556,"INFO_ALL":"Emer Mbiemer: Jorgji Thoma Gjijni | nr tel: 692627518 | ID: ska | Vetdeklarimi/Aplikim: ska | gen plan/akt konsttimi/planimetri: po | fotografite: po | Koordinatat: N 40*10'034\" E 19*37'50\" | gr punimit: Olsjan Koci | Koordinata të konvertuara: 40.17611","shenime":""}},
{"type":"Feature","geometry":{"type":"Point","coordinates":[19.62518983164289,40.1645803149623]},"properties":{"NAME":"Liza Kostandin Kokonesi","SOURCE":"Gzim Salaj","NR":"","EMER_MBIEM":"Liza Kostandin Kokonesi","NR_TEL":"694857939","ID":"","VETDEKL":"po","GEN_PLAN":"po","FOTOGRAFI":"po","DEKLARATE":"","KOORD_ORIG":"N 40*9'52.5\" E 19*37'30.7\"","PENALITET":"","GR_PUNIM":"Gzim Salaj","KONVERTIM":"","LAT_WGS84":40.16458333,"LON_WGS84":19.62519444,"INFO_ALL":"Emer Mbiemer: Liza Kostandin Kokonesi | nr tel: 694857939 | Vetdeklarimi/Aplikim: po | gen plan/akt konsttimi/planimetri: po | fotografite: po | Koordinatat: N 40*9'52.5\" E 19*37'30.7\" | gr punimit: Gzim Salaj | Koordinata të konvertuara: 40.16458333, 1","shenime":""}},
{"type":"Feature","geometry":{"type":"Point","coordinates":[19.622689831664918,40.167580314915526]},"properties":{"NAME":"Vamgjel Jorgji Caci","SOURCE":"Gzim Salaj","NR":"","EMER_MBIEM":"Vamgjel Jorgji Caci","NR_TEL":"697853492","ID":"","VETDEKL":"po","GEN_PLAN":"po","FOTOGRAFI":"po","DEKLARATE":"","KOORD_ORIG":"N 40*10'3.3\" E 19*37'21.7\"","PENALITET":"","GR_PUNIM":"Gzim Salaj","KONVERTIM":"","LAT_WGS84":40.16758333,"LON_WGS84":19.62269444,"INFO_ALL":"Emer Mbiemer: Vamgjel Jorgji Caci | nr tel: 697853492 | Vetdeklarimi/Aplikim: po | gen plan/akt konsttimi/planimetri: po | fotografite: po | Koordinatat: N 40*10'3.3\" E 19*37'21.7\" | gr punimit: Gzim Salaj | Koordinata të konvertuara: 40.16758333, 19.62","shenime":"miratuar me vendim"}},
{"type":"Feature","geometry":{"type":"Point","coordinates":[19.62260650169581,40.16669142491459]},"properties":{"NAME":"Panajot Llambro Gjidede","SOURCE":"Gzim Salaj","NR":"","EMER_MBIEM":"Panajot Llambro Gjidede","NR_TEL":"676309923","ID":"","VETDEKL":"jo","GEN_PLAN":"po","FOTOGRAFI":"po","DEKLARATE":"","KOORD_ORIG":"N 40*10'0.1\" E 19*37'21.4\"","PENALITET":"","GR_PUNIM":"Gzim Salaj","KONVERTIM":"","LAT_WGS84":40.16669444,"LON_WGS84":19.62261111,"INFO_ALL":"Emer Mbiemer: Panajot Llambro Gjidede | nr tel: 676309923 | Vetdeklarimi/Aplikim: jo | gen plan/akt konsttimi/planimetri: po | fotografite: po | Koordinatat: N 40*10'0.1\" E 19*37'21.4\" | gr punimit: Gzim Salaj | Koordinata të konvertuara: 40.16669444, 1","shenime":""}},
{"type":"Feature","geometry":{"type":"Point","coordinates":[19.622745391666623,40.167441424916596]},"properties":{"NAME":"Panajot Llambro Gjidede","SOURCE":"Gzim Salaj","NR":"","EMER_MBIEM":"Panajot Llambro Gjidede","NR_TEL":"676309923","ID":"","VETDEKL":"jo","GEN_PLAN":"po","FOTOGRAFI":"po","DEKLARATE":"","KOORD_ORIG":"N 40*10'2.8\" E 19*37'21.9\"","PENALITET":"","GR_PUNIM":"Gzim Salaj","KONVERTIM":"","LAT_WGS84":40.16744444,"LON_WGS84":19.62275,"INFO_ALL":"Emer Mbiemer: Panajot Llambro Gjidede | nr tel: 676309923 | Vetdeklarimi/Aplikim: jo | gen plan/akt konsttimi/planimetri: po | fotografite: po | Koordinatat: N 40*10'2.8\" E 19*37'21.9\" | gr punimit: Gzim Salaj | Koordinata të konvertuara: 40.16744444, 1","shenime":""}},
{"type":"Feature","geometry":{"type":"Point","coordinates":[19.625078721578454,40.166858094958855]},"properties":{"NAME":"Dhespulla Sokrat Gjikokaj","SOURCE":"Gzim Salaj","NR":"","EMER_MBIEM":"Dhespulla Sokrat Gjikokaj","NR_TEL":"685714829","ID":"","VETDEKL":"po","GEN_PLAN":"po","FOTOGRAFI":"po","DEKLARATE":"","KOORD_ORIG":"N 40*10'0.7\" E 19*37'30.3\"","PENALITET":"","GR_PUNIM":"Gzim Salaj","KONVERTIM":"","LAT_WGS84":40.16686111,"LON_WGS84":19.62508333,"INFO_ALL":"Emer Mbiemer: Dhespulla Sokrat Gjikokaj | nr tel: 685714829 | Vetdeklarimi/Aplikim: po | gen plan/akt konsttimi/planimetri: po | fotografite: po | Koordinatat: N 40*10'0.7\" E 19*37'30.3\" | gr punimit: Gzim Salaj | Koordinata të konvertuara: 40.16686111,","shenime":""}},
{"type":"Feature","geometry":{"type":"Point","coordinates":[19.62560650154433,40.167191424968145]},"properties":{"NAME":"Theodhori Kosta Kashta","SOURCE":"Gzim Salaj","NR":"","EMER_MBIEM":"Theodhori Kosta Kashta","NR_TEL":"ska","ID":"","VETDEKL":"po","GEN_PLAN":"po","FOTOGRAFI":"po","DEKLARATE":"","KOORD_ORIG":"N 40*10'1.9\" E 19.37'32.2\"","PENALITET":"","GR_PUNIM":"Gzim Salaj","KONVERTIM":"","LAT_WGS84":40.16719444,"LON_WGS84":19.62561111,"INFO_ALL":"Emer Mbiemer: Theodhori Kosta Kashta | nr tel: ska | Vetdeklarimi/Aplikim: po | gen plan/akt konsttimi/planimetri: po | fotografite: po | Koordinatat: N 40*10'1.9\" E 19.37'32.2\" | gr punimit: Gzim Salaj | Koordinata të konvertuara: 40.16719444, 19.62561","shenime":""}},
{"type":"Feature","geometry":{"type":"Point","coordinates":[19.61010650201284,40.174913654685085]},"properties":{"NAME":"Aleks Xhevit Habazaj","SOURCE":"Gzim Salaj","NR":"","EMER_MBIEM":"Aleks Xhevit Habazaj","NR_TEL":"693053119","ID":"","VETDEKL":"po","GEN_PLAN":"po","FOTOGRAFI":"po","DEKLARATE":"","KOORD_ORIG":"N 40*10'29.7\" E 19*36'36.4\"","PENALITET":"","GR_PUNIM":"Gzim Salaj","KONVERTIM":"","LAT_WGS84":40.17491667,"LON_WGS84":19.61011111,"INFO_ALL":"Emer Mbiemer: Aleks Xhevit Habazaj | nr tel: 693053119 | Vetdeklarimi/Aplikim: po | gen plan/akt konsttimi/planimetri: po | fotografite: po | Koordinatat: N 40*10'29.7\" E 19*36'36.4\" | gr punimit: Gzim Salaj | Koordinata të konvertuara: 40.17491667, 19.","shenime":""}},
{"type":"Feature","geometry":{"type":"Point","coordinates":[19.625050951567008,40.16727476495808]},"properties":{"NAME":"Spiro Petro Gjini","SOURCE":"Gzim Salaj","NR":"","EMER_MBIEM":"Spiro Petro Gjini","NR_TEL":"692683730","ID":"","VETDEKL":"po","GEN_PLAN":"po","FOTOGRAFI":"po","DEKLARATE":"","KOORD_ORIG":"40*10'2.2\" E 19*37'30.2\"","PENALITET":"","GR_PUNIM":"Gzim Salaj","KONVERTIM":"","LAT_WGS84":40.16727778,"LON_WGS84":19.62505556,"INFO_ALL":"Emer Mbiemer: Spiro Petro Gjini | nr tel: 692683730 | Vetdeklarimi/Aplikim: po | gen plan/akt konsttimi/planimetri: po | fotografite: po | Koordinatat: 40*10'2.2\" E 19*37'30.2\" | gr punimit: Gzim Salaj | Koordinata të konvertuara: 40.16727778, 19.625055","shenime":""}},
{"type":"Feature","geometry":{"type":"Point","coordinates":[19.62371761161316,40.16774698493387]},"properties":{"NAME":"Elsa Taqo Milaj","SOURCE":"Gzim Salaj","NR":"","EMER_MBIEM":"Elsa Taqo Milaj","NR_TEL":"699677490","ID":"","VETDEKL":"po","GEN_PLAN":"jo","FOTOGRAFI":"jo","DEKLARATE":"","KOORD_ORIG":"N 40*10'3.9\" E 19*37'25.4\"","PENALITET":"","GR_PUNIM":"Gzim Salaj","KONVERTIM":"","LAT_WGS84":40.16775,"LON_WGS84":19.62372222,"INFO_ALL":"Emer Mbiemer: Elsa Taqo Milaj | nr tel: 699677490 | Vetdeklarimi/Aplikim: po | gen plan/akt konsttimi/planimetri: jo | fotografite: jo | Koordinatat: N 40*10'3.9\" E 19*37'25.4\" | gr punimit: Gzim Salaj | Koordinata të konvertuara: 40.16775000, 19.623722","shenime":""}},
{"type":"Feature","geometry":{"type":"Point","coordinates":[19.624256850268043,40.16578956646781]},"properties":{"NAME":"Thoma Vangjel Billa","SOURCE":"Gzim Salaj","NR":"","EMER_MBIEM":"Thoma Vangjel Billa","NR_TEL":"696362664","ID":"","VETDEKL":"po","GEN_PLAN":"po","FOTOGRAFI":"po","DEKLARATE":"","KOORD_ORIG":"N 40*9'57.1\" E 19*37'28.4\"","PENALITET":"","GR_PUNIM":"Gzim Salaj","KONVERTIM":"","LAT_WGS84":40.16586111,"LON_WGS84":19.62455556,"INFO_ALL":"Emer Mbiemer: Thoma Vangjel Billa | nr tel: 696362664 | Vetdeklarimi/Aplikim: po | gen plan/akt konsttimi/planimetri: po | fotografite: po | Koordinatat: N 40*9'57.1\" E 19*37'28.4\" | gr punimit: Gzim Salaj | Koordinata të konvertuara: 40.16586111, 19.62","shenime":""}},
{"type":"Feature","geometry":{"type":"Point","coordinates":[19.622662061675495,40.16727476491521]},"properties":{"NAME":"Petro Jorgji Paco","SOURCE":"Gzim Salaj","NR":"","EMER_MBIEM":"Petro Jorgji Paco","NR_TEL":"685714829","ID":"","VETDEKL":"po","GEN_PLAN":"po","FOTOGRAFI":"po","DEKLARATE":"","KOORD_ORIG":"N 40*10'2.2\" E 19*37'21.6\"","PENALITET":"","GR_PUNIM":"Gzim Salaj","KONVERTIM":"","LAT_WGS84":40.16727778,"LON_WGS84":19.62266667,"INFO_ALL":"Emer Mbiemer: Petro Jorgji Paco | nr tel: 685714829 | Vetdeklarimi/Aplikim: po | gen plan/akt konsttimi/planimetri: po | fotografite: po | Koordinatat: N 40*10'2.2\" E 19*37'21.6\" | gr punimit: Gzim Salaj | Koordinata të konvertuara: 40.16727778, 19.6226","shenime":""}},
{"type":"Feature","geometry":{"type":"Point","coordinates":[19.625689831531222,40.167496984969425]},"properties":{"NAME":"Jani Kosta Pao","SOURCE":"Gzim Salaj","NR":"","EMER_MBIEM":"Jani Kosta Pao","NR_TEL":"ska","ID":"","VETDEKL":"po","GEN_PLAN":"po","FOTOGRAFI":"po","DEKLARATE":"","KOORD_ORIG":"N 40*10'3\" E 19*37'32.5\"","PENALITET":"","GR_PUNIM":"Gzim Salaj","KONVERTIM":"","LAT_WGS84":40.1675,"LON_WGS84":19.62569444,"INFO_ALL":"Emer Mbiemer: Jani Kosta Pao | nr tel: ska | Vetdeklarimi/Aplikim: po | gen plan/akt konsttimi/planimetri: po | fotografite: po | Koordinatat: N 40*10'3\" E 19*37'32.5\" | gr punimit: Gzim Salaj | Koordinata të konvertuara: 40.16750000, 19.62569444","shenime":""}},
{"type":"Feature","geometry":{"type":"Point","coordinates":[19.622800951666644,40.16735809491765]},"properties":{"NAME":"Irakli Jorgji Paco","SOURCE":"Gzim Salaj","NR":"","EMER_MBIEM":"Irakli Jorgji Paco","NR_TEL":"685714829","ID":"","VETDEKL":"po","GEN_PLAN":"po","FOTOGRAFI":"po","DEKLARATE":"","KOORD_ORIG":"N 40*10'2.5\" E 19*37'22.1\"","PENALITET":"","GR_PUNIM":"Gzim Salaj","KONVERTIM":"","LAT_WGS84":40.16736111,"LON_WGS84":19.62280556,"INFO_ALL":"Emer Mbiemer: Irakli Jorgji Paco | nr tel: 685714829 | Vetdeklarimi/Aplikim: po | gen plan/akt konsttimi/planimetri: po | fotografite: po | Koordinatat: N 40*10'2.5\" E 19*37'22.1\" | gr punimit: Gzim Salaj | Koordinata të konvertuara: 40.16736111, 19.622","shenime":""}},
{"type":"Feature","geometry":{"type":"Point","coordinates":[19.62293983166203,40.16730254492018]},"properties":{"NAME":"Jorgji Mantho Paco","SOURCE":"Gzim Salaj","NR":"","EMER_MBIEM":"Jorgji Mantho Paco","NR_TEL":"ska","ID":"","VETDEKL":"jo","GEN_PLAN":"po","FOTOGRAFI":"po","DEKLARATE":"","KOORD_ORIG":"N 40*10'2.3\" E 19*37'22.6\"","PENALITET":"","GR_PUNIM":"Gzim Salaj","KONVERTIM":"","LAT_WGS84":40.16730556,"LON_WGS84":19.62294444,"INFO_ALL":"Emer Mbiemer: Jorgji Mantho Paco | nr tel: ska | Vetdeklarimi/Aplikim: jo | gen plan/akt konsttimi/planimetri: po | fotografite: po | Koordinatat: N 40*10'2.3\" E 19*37'22.6\" | gr punimit: Gzim Salaj | Koordinata të konvertuara: 40.16730556, 19.62294444","shenime":""}},
{"type":"Feature","geometry":{"type":"Point","coordinates":[19.624059791634856,40.16652598494078]},"properties":{"NAME":"Erion Petromilo","SOURCE":"Ledio","NR":"","EMER_MBIEM":"Erion Petromilo","NR_TEL":"0694079344","ID":"O34341949","VETDEKL":"po","GEN_PLAN":"po","FOTOGRAFI":"po","DEKLARATE":"","KOORD_ORIG":"N 40.166529 E 19.6240644","PENALITET":"","GR_PUNIM":"Ledio","KONVERTIM":"","LAT_WGS84":40.166529,"LON_WGS84":19.6240644,"INFO_ALL":"Emer Mbiemer: Erion Petromilo | nr tel: 0694079344 | ID: O34341949 | Vetdeklarimi/Aplikim: po | gen plan/akt konsttimi/planimetri: po | fotografite: po | Koordinatat: N 40.166529 E 19.6240644 | gr punimit: Ledio | Koordinata të konvertuara: 40.16652900,","shenime":""}},
{"type":"Feature","geometry":{"type":"Point","coordinates":[19.626110391546746,40.16636148497769]},"properties":{"NAME":"Gentian Vera","SOURCE":"Ledio","NR":"","EMER_MBIEM":"Gentian Vera","NR_TEL":"0682035442","ID":"H4010405K","VETDEKL":"po","GEN_PLAN":"po","FOTOGRAFI":"po","DEKLARATE":"","KOORD_ORIG":"N 40.1663645 E 19.6261150","PENALITET":"","GR_PUNIM":"Ledio","KONVERTIM":"","LAT_WGS84":40.1663645,"LON_WGS84":19.626115,"INFO_ALL":"Emer Mbiemer: Gentian Vera | nr tel: 0682035442 | ID: H4010405K | Vetdeklarimi/Aplikim: po | gen plan/akt konsttimi/planimetri: po | fotografite: po | Koordinatat: N 40.1663645 E 19.6261150 | gr punimit: Ledio | Koordinata të konvertuara: 40.16636450, 1","shenime":""}},
{"type":"Feature","geometry":{"type":"Point","coordinates":[19.61902789182186,40.167887184849604]},"properties":{"NAME":"Ksanfulla Niko","SOURCE":"Ledio","NR":"","EMER_MBIEM":"Ksanfulla Niko","NR_TEL":"0692263023","ID":"G35306169R","VETDEKL":"po","GEN_PLAN":"po","FOTOGRAFI":"po","DEKLARATE":"","KOORD_ORIG":"N 40.1678902 E 19.6190325","PENALITET":"","GR_PUNIM":"Ledio","KONVERTIM":"","LAT_WGS84":40.1678902,"LON_WGS84":19.6190325,"INFO_ALL":"Emer Mbiemer: Ksanfulla Niko | nr tel: 0692263023 | ID: G35306169R | Vetdeklarimi/Aplikim: po | gen plan/akt konsttimi/planimetri: po | fotografite: po | Koordinatat: N 40.1678902 E 19.6190325 | gr punimit: Ledio | Koordinata të konvertuara: 40.16789020","shenime":""}},
{"type":"Feature","geometry":{"type":"Point","coordinates":[19.617996206449615,40.167864304422814]},"properties":{"NAME":"Nazer Bojkoj","SOURCE":"Ledio","NR":"","EMER_MBIEM":"Nazer Bojkoj","NR_TEL":"0695562474","ID":"G10310096W","VETDEKL":"po","GEN_PLAN":"po","FOTOGRAFI":"jo","DEKLARATE":"","KOORD_ORIG":"N 40.1678302 E 19.6130325","PENALITET":"","GR_PUNIM":"Ledio","KONVERTIM":"","LAT_WGS84":40.1678302,"LON_WGS84":19.6130325,"INFO_ALL":"Emer Mbiemer: Nazer Bojkoj | nr tel: 0695562474 | ID: G10310096W | Vetdeklarimi/Aplikim: po | gen plan/akt konsttimi/planimetri: po | fotografite: jo | Koordinatat: N 40.1678302 E 19.6130325 | gr punimit: Ledio | Koordinata të konvertuara: 40.16783020,","shenime":""}},
{"type":"Feature","geometry":{"type":"Point","coordinates":[19.625202791590695,40.16627178496145]},"properties":{"NAME":"Pavllo Koka","SOURCE":"Ledio","NR":"","EMER_MBIEM":"Pavllo Koka","NR_TEL":"0696375843","ID":"E30329035R","VETDEKL":"po","GEN_PLAN":"po","FOTOGRAFI":"po","DEKLARATE":"","KOORD_ORIG":"N 40.1662748 E 19.6252074","PENALITET":"","GR_PUNIM":"Ledio","KONVERTIM":"","LAT_WGS84":40.1662748,"LON_WGS84":19.6252074,"INFO_ALL":"Emer Mbiemer: Pavllo Koka | nr tel: 0696375843 | ID: E30329035R | Vetdeklarimi/Aplikim: po | gen plan/akt konsttimi/planimetri: po | fotografite: po | Koordinatat: N 40.1662748 E 19.6252074 | gr punimit: Ledio | Koordinata të konvertuara: 40.16627480, 1","shenime":""}},
{"type":"Feature","geometry":{"type":"Point","coordinates":[19.623886491623313,40.16716288493725]},"properties":{"NAME":"Vasillo Kostjani","SOURCE":"Ledio","NR":"","EMER_MBIEM":"Vasillo Kostjani","NR_TEL":"0683669103","ID":"D95103045A","VETDEKL":"po","GEN_PLAN":"po","FOTOGRAFI":"po","DEKLARATE":"","KOORD_ORIG":"N 40.1671659 E 19.6238911","PENALITET":"","GR_PUNIM":"Ledio","KONVERTIM":"","LAT_WGS84":40.1671659,"LON_WGS84":19.6238911,"INFO_ALL":"Emer Mbiemer: Vasillo Kostjani | nr tel: 0683669103 | ID: D95103045A | Vetdeklarimi/Aplikim: po | gen plan/akt konsttimi/planimetri: po | fotografite: po | Koordinatat: N 40.1671659 E 19.6238911 | gr punimit: Ledio | Koordinata të konvertuara: 40.167165","shenime":""}}
]}