{"type":"FeatureCollection", "features": [
{"type":"Feature","geometry":{"type":"Polygon","coordinates":[[[19.395700607781084,41.956291467445865],[19.39568466243636,41.95628298650997],[19.395770403200938,41.9561931707329],[19.395855860351226,41.95623862320021],[19.395770119644215,41.95632843904077],[19.395769858642662,41.95632830022081],[19.395700607781084,41.956291467445865]]]},"properties":{"NR_PASURIE":"","SIPERFAQJA":107}},
{"type":"Feature","geometry":{"type":"Polygon","coordinates":[[[19.388831645359485,41.95340658158889],[19.38886851859261,41.9533659002717],[19.389037943934806,41.953442116383144],[19.38900335009483,41.95348496612314],[19.388831645359485,41.95340658158889]]]},"properties":{"NR_PASURIE":"","SIPERFAQJA":91}},
{"type":"Feature","geometry":{"type":"Polygon","coordinates":[[[19.3916260092129,41.95825519511652],[19.391580778734845,41.95821455502628],[19.391658839204045,41.958164919676],[19.39170509831531,41.958206475396906],[19.3916260092129,41.95825519511652]]]},"properties":{"NR_PASURIE":"","SIPERFAQJA":50}},
{"type":"Feature","geometry":{"type":"Polygon","coordinates":[[[19.39482744567607,41.9561661459073],[19.394914195275028,41.95607963879201],[19.395068722880723,41.95616597516026],[19.394981973370918,41.9562524823916],[19.39482744567607,41.9561661459073]]]},"properties":{"NR_PASURIE":"","SIPERFAQJA":192}},
{"type":"Feature","geometry":{"type":"Polygon","coordinates":[[[19.395053991160967,41.955976425926416],[19.395154244735288,41.956032733615565],[19.395070831128095,41.956115479898166],[19.3949705786968,41.95605917304325],[19.395053991160967,41.955976425926416]]]},"properties":{"NR_PASURIE":"","SIPERFAQJA":120}},
{"type":"Feature","geometry":{"type":"Polygon","coordinates":[[[19.39486682526436,41.95600035805459],[19.39488437563645,41.955981651225734],[19.394911681812914,41.95599617486235],[19.394893928628633,41.956014773489755],[19.39486682526436,41.95600035805459]]]},"properties":{"NR_PASURIE":"","SIPERFAQJA":7}},
{"type":"Feature","geometry":{"type":"Polygon","coordinates":[[[19.395048811787728,41.956311685616946],[19.395012570053144,41.956345917956135],[19.39497878669698,41.9563259906145],[19.395005623954212,41.95630064134566],[19.39498241157114,41.95628694935465],[19.394991816056198,41.95627806629678],[19.395048811787728,41.956311685616946]]]},"properties":{"NR_PASURIE":"","SIPERFAQJA":20}},
{"type":"Feature","geometry":{"type":"Polygon","coordinates":[[[19.395952112387416,41.95404338934949],[19.395919707426323,41.954019661385644],[19.395962803999712,41.95398686572335],[19.395997774716612,41.95401247261218],[19.396009188156537,41.954003787961504],[19.396067935895182,41.954046806732414],[19.395989526262554,41.954106472724625],[19.39592821154356,41.95406157676969],[19.395952112387416,41.95404338934949]]]},"properties":{"NR_PASURIE":"","SIPERFAQJA":85}},
{"type":"Feature","geometry":{"type":"Polygon","coordinates":[[[19.400819678014138,41.949645448725825],[19.400804170611906,41.94966015537175],[19.400884143980804,41.94970714840977],[19.40084990457888,41.94974232037177],[19.40074296621238,41.94968430633511],[19.400794234590286,41.94963164474529],[19.400819678014138,41.949645448725825]]]},"properties":{"NR_PASURIE":"","SIPERFAQJA":60}},
{"type":"Feature","geometry":{"type":"Polygon","coordinates":[[[19.401262544076644,41.948929505052924],[19.401181991895047,41.948904741490146],[19.401211870892585,41.94885062758407],[19.40113380592519,41.94882660620949],[19.40117977453449,41.94874335309625],[19.401341481813276,41.94879311109121],[19.401262544076644,41.948929505052924]]]},"properties":{"NR_PASURIE":"","SIPERFAQJA":192}},
{"type":"Feature","geometry":{"type":"Polygon","coordinates":[[[19.395087947844207,41.9559400292675],[19.395166795749226,41.955863934700986],[19.395288412242884,41.955930485081005],[19.39520726562639,41.95600885980533],[19.395087947844207,41.9559400292675]]]},"properties":{"NR_PASURIE":"","SIPERFAQJA":136}},
{"type":"Feature","geometry":{"type":"Polygon","coordinates":[[[19.39482745572747,41.95634197557991],[19.394737171511586,41.95629146142991],[19.394817818767383,41.9562106373736],[19.394908309955017,41.95626094277988],[19.39482745572747,41.95634197557991]]]},"properties":{"NR_PASURIE":"","SIPERFAQJA":105}},
{"type":"Feature","geometry":{"type":"Polygon","coordinates":[[[19.396214246897394,41.95420824349659],[19.3963103121322,41.9541471135561],[19.39627952185762,41.95412160887288],[19.396327338834983,41.95409330972743],[19.39635675087388,41.95411839391001],[19.396384755946055,41.95410021537443],[19.396486315188387,41.954187463374666],[19.396314595999574,41.95429821141642],[19.396214246897394,41.95420824349659]]]},"properties":{"NR_PASURIE":"","SIPERFAQJA":260}},
{"type":"Feature","geometry":{"type":"Polygon","coordinates":[[[19.400980860929447,41.94727178526911],[19.401063989086857,41.94716567902428],[19.40123058340801,41.94723841696819],[19.401151417406286,41.947339465353],[19.40110976874981,41.94732128063579],[19.401105805556615,41.947326339508834],[19.401097794359558,41.94732284160806],[19.400980860929447,41.94727178526911]]]},"properties":{"NR_PASURIE":"","SIPERFAQJA":216}},
{"type":"Feature","geometry":{"type":"Polygon","coordinates":[[[19.38664538441385,41.9621210258162],[19.386591395742233,41.96208503479828],[19.386691860113483,41.96200108583121],[19.386745848763248,41.962037077702576],[19.38664538441385,41.9621210258162]]]},"properties":{"NR_PASURIE":"","SIPERFAQJA":75}},
{"type":"Feature","geometry":{"type":"Polygon","coordinates":[[[19.389887620574324,41.95395052542959],[19.389916557909824,41.95390635882797],[19.390204414760234,41.95402604364769],[19.390177256763433,41.9540644983135],[19.389887620574324,41.95395052542959]]]},"properties":{"NR_PASURIE":"","SIPERFAQJA":140}},
{"type":"Feature","geometry":{"type":"Polygon","coordinates":[[[19.38742888625775,41.959944762603506],[19.387534533831314,41.95999524633027],[19.387502015656736,41.96003315671903],[19.387396368046932,41.959982672962425],[19.38742888625775,41.959944762603506]]]},"properties":{"NR_PASURIE":"","SIPERFAQJA":52}},
{"type":"Feature","geometry":{"type":"Polygon","coordinates":[[[19.38826414788387,41.959910770740926],[19.38831968262716,41.959939469925786],[19.387990101108535,41.96029475724616],[19.387934566208422,41.96026605790257],[19.38826414788387,41.959910770740926]]]},"properties":{"NR_PASURIE":"","SIPERFAQJA":269}},
{"type":"Feature","geometry":{"type":"Polygon","coordinates":[[[19.388501358062094,41.96003335559458],[19.38855689301898,41.9600620546655],[19.38822731217023,41.96041734266382],[19.38817177705651,41.960388643434186],[19.388501358062094,41.96003335559458]]]},"properties":{"NR_PASURIE":"","SIPERFAQJA":269}},
{"type":"Feature","geometry":{"type":"Polygon","coordinates":[[[19.38879001763764,41.96020523935723],[19.388845552874052,41.9602339382895],[19.388515972721944,41.96058922711063],[19.388460437328696,41.96056052801965],[19.38879001763764,41.96020523935723]]]},"properties":{"NR_PASURIE":"","SIPERFAQJA":269}},
{"type":"Feature","geometry":{"type":"Polygon","coordinates":[[[19.388614815280622,41.96008994387229],[19.388670350337907,41.9601186428887],[19.38834076982023,41.96047393121149],[19.388285234606105,41.960445232036356],[19.388614815280622,41.96008994387229]]]},"properties":{"NR_PASURIE":"","SIPERFAQJA":269}},
{"type":"Feature","geometry":{"type":"Polygon","coordinates":[[[19.38757223034523,41.9605865225182],[19.387619013116588,41.96053775453034],[19.38784608807447,41.96030104235383],[19.387918662595304,41.96033982608374],[19.387690065546924,41.960578125219435],[19.38764480501987,41.960625306420376],[19.38757223034523,41.9605865225182]]]},"properties":{"NR_PASURIE":"","SIPERFAQJA":289}},
{"type":"Feature","geometry":{"type":"Polygon","coordinates":[[[19.392449936839135,41.95823750388196],[19.392390043795537,41.9583072297866],[19.392322012700514,41.95827467330621],[19.39235166037498,41.95824015832948],[19.392344278148645,41.95823653280854],[19.39228881332368,41.95820929318133],[19.392318578183133,41.95817464177411],[19.392365286017796,41.95819699399011],[19.392449936839135,41.95823750388196]]]},"properties":{"NR_PASURIE":"","SIPERFAQJA":90}},
{"type":"Feature","geometry":{"type":"Polygon","coordinates":[[[19.392365286017796,41.95819699399011],[19.39237700421706,41.95818335197005],[19.392342481036017,41.958166830772235],[19.392373729554212,41.958130452055265],[19.392493545337587,41.9581877902533],[19.3924740150425,41.95821052697277],[19.392505865671172,41.95822576914947],[19.392482429306504,41.95825305321469],[19.392449936839135,41.95823750388196],[19.392365286017796,41.95819699399011]]]},"properties":{"NR_PASURIE":"","SIPERFAQJA":83}},
{"type":"Feature","geometry":{"type":"Polygon","coordinates":[[[19.390734887711407,41.95656733594203],[19.390790122683356,41.956600826141276],[19.390805392168755,41.95661008436103],[19.39086969859227,41.95664907468697],[19.390825591483186,41.95668960459707],[19.39077690972634,41.956660087827636],[19.390761700361928,41.95667406364822],[19.39067557120395,41.95662184161],[19.390734887711407,41.95656733594203]]]},"properties":{"NR_PASURIE":"","SIPERFAQJA":102}},
{"type":"Feature","geometry":{"type":"Polygon","coordinates":[[[19.390790122683356,41.956600826141276],[19.390734887711407,41.95656733594203],[19.39078051572515,41.95652540848349],[19.3908357506853,41.95655889866094],[19.390790122683356,41.956600826141276]]]},"properties":{"NR_PASURIE":"","SIPERFAQJA":35}},
{"type":"Feature","geometry":{"type":"Polygon","coordinates":[[[19.396423063266326,41.95339321161059],[19.396529356401782,41.95346249169013],[19.396445270737917,41.95353437566871],[19.396338977575912,41.953465095512],[19.396423063266326,41.95339321161059]]]},"properties":{"NR_PASURIE":"","SIPERFAQJA":124}},
{"type":"Feature","geometry":{"type":"Polygon","coordinates":[[[19.389658513666546,41.95097192659537],[19.389911158944496,41.950911291238604],[19.389935526889346,41.950967870979326],[19.389682880212366,41.951028505481126],[19.389658513666546,41.95097192659537]]]},"properties":{"NR_PASURIE":"","SIPERFAQJA":145}},
{"type":"Feature","geometry":{"type":"Polygon","coordinates":[[[19.40048420464759,41.947735474501606],[19.400579279491904,41.94777455903363],[19.40050074673914,41.94788102300888],[19.400405671786114,41.947841938411834],[19.40048420464759,41.947735474501606]]]},"properties":{"NR_PASURIE":"","SIPERFAQJA":121}},
{"type":"Feature","geometry":{"type":"Polygon","coordinates":[[[19.38834244351148,41.951614342985245],[19.388228632328115,41.951707446309996],[19.388186761081258,41.95167892469176],[19.38830057227383,41.95158582140813],[19.388414383134876,41.95149271800799],[19.388456254363316,41.95152123954399],[19.38834244351148,41.951614342985245]]]},"properties":{"NR_PASURIE":"","SIPERFAQJA":132}},
{"type":"Feature","geometry":{"type":"Polygon","coordinates":[[[19.4012710965348,41.95013886657757],[19.40114577105789,41.950244818607786],[19.4010517525041,41.95018284557739],[19.401177078012918,41.950076893648884],[19.4012710965348,41.95013886657757]]]},"properties":{"NR_PASURIE":"","SIPERFAQJA":163}},
{"type":"Feature","geometry":{"type":"Polygon","coordinates":[[[19.399939698710654,41.95048675013323],[19.400039551090206,41.950454984271666],[19.400071229739446,41.9505104746535],[19.400090090746946,41.950504474420306],[19.400119878195955,41.950556651930626],[19.400058857235564,41.95057606445388],[19.40005412907236,41.95056778230746],[19.399996436500384,41.9505861359334],[19.399939698710654,41.95048675013323]]]},"properties":{"NR_PASURIE":"","SIPERFAQJA":123}},
{"type":"Feature","geometry":{"type":"Polygon","coordinates":[[[19.401306495022542,41.94973815698745],[19.40136216758772,41.9497793542991],[19.401277332546012,41.949843241104986],[19.401234812763196,41.94987526144616],[19.401179140198018,41.94983406407346],[19.401306495022542,41.94973815698745]]]},"properties":{"NR_PASURIE":"","SIPERFAQJA":98}},
{"type":"Feature","geometry":{"type":"Polygon","coordinates":[[[19.39993432674018,41.94994412021049],[19.400021611930068,41.949800675349024],[19.400090788022407,41.9498241324014],[19.40000350295438,41.94996757731568],[19.39993432674018,41.94994412021049]]]},"properties":{"NR_PASURIE":"","SIPERFAQJA":110}},
{"type":"Feature","geometry":{"type":"Polygon","coordinates":[[[19.40026690193703,41.949640778846934],[19.400324554930897,41.949659412341525],[19.40025985205657,41.94977045047234],[19.400196815490453,41.94974998087884],[19.40026690193703,41.949640778846934]]]},"properties":{"NR_PASURIE":"","SIPERFAQJA":73}},
{"type":"Feature","geometry":{"type":"Polygon","coordinates":[[[19.393191873685524,41.95724996987695],[19.39312456128237,41.95719657108002],[19.393234349451497,41.957122168086414],[19.393328768926658,41.95719174042753],[19.393215478618554,41.95726869559346],[19.393191873685524,41.95724996987695]]]},"properties":{"NR_PASURIE":"","SIPERFAQJA":137}},
{"type":"Feature","geometry":{"type":"Polygon","coordinates":[[[19.394586362682336,41.9564453210871],[19.394651402164264,41.95648112022617],[19.3945429532885,41.9565908945623],[19.394477913757093,41.956555095362134],[19.394586362682336,41.9564453210871]]]},"properties":{"NR_PASURIE":"","SIPERFAQJA":102}},
{"type":"Feature","geometry":{"type":"Polygon","coordinates":[[[19.39473103118732,41.95646992232311],[19.39462289747221,41.956408739282594],[19.394706832729877,41.956326088453736],[19.394814966387404,41.95638727141569],[19.39473103118732,41.95646992232311]]]},"properties":{"NR_PASURIE":"","SIPERFAQJA":130}},
{"type":"Feature","geometry":{"type":"Polygon","coordinates":[[[19.390769299574124,41.95679901774002],[19.390869570857504,41.956712582500025],[19.39098537051742,41.95678742700914],[19.390885099270797,41.956873862349404],[19.390769299574124,41.95679901774002]]]},"properties":{"NR_PASURIE":"","SIPERFAQJA":161}},
{"type":"Feature","geometry":{"type":"Polygon","coordinates":[[[19.391126098344618,41.95589262084456],[19.391184492537505,41.9559238113307],[19.391092545115953,41.95601972181436],[19.39095983535302,41.95594883650693],[19.391051782869145,41.955852926129026],[19.391067247071614,41.955861186154394],[19.39111396860694,41.955886141898006],[19.391126098344618,41.95589262084456]]]},"properties":{"NR_PASURIE":"","SIPERFAQJA":177}},
{"type":"Feature","geometry":{"type":"Polygon","coordinates":[[[19.39144057108487,41.958280643652856],[19.39133906327659,41.95819144046179],[19.391445703401377,41.95812383404004],[19.391547211253318,41.958213037138144],[19.39144057108487,41.958280643652856]]]},"properties":{"NR_PASURIE":"","SIPERFAQJA":151}},
{"type":"Feature","geometry":{"type":"Polygon","coordinates":[[[19.395362223500015,41.954023025540344],[19.395471575523285,41.954104368304236],[19.395362603001075,41.95418599445032],[19.395253250979273,41.954104651583776],[19.395362223500015,41.954023025540344]]]},"properties":{"NR_PASURIE":"","SIPERFAQJA":164}},
{"type":"Feature","geometry":{"type":"Polygon","coordinates":[[[19.3945615510349,41.956019820800066],[19.394604234390812,41.95597635753376],[19.394594911745667,41.955971242164715],[19.394587370717648,41.95596710437426],[19.3946268060213,41.955927064948625],[19.394634961962428,41.955931540180764],[19.394644653623086,41.9559368580733],[19.394648811368356,41.95593263684413],[19.394711174798978,41.9559668586441],[19.394660844603248,41.956017960359084],[19.394647862655837,41.95601083709672],[19.394611837310872,41.95604741391901],[19.3945615510349,41.956019820800066]]]},"properties":{"NR_PASURIE":"","SIPERFAQJA":82}},
{"type":"Feature","geometry":{"type":"Polygon","coordinates":[[[19.40158359752325,41.949824247520255],[19.401627051210458,41.94983988668394],[19.40155372645105,41.94995342074158],[19.4015102727053,41.94993778155008],[19.40158359752325,41.949824247520255]]]},"properties":{"NR_PASURIE":"","SIPERFAQJA":56}},
{"type":"Feature","geometry":{"type":"Polygon","coordinates":[[[19.391126098344618,41.95589262084456],[19.39111396860694,41.955886141898006],[19.391067247071614,41.955861186154394],[19.391137435820667,41.955787972064186],[19.39119628706166,41.955819406718554],[19.391126098344618,41.95589262084456]]]},"properties":{"NR_PASURIE":"","SIPERFAQJA":60}}
]}