{"type":"FeatureCollection", "features": [
{"type":"Feature","geometry":{"type":"Polygon","coordinates":[[[19.6718089764568,40.14367225250905],[19.671859277571482,40.14368385558478],[19.671840143696997,40.14373270924341],[19.67178984254968,40.14372110615935],[19.6718089764568,40.14367225250905]]]},"properties":{"sip":25.3530426623,"nr_pas":"1/28","BASHKIA":"HIMARE","ZK":"1982","ADRESA":"ILIAS"}},
{"type":"Feature","geometry":{"type":"Polygon","coordinates":[[[19.671746849639682,40.14365792153533],[19.671796307794033,40.14366933019495],[19.6718089764568,40.14367225250905],[19.67178984254968,40.14372110615935],[19.671777173878578,40.143718183843085],[19.671727715692224,40.14370677517531],[19.671746849639682,40.14365792153533]]]},"properties":{"sip":31.3135098152,"nr_pas":"1/27","BASHKIA":"HIMARE","ZK":"1982","ADRESA":"ILIAS"}},
{"type":"Feature","geometry":{"type":"Polygon","coordinates":[[[19.67177073369859,40.14372596982255],[19.671698456179833,40.143709297340166],[19.67170178658422,40.14370079402044],[19.671705349523588,40.14369169698073],[19.671658564688993,40.14368090494776],[19.67166347779015,40.14366836063844],[19.67167592777183,40.14363657286854],[19.671748426496357,40.14365329641015],[19.671746849639682,40.14365792153533],[19.671727715692224,40.14370677517531],[19.6717740640948,40.14371746650068],[19.67177073369859,40.14372596982255]]]},"properties":{"sip":42.0269853437,"nr_pas":"1/27","BASHKIA":"HIMARE","ZK":"1982","ADRESA":"ILIAS"}},
{"type":"Feature","geometry":{"type":"Polygon","coordinates":[[[19.671435067083657,40.14361097970001],[19.67143123726475,40.14362096928334],[19.671418432789338,40.14365436806552],[19.67131145426931,40.14363021240439],[19.671350602336258,40.14352810015229],[19.6713798359428,40.143534701087006],[19.67139792522432,40.143538785633986],[19.671375411550706,40.1435975095452],[19.671435067083657,40.14361097970001]]]},"properties":{"sip":76.293636644,"nr_pas":"1/21","BASHKIA":"HIMARE","ZK":"1982","ADRESA":"ILIAS"}},
{"type":"Feature","geometry":{"type":"Polygon","coordinates":[[[19.670792417987915,40.14372868358753],[19.67073280804848,40.14372824179445],[19.670733815542132,40.143648181607695],[19.670793425411592,40.14364862340002],[19.670792417987915,40.14372868358753]]]},"properties":{"sip":45.1613806543,"nr_pas":"1/4","BASHKIA":"HIMARE","ZK":"1982","ADRESA":"ILIAS"}},
{"type":"Feature","geometry":{"type":"Polygon","coordinates":[[[19.670663161986013,40.143676463477476],[19.670698015087027,40.14367738735071],[19.67069695834753,40.14370086685463],[19.670662786603046,40.1436968616466],[19.670663161986013,40.143676463477476]]]},"properties":{"sip":7.18111343178,"nr_pas":"1/4","BASHKIA":"HIMARE","ZK":"1982","ADRESA":"ILIAS"}},
{"type":"Feature","geometry":{"type":"Polygon","coordinates":[[[19.6723501712818,40.14315187888018],[19.672332161860094,40.14315855609432],[19.67228821704859,40.143174849155116],[19.672296000196486,40.14318721308529],[19.672276907249795,40.1431942920147],[19.672269124104574,40.143181928083266],[19.672248534889434,40.143189561765894],[19.67226197263953,40.14321090833872],[19.67222415051362,40.14322493130338],[19.67220903141728,40.14320091380142],[19.672201873698256,40.14320356760137],[19.672168819371404,40.143151058941555],[19.6722795462633,40.143110005710184],[19.67231543550823,40.14309669933848],[19.6723501712818,40.14315187888018]]]},"properties":{"sip":106.373119569,"nr_pas":"1/59/1","BASHKIA":"HIMARE","ZK":"1982","ADRESA":"ILIAS"}},
{"type":"Feature","geometry":{"type":"Polygon","coordinates":[[[19.67231543550823,40.14309669933848],[19.672468592857403,40.14303991421439],[19.67250332872658,40.14309509371107],[19.6723501712818,40.14315187888018],[19.67231543550823,40.14309669933848]]]},"properties":{"sip":98.6312015196,"nr_pas":"1/60/1","BASHKIA":"HIMARE","ZK":"1982","ADRESA":"ILIAS"}},
{"type":"Feature","geometry":{"type":"Polygon","coordinates":[[[19.67163980536091,40.14340274412175],[19.671614712286523,40.143397600194675],[19.671607650715377,40.14341788884865],[19.671581565213305,40.143412541473225],[19.67159090248272,40.14338571451977],[19.671533784658184,40.143374005676556],[19.671524447367947,40.14340083262535],[19.671467726511988,40.14338920512634],[19.67149614421434,40.143307558411514],[19.671661161316123,40.14334138602171],[19.67164053333598,40.14340065256814],[19.67163980536091,40.14340274412175]]]},"properties":{"sip":115.887397221,"nr_pas":"352/50","BASHKIA":"HIMARE","ZK":"1982","ADRESA":"ILIAS"}},
{"type":"Feature","geometry":{"type":"Polygon","coordinates":[[[19.672305539807915,40.14353132260901],[19.672303475682003,40.14352492367733],[19.672141962540763,40.14355560869131],[19.672135090540973,40.14351524376719],[19.67213404651723,40.14350911135038],[19.672150470877817,40.143507464480635],[19.67214740031744,40.14348942855348],[19.672186871592444,40.143485470761064],[19.672190977907103,40.14349975097211],[19.672295382251185,40.14348312838677],[19.672360617982626,40.14348265901854],[19.67236915917019,40.143532827484435],[19.672305539807915,40.14353132260901]]]},"properties":{"sip":105.850868507,"nr_pas":"1/58/1","BASHKIA":"HIMARE","ZK":"1982","ADRESA":"ILIAS"}},
{"type":"Feature","geometry":{"type":"Polygon","coordinates":[[[19.67058904856704,40.142706443162005],[19.67050202666347,40.142705206107884],[19.670501711081602,40.14271828113117],[19.670459711523804,40.142717684065786],[19.67046175302091,40.14263310387891],[19.670462029178154,40.14262166253504],[19.670465622874666,40.14262171362359],[19.670466963749156,40.142566160287366],[19.670516307485055,40.142566861754055],[19.670515987555575,40.142580117055886],[19.670527775700904,40.14258028463212],[19.670526948199512,40.14261456984443],[19.670591243863186,40.142615483828564],[19.670589118069575,40.142703563415935],[19.67058904856704,40.142706443162005]]]},"properties":{"sip":142.040805411,"nr_pas":"1/15/1","BASHKIA":"HIMARE","ZK":"1982","ADRESA":"ILIAS"}},
{"type":"Feature","geometry":{"type":"Polygon","coordinates":[[[19.67265729055987,40.14406175075762],[19.672539839586456,40.144043243189145],[19.672556936047528,40.14397934371403],[19.67254266367936,40.14397709470884],[19.672543558671773,40.14397374959783],[19.672553171725358,40.143937819963305],[19.672719469424138,40.14396402463275],[19.67271746176413,40.14397152851046],[19.672712463284967,40.14399021093728],[19.672682892804968,40.14398555133269],[19.672673089054367,40.14402311479928],[19.672667848579398,40.14402228902414],[19.67265729055987,40.14406175075762]]]},"properties":{"sip":135.846564412,"nr_pas":"1/38/1","BASHKIA":"HIMARE","ZK":"1982","ADRESA":"ILIAS"}},
{"type":"Feature","geometry":{"type":"Polygon","coordinates":[[[19.672940479047643,40.1433428942068],[19.67286561817649,40.14333589971454],[19.672869589576134,40.14331086544531],[19.672901056717258,40.14331380552763],[19.672906858191936,40.14327859185981],[19.6729502265395,40.14328280003368],[19.672952907735354,40.14326652569243],[19.673054525392818,40.14327638592335],[19.673044931579092,40.14333461900942],[19.67294335536781,40.14332476279978],[19.672940479047643,40.1433428942068]]]},"properties":{"sip":89.5318486538,"nr_pas":"1/61/1","BASHKIA":"HIMARE","ZK":"1982","ADRESA":"ILIAS"}},
{"type":"Feature","geometry":{"type":"Polygon","coordinates":[[[19.673356283929067,40.143125278481534],[19.673341452740505,40.14314960160367],[19.67326632608856,40.143122621238106],[19.67325547722904,40.143140413303705],[19.673123580523505,40.14309304483759],[19.673165488937233,40.1430243154458],[19.673328417910888,40.143082828580624],[19.673332890116555,40.14308443469164],[19.67331666188564,40.1431110489578],[19.673356283929067,40.143125278481534]]]},"properties":{"sip":136.537059046,"nr_pas":"1/62/1","BASHKIA":"HIMARE","ZK":"1982","ADRESA":"ILIAS"}},
{"type":"Feature","geometry":{"type":"Polygon","coordinates":[[[19.67114422410399,40.14379873966603],[19.671164525343887,40.14374289429545],[19.671288593562227,40.143769457659765],[19.67126829241573,40.14382530305224],[19.67114422410399,40.14379873966603]]]},"properties":{"sip":70.6626637626,"nr_pas":"1/19/3","BASHKIA":"HIMARE","ZK":"1982","ADRESA":"ILIAS"}},
{"type":"Feature","geometry":{"type":"Polygon","coordinates":[[[19.671356923617413,40.14378954213513],[19.67136581464531,40.143771549264144],[19.671390619123013,40.14377876814164],[19.6713817281007,40.14379676101453],[19.671356923617413,40.14378954213513]]]},"properties":{"sip":4.83031880208,"nr_pas":"1/19/3","BASHKIA":"HIMARE","ZK":"1982","ADRESA":"ILIAS"}},
{"type":"Feature","geometry":{"type":"Polygon","coordinates":[[[19.67114422410399,40.14379873966603],[19.671055902928863,40.14377982975218],[19.67107755725225,40.143720262479846],[19.671165878356447,40.143739172377096],[19.67114422410399,40.14379873966603]]]},"properties":{"sip":53.6555831662,"nr_pas":"1/19/2","BASHKIA":"HIMARE","ZK":"1982","ADRESA":"ILIAS"}},
{"type":"Feature","geometry":{"type":"Polygon","coordinates":[[[19.670919148926043,40.14378433367306],[19.670919973536463,40.143679079100835],[19.67101823527502,40.14367953245848],[19.67101741081625,40.143784787032054],[19.670919148926043,40.14378433367306]]]},"properties":{"sip":97.8662272618,"nr_pas":"1/19/1","BASHKIA":"HIMARE","ZK":"1982","ADRESA":"ILIAS"}},
{"type":"Feature","geometry":{"type":"Polygon","coordinates":[[[19.669551956224073,40.143274226356525],[19.669577879546445,40.14332161031958],[19.669526568787305,40.143338143707204],[19.669500645494477,40.14329075973293],[19.669551956224073,40.143274226356525]]]},"properties":{"sip":27.0611349982,"nr_pas":"1/311","BASHKIA":"HIMARE","ZK":"1982","ADRESA":"ILIAS"}},
{"type":"Feature","geometry":{"type":"Polygon","coordinates":[[[19.672965034073105,40.143969358783885],[19.67294450308476,40.14396858447743],[19.67293265340962,40.14396813757667],[19.672911763341006,40.143967349721905],[19.672913603759138,40.14393860916039],[19.672905239286383,40.14393829369891],[19.672863416923825,40.14393671638257],[19.672866412694503,40.143889933946724],[19.672908235028476,40.14389151126189],[19.672909659198144,40.14386927096253],[19.672950573257967,40.143870814007684],[19.672949249789067,40.14389148192494],[19.67299487415682,40.14389320259901],[19.672994506703237,40.14389894098557],[19.673035294048603,40.14390047922122],[19.67303260356413,40.14394249588307],[19.672966912875292,40.1439400184466],[19.672965034073105,40.143969358783885]]]},"properties":{"sip":96.904101014,"nr_pas":"1/50/1","BASHKIA":"HIMARE","ZK":"1982","ADRESA":"ILIAS"}},
{"type":"Feature","geometry":{"type":"Polygon","coordinates":[[[19.672280189323942,40.14384022340143],[19.67222366410724,40.14381186324017],[19.672285021663523,40.14373983718116],[19.672341546846443,40.1437681973127],[19.672280189323942,40.14384022340143]]]},"properties":{"sip":54.9884542264,"nr_pas":"1/36, 1/37","BASHKIA":"HIMARE","ZK":"1982","ADRESA":"ILIAS"}},
{"type":"Feature","geometry":{"type":"Polygon","coordinates":[[[19.67224996614627,40.14363604856497],[19.672313804665247,40.14365277068227],[19.67228649699149,40.14371417039293],[19.672222658421987,40.14369744826055],[19.67224996614627,40.14363604856497]]]},"properties":{"sip":41.409483018,"nr_pas":"1/36, 1/37","BASHKIA":"HIMARE","ZK":"1982","ADRESA":"ILIAS"}},
{"type":"Feature","geometry":{"type":"Polygon","coordinates":[[[19.67184710859668,40.14382727521115],[19.671828671935266,40.14387611553199],[19.671764013407223,40.143861740209005],[19.671782450110946,40.14381289989849],[19.67184710859668,40.14382727521115]]]},"properties":{"sip":32.3887644787,"nr_pas":"1/25","BASHKIA":"HIMARE","ZK":"1982","ADRESA":"ILIAS"}},
{"type":"Feature","geometry":{"type":"Polygon","coordinates":[[[19.671782450110946,40.14381289989849],[19.671783722534,40.14380952914483],[19.671789903086157,40.14379315634692],[19.671793278579077,40.14379390681042],[19.671807092233955,40.14375731325231],[19.67182737845228,40.1437618234253],[19.67183110000133,40.14375196470735],[19.67187209672332,40.143761079370634],[19.671868375179656,40.14377093808993],[19.6718545615548,40.14380753165538],[19.671847213003844,40.1438269986273],[19.67184710859668,40.14382727521115],[19.671782450110946,40.14381289989849]]]},"properties":{"sip":40.2387817154,"nr_pas":"1/25","BASHKIA":"HIMARE","ZK":"1982","ADRESA":"ILIAS"}},
{"type":"Feature","geometry":{"type":"Polygon","coordinates":[[[19.67093304025143,40.143499737528174],[19.670903782112948,40.14349207617023],[19.670896810734206,40.14350775635809],[19.670894422858773,40.143507131083155],[19.670891501401737,40.14350636608762],[19.67083045047883,40.14349037963178],[19.670854899343283,40.14343538876043],[19.670915950222966,40.14345137520339],[19.67091600715894,40.14345124714171],[19.67095057461123,40.143460298764516],[19.67093304025143,40.143499737528174]]]},"properties":{"sip":50.7463451678,"nr_pas":"1/17/1","BASHKIA":"HIMARE","ZK":"1982","ADRESA":"ILIAS"}},
{"type":"Feature","geometry":{"type":"Polygon","coordinates":[[[19.670508843130783,40.14341860931068],[19.670465730816076,40.14337702540906],[19.67052122224319,40.143343141342065],[19.670564334570575,40.14338472522332],[19.670508843130783,40.14341860931068]]]},"properties":{"sip":35.6572033869,"nr_pas":"1/13/1","BASHKIA":"HIMARE","ZK":"1982","ADRESA":"ILIAS"}},
{"type":"Feature","geometry":{"type":"Polygon","coordinates":[[[19.672578610607747,40.14394182855931],[19.672590276348245,40.143870863392095],[19.672697969783933,40.1438812899467],[19.672686304153572,40.14395225512508],[19.672578610607747,40.14394182855931]]]},"properties":{"sip":73.4653293747,"nr_pas":"1/51","BASHKIA":"HIMARE","ZK":"1982","ADRESA":"ILIAS"}},
{"type":"Feature","geometry":{"type":"Polygon","coordinates":[[[19.672359183218003,40.14377827709603],[19.672467726757855,40.14382478637455],[19.67243012447652,40.1438764716317],[19.672321580880496,40.14382996231816],[19.672359183218003,40.14377827709603]]]},"properties":{"sip":69.6317011175,"nr_pas":"1/51","BASHKIA":"HIMARE","ZK":"1982","ADRESA":"ILIAS"}},
{"type":"Feature","geometry":{"type":"Polygon","coordinates":[[[19.67023631066258,40.14262461969289],[19.67022027528682,40.142627389305865],[19.670211186863213,40.1426289590476],[19.67022043473017,40.14267507508116],[19.670220512805578,40.14267506659255],[19.670221436649136,40.14268007131371],[19.670223559374136,40.14269157071108],[19.67018976685216,40.1426952447271],[19.670191346550773,40.142703802418545],[19.670142105532197,40.1427091560193],[19.67013847482568,40.142689487335595],[19.670179236588645,40.14268505562121],[19.670158350997365,40.1425809057398],[19.67026883917135,40.142561822339225],[19.6702692015385,40.142561759751366],[19.670278371482322,40.14259302984379],[19.670229521220133,40.14260146722398],[19.67023631066258,40.14262461969289]]]},"properties":{"sip":83.542095359,"nr_pas":"1/72/1","BASHKIA":"HIMARE","ZK":"1982","ADRESA":"ILIAS"}},
{"type":"Feature","geometry":{"type":"Polygon","coordinates":[[[19.670233044426485,40.14252262462313],[19.67021510412274,40.14252572325738],[19.670227770260535,40.1425689157317],[19.670152533603982,40.14258191051063],[19.670118244935015,40.14246498302401],[19.670193481468814,40.14245198826661],[19.67020813933488,40.14250197278774],[19.670226079632677,40.142498874154576],[19.670233044426485,40.14252262462313]]]},"properties":{"sip":91.6946460923,"nr_pas":"1/72","BASHKIA":"HIMARE","ZK":"1982","ADRESA":"ILIAS"}},
{"type":"Feature","geometry":{"type":"Polygon","coordinates":[[[19.672616214345556,40.14423399872148],[19.672667482478932,40.14418918316157],[19.67264986898159,40.14417731599526],[19.67266561920514,40.144163548071],[19.672683232701704,40.14417541523492],[19.67270180616435,40.14418792917246],[19.67271154222077,40.1441794184736],[19.672751051372337,40.14420603787947],[19.672713011687996,40.144239289976774],[19.672700916686225,40.14423114093469],[19.672652223650257,40.144273705504766],[19.67263131289565,40.144249550232864],[19.672616214345556,40.14423399872148]]]},"properties":{"sip":63.0247771871,"nr_pas":"1/38/1","BASHKIA":"HIMARE","ZK":"1982","ADRESA":"ILIAS"}},
{"type":"Feature","geometry":{"type":"Polygon","coordinates":[[[19.670920710070916,40.144056032663414],[19.67087610507252,40.14405339198063],[19.67087541317918,40.14406027517044],[19.670843509476065,40.14405838641268],[19.670841419616014,40.14407917694434],[19.67082272525657,40.14407807019983],[19.670812061050075,40.1440774388555],[19.670814122730484,40.14405692875065],[19.670748036916056,40.14405301630403],[19.670753160786372,40.14400204321507],[19.670727740631104,40.14400053826778],[19.670730212730327,40.143975945488464],[19.670878941803235,40.143984750602876],[19.670885046235288,40.14398511199561],[19.67088207268272,40.144014693966334],[19.67092461223094,40.1440172123709],[19.670920710070916,40.144056032663414]]]},"properties":{"sip":120.257990179,"nr_pas":"1/304","BASHKIA":"HIMARE","ZK":"1982","ADRESA":"ILIAS"}},
{"type":"Feature","geometry":{"type":"Polygon","coordinates":[[[19.671989646776982,40.14414266119095],[19.671933050408423,40.14420643483746],[19.67189060919206,40.144184251916045],[19.671918031044164,40.144153352597215],[19.67185085215963,40.14411823988525],[19.67191065530856,40.1440508528304],[19.672084469912253,40.14414170115273],[19.672053841364498,40.14417621396292],[19.671989646776982,40.14414266119095]]]},"properties":{"sip":151.170191994,"nr_pas":"1/24/1","BASHKIA":"HIMARE","ZK":"1982","ADRESA":"ILIAS"}},
{"type":"Feature","geometry":{"type":"Polygon","coordinates":[[[19.670465730816076,40.14337702540906],[19.67042255582291,40.14333538098414],[19.670478047237314,40.14330149693754],[19.67052122224319,40.143343141342065],[19.670465730816076,40.14337702540906]]]},"properties":{"sip":35.7090868173,"nr_pas":"1/121","BASHKIA":"HIMARE","ZK":"1982","ADRESA":"ILIAS"}},
{"type":"Feature","geometry":{"type":"Polygon","coordinates":[[[19.670478047237314,40.14330149693754],[19.670535179121856,40.14326661112731],[19.67055945175933,40.143290023262445],[19.670502319867403,40.1433249090845],[19.670478047237314,40.14330149693754]]]},"properties":{"sip":20.6688581613,"nr_pas":"1/121","BASHKIA":"HIMARE","ZK":"1982","ADRESA":"ILIAS"}},
{"type":"Feature","geometry":{"type":"Polygon","coordinates":[[[19.672071168496007,40.14356583502144],[19.671914283013148,40.143584155419354],[19.67189711857023,40.14349758458935],[19.67205400385821,40.14347926421362],[19.672071168496007,40.14356583502144]]]},"properties":{"sip":131.488365823,"nr_pas":"1/33/1","BASHKIA":"HIMARE","ZK":"1982","ADRESA":"ILIAS"}},
{"type":"Feature","geometry":{"type":"Polygon","coordinates":[[[19.672071168496007,40.14356583502144],[19.672075178867523,40.143586061522115],[19.671968296651436,40.143598542782144],[19.671964286310953,40.14357831627793],[19.672071168496007,40.14356583502144]]]},"properties":{"sip":20.9295178727,"nr_pas":"1/33/1","BASHKIA":"HIMARE","ZK":"1982","ADRESA":"ILIAS"}},
{"type":"Feature","geometry":{"type":"Polygon","coordinates":[[[19.66956562720895,40.14342908242957],[19.66953660667909,40.14337725801578],[19.669667687152934,40.14333402623808],[19.669696707764412,40.143385850619715],[19.66956562720895,40.14342908242957]]]},"properties":{"sip":76.1499759083,"nr_pas":"1/7","BASHKIA":"HIMARE","ZK":"1982","ADRESA":"ILIAS"}},
{"type":"Feature","geometry":{"type":"Polygon","coordinates":[[[19.672615669309042,40.143622830705716],[19.67259121059047,40.14370526700906],[19.672522093929317,40.14369318918857],[19.672546552726907,40.143610752899995],[19.672615669309042,40.143622830705716]]]},"properties":{"sip":56.7081177418,"nr_pas":"1/53/1","BASHKIA":"HIMARE","ZK":"1982","ADRESA":"ILIAS"}},
{"type":"Feature","geometry":{"type":"Polygon","coordinates":[[[19.67253110695752,40.14366281157097],[19.67250419301914,40.143658108471136],[19.672517203643533,40.14361425731608],[19.67254411756552,40.143618960412844],[19.67253110695752,40.14366281157097]]]},"properties":{"sip":11.7463424688,"nr_pas":"1/53/1","BASHKIA":"HIMARE","ZK":"1982","ADRESA":"ILIAS"}},
{"type":"Feature","geometry":{"type":"Polygon","coordinates":[[[19.67183110000133,40.14375196470735],[19.67182737845228,40.1437618234253],[19.671807092233955,40.14375731325231],[19.67179329070161,40.143793874696804],[19.67177726739938,40.14378994728508],[19.671743511890963,40.14378167358978],[19.671755588163464,40.14375265567512],[19.671762828436663,40.14373525810627],[19.671767047745494,40.143725119573475],[19.67177073369859,40.14372596982255],[19.6717740640948,40.14371746650071],[19.671777173878578,40.143718183843085],[19.67178984254968,40.14372110615935],[19.671840143696997,40.14373270924341],[19.67183110000133,40.14375196470735]]]},"properties":{"sip":39.1225250889,"nr_pas":"1/26","BASHKIA":"HIMARE","ZK":"1982","ADRESA":"ILIAS"}},
{"type":"Feature","geometry":{"type":"Polygon","coordinates":[[[19.672320563569738,40.14364006978791],[19.67223397791645,40.143634225681126],[19.67223510612438,40.14362438092996],[19.672191865231476,40.143621462357245],[19.67219819068293,40.14356626666915],[19.672241290420395,40.143569175714376],[19.672243757297913,40.14354764967579],[19.672316369893792,40.143552550673924],[19.672313903038983,40.143574076714145],[19.67234190086681,40.14357596641945],[19.672335575530656,40.14363116211575],[19.672321691765276,40.14363022503586],[19.672320563569738,40.14364006978791]]]},"properties":{"sip":98.6690024345,"nr_pas":"1/71","BASHKIA":"HIMARE","ZK":"1982","ADRESA":"ILIAS"}},
{"type":"Feature","geometry":{"type":"Polygon","coordinates":[[[19.669613903415428,40.143413160429084],[19.66969825520429,40.14338534025582],[19.66975327985852,40.14348360185575],[19.669668927969994,40.143511422068215],[19.669613903415428,40.143413160429084]]]},"properties":{"sip":92.9128315793,"nr_pas":"1/8","BASHKIA":"HIMARE","ZK":"1982","ADRESA":"ILIAS"}},
{"type":"Feature","geometry":{"type":"Polygon","coordinates":[[[19.672546552726907,40.143610752899995],[19.672571905101773,40.14352530466593],[19.672641021602015,40.14353738245637],[19.672615669309042,40.143622830705716],[19.672546552726907,40.143610752899995]]]},"properties":{"sip":58.7800373845,"nr_pas":"1/56/2","BASHKIA":"HIMARE","ZK":"1982","ADRESA":"ILIAS"}},
{"type":"Feature","geometry":{"type":"Polygon","coordinates":[[[19.672876231260275,40.1441769619797],[19.672960366193134,40.14422652126799],[19.672884318874935,40.14430255699288],[19.672828902404436,40.14426991417394],[19.67285420282745,40.14424461765279],[19.672825484331653,40.144227701134874],[19.672876231260275,40.1441769619797]]]},"properties":{"sip":85.2691575679,"nr_pas":"1/42/1","BASHKIA":"HIMARE","ZK":"1982","ADRESA":"ILIAS"}},
{"type":"Feature","geometry":{"type":"Polygon","coordinates":[[[19.670508843130783,40.14341860931068],[19.670564334570575,40.14338472522332],[19.670590222394157,40.14340969522291],[19.670534730946738,40.14344357932251],[19.670508843130783,40.14341860931068]]]},"properties":{"sip":21.4111959677,"nr_pas":"1/13/2","BASHKIA":"HIMARE","ZK":"1982","ADRESA":"ILIAS"}},
{"type":"Feature","geometry":{"type":"Polygon","coordinates":[[[19.67086140189784,40.143503216246806],[19.67083317838552,40.14356911050668],[19.67078690221368,40.14355743671305],[19.670782870611003,40.14356685005153],[19.670693662791503,40.14354434622414],[19.670727750584685,40.14346475962854],[19.670816958312738,40.14348726342848],[19.6708151257653,40.143491542464986],[19.67086140189784,40.143503216246806]]]},"properties":{"sip":106.408790547,"nr_pas":"1/300","BASHKIA":"HIMARE","ZK":"1982","ADRESA":"ILIAS"}},
{"type":"Feature","geometry":{"type":"Polygon","coordinates":[[[19.66948761774781,40.14405455013451],[19.669457188466563,40.14405275796287],[19.66932142708009,40.14404476202291],[19.669329555785936,40.14396347724383],[19.669465317012023,40.14397147317175],[19.669460781196552,40.144016830983595],[19.66949121046193,40.144018623154075],[19.66948761774781,40.14405455013451]]]},"properties":{"sip":115.438157236,"nr_pas":"1/584","BASHKIA":"HIMARE","ZK":"1982","ADRESA":"ILIAS"}}
]}