{"type":"FeatureCollection", "features": [
{"type":"Feature","geometry":{"type":"Polygon","coordinates":[[[19.625907507066362,40.15394306270068],[19.625738025000327,40.154023009887304],[19.625694601528828,40.15396830157477],[19.625864513182876,40.15388889578666],[19.625907507066362,40.15394306270068]]]},"properties":{"AREA":0,"STRING":"200/237"}},
{"type":"Feature","geometry":{"type":"Polygon","coordinates":[[[19.633955035844572,40.14593603158037],[19.633931045642743,40.14588290914343],[19.633977268623514,40.14586939058362],[19.633960926644296,40.145833220101935],[19.63405263233365,40.145810814978255],[19.634085974031045,40.14589118561042],[19.634000814534307,40.14591199140222],[19.634004329778254,40.14592292133881],[19.633955035844572,40.14593603158037]]]},"properties":{"AREA":0,"STRING":"77/31"}},
{"type":"Feature","geometry":{"type":"Polygon","coordinates":[[[19.63450624387858,40.14623589521312],[19.63449669956223,40.14619081297765],[19.634519153327943,40.14618893566735],[19.634506266053172,40.14611824293208],[19.634701444023985,40.146096327693606],[19.634724237104383,40.1462063881034],[19.634662418971427,40.14621372660589],[19.634660445714804,40.14620179079221],[19.634591027058917,40.14620938848127],[19.634593081379165,40.146225068291],[19.63450624387858,40.14623589521312]]]},"properties":{"AREA":0,"STRING":"74/35"}},
{"type":"Feature","geometry":{"type":"Polygon","coordinates":[[[19.660516530669973,40.12853163015113],[19.660402048155895,40.12852048199984],[19.66041910188058,40.128402456599055],[19.660546254969773,40.12841277960987],[19.660546298767066,40.128423035440846],[19.660582641641916,40.12842527512501],[19.660577149130475,40.12847439388431],[19.66055541360435,40.12847303604648],[19.66055447746439,40.12849710220636],[19.66052166463742,40.128494672239846],[19.660516530669973,40.12853163015113]]]},"properties":{"AREA":0,"STRING":"202/55"}},
{"type":"Feature","geometry":{"type":"Polygon","coordinates":[[[19.63500062623369,40.14532044687475],[19.635009739074928,40.14536493075711],[19.634973133066428,40.14536953146923],[19.634974385978822,40.145375402527314],[19.634944765757584,40.1453788888929],[19.63494351905593,40.14537376343787],[19.634907441692658,40.14537907734488],[19.634895745789827,40.14533424870766],[19.63500062623369,40.14532044687475]]]},"properties":{"AREA":0,"STRING":"200/548"}},
{"type":"Feature","geometry":{"type":"Polygon","coordinates":[[[19.625345417037337,40.156689094074146],[19.625396799235343,40.15673056768706],[19.625428798126144,40.15677093499803],[19.625419662002002,40.15677519871333],[19.6254277828946,40.15678532998589],[19.625408233765782,40.15679445331699],[19.62541189431114,40.15679918457987],[19.625339441376337,40.1568306801637],[19.625255789854346,40.15671595525365],[19.625327446257607,40.1566814635578],[19.625338404238843,40.15669298612105],[19.625345417037337,40.156689094074146]]]},"properties":{"AREA":0,"STRING":"200/190"}},
{"type":"Feature","geometry":{"type":"Polygon","coordinates":[[[19.63938657698827,40.142449417021695],[19.639344473133853,40.142386317878334],[19.63939235975664,40.142368884122746],[19.639433973538818,40.142432062010016],[19.63938657698827,40.142449417021695]]]},"properties":{"AREA":0,"STRING":"200/198"}},
{"type":"Feature","geometry":{"type":"Polygon","coordinates":[[[19.624040281936544,40.15499027854466],[19.624073080760038,40.15495455365267],[19.62409028739074,40.15496429262347],[19.62413601983689,40.15491448017465],[19.624221801586554,40.15496084890885],[19.624194994618623,40.15499004750082],[19.62420946633141,40.15499787007471],[19.62417732276695,40.15503288134214],[19.624161640680523,40.155024404507664],[19.62413418649411,40.15505430798873],[19.624093557483373,40.15503234625654],[19.624101699764065,40.15502347758048],[19.624040281936544,40.15499027854466]]]},"properties":{"AREA":0,"STRING":"200/175"}},
{"type":"Feature","geometry":{"type":"Polygon","coordinates":[[[19.623059971853028,40.155384841107214],[19.623065109952652,40.15536219411751],[19.62300275446858,40.15534960292403],[19.623030366879583,40.15526909267823],[19.623055179553287,40.15527410300628],[19.623064406866757,40.15524719860833],[19.623133384609076,40.155261126987085],[19.623088948126473,40.15539069215666],[19.623059971853028,40.155384841107214]]]},"properties":{"AREA":0,"STRING":"200/153"}},
{"type":"Feature","geometry":{"type":"Polygon","coordinates":[[[19.640767476822848,40.14153229688052],[19.64067601704843,40.14144495668323],[19.640794426428076,40.14138233996769],[19.640885817862607,40.14147065993487],[19.640767476822848,40.14153229688052]]]},"properties":{"AREA":0,"STRING":"200/162"}},
{"type":"Feature","geometry":{"type":"Polygon","coordinates":[[[19.630981521669533,40.15291847791017],[19.630920311336872,40.15277929000059],[19.631003686070162,40.1527577011355],[19.631060321172484,40.15289707026634],[19.630981521669533,40.15291847791017]]]},"properties":{"AREA":0,"STRING":"200/158"}},
{"type":"Feature","geometry":{"type":"Polygon","coordinates":[[[19.639379967578986,40.14291958913168],[19.63931513360532,40.142837719491915],[19.639480913972157,40.142760900114254],[19.639546617213693,40.142840695143725],[19.639379967578986,40.14291958913168]]]},"properties":{"AREA":0,"STRING":"200/134"}},
{"type":"Feature","geometry":{"type":"Polygon","coordinates":[[[19.631054547716523,40.15756671936152],[19.631273552069413,40.15742575610674],[19.63125087263448,40.15739099979393],[19.631529171561873,40.15728981501901],[19.631568761237524,40.15735132828189],[19.63130654198924,40.157447740283914],[19.631318123301547,40.1574662843602],[19.631192397477374,40.15754592168139],[19.63119579865015,40.157549082854445],[19.631098638424344,40.15760888905641],[19.631054547716523,40.15756671936152]]]},"properties":{"AREA":0,"STRING":"200/156"}},
{"type":"Feature","geometry":{"type":"Polygon","coordinates":[[[19.62679064721822,40.15394044334848],[19.626713567666393,40.15389834272383],[19.626846560011415,40.15375641414853],[19.62685373123172,40.15376037062319],[19.626878643019502,40.15373378483706],[19.626948871599566,40.15377158701938],[19.62679064721822,40.15394044334848]]]},"properties":{"AREA":0,"STRING":"200/147"}},
{"type":"Feature","geometry":{"type":"Polygon","coordinates":[[[19.623916658890085,40.15420024670748],[19.6239354272947,40.154136368251436],[19.623935141083493,40.154135507431484],[19.62393489387161,40.154134639526234],[19.623934685955277,40.154133765575665],[19.623934517583624,40.15413288662697],[19.623934388958403,40.15413200373336],[19.623934300233735,40.15413111795277],[19.623934251515934,40.15413023034656],[19.62393424286337,40.15412934197833],[19.62393427428642,40.15412845391255],[19.62393434574742,40.154127567213344],[19.623934457160747,40.1541266829432],[19.623934608392894,40.154125802161694],[19.623934799262646,40.15412492592423],[19.62393502954129,40.15412405528073],[19.6239352989529,40.15412319127448],[19.62393560717465,40.15412233494073],[19.62393595383721,40.15412148730562],[19.623936338525198,40.15412064938481],[19.62393676077765,40.15411982218234],[19.62393722008861,40.15411900668938],[19.623937715907708,40.15411820388314],[19.623938247640826,40.15411741472553],[19.62393881465081,40.154116640162215],[19.623939416258246,40.15411588112125],[19.62394005174226,40.15411513851219],[19.62394072034138,40.15411441322486],[19.62394142125446,40.154113706128335],[19.62394215364163,40.154113018069886],[19.623942916625307,40.15411234987399],[19.623943709291247,40.15411170234129],[19.62394453068964,40.1541110762477],[19.623945379836254,40.15411047234345],[19.623946255713587,40.15410989135214],[19.623947157272127,40.15410933396997],[19.623948083431586,40.1541088008648],[19.62394903308219,40.15410829267542],[19.623950005086026,40.15410781001078],[19.623950998278396,40.154107353449234],[19.6239520114692,40.154106923537846],[19.623953043444388,40.15410652079175],[19.623954092967402,40.15410614569355],[19.623955158780653,40.154105798692704],[19.62395623960703,40.154105480205],[19.623957334151438,40.154105190612064],[19.62395844110234,40.1541049302609],[19.62395955913334,40.15410469946347],[19.623960686904756,40.154104498496345],[19.623961823065237,40.15410432760032],[19.623962966253387,40.154104186980156],[19.623964115099383,40.15410407680438],[19.623965268226623,40.154103997204984],[19.623966424253375,40.15410394827737],[19.62396758179443,40.15410393008014],[19.623968739462775,40.15410394263511],[19.623969895871234,40.15410398592726],[19.623971049634143,40.15410405990468],[19.623972199369014,40.15410416447875],[19.62397334369817,40.15410429952415],[19.623974481250432,40.15410446487906],[19.623975610662725,40.15410466034536],[19.623976730581738,40.15410488568884],[19.623977839665528,40.154105140639444],[19.623978936585143,40.1541054248917],[19.623980020026195,40.154105738105024],[19.623981088690464,40.154106079904075],[19.623982141297414,40.154106449879315],[19.623983176585767,40.15410684758742],[19.623984193314993,40.154107272551826],[19.623985190266794,40.15410772426333],[19.623986166246578,40.15410820218068],[19.62398712008488,40.15410870573117],[19.623988050638765,40.15410923431148],[19.623988956793195,40.1541097872882],[19.62398983746238,40.15411036399875],[19.62399069159105,40.15411096375207],[19.623997578410986,40.15408496647765],[19.62415923237203,40.15411637503469],[19.624148587245347,40.15414863365771],[19.624140402027084,40.15414759093358],[19.624131645628452,40.15417977832105],[19.62414143860437,40.15418134690886],[19.62412615248394,40.15423753666176],[19.624089036179345,40.15423129903701],[19.624086857827656,40.15423893082996],[19.624030808653572,40.15422951139454],[19.624033147347266,40.154219835162245],[19.623916658890085,40.15420024670748]]]},"properties":{"AREA":0,"STRING":"200/144"}},
{"type":"Feature","geometry":{"type":"Polygon","coordinates":[[[19.640948936131444,40.14146884186334],[19.640896297205543,40.14141266314217],[19.64097896978661,40.14136703680622],[19.641031144526565,40.14142347168981],[19.640948936131444,40.14146884186334]]]},"properties":{"AREA":0,"STRING":"200/164"}},
{"type":"Feature","geometry":{"type":"Polygon","coordinates":[[[19.62388323608761,40.15391943604594],[19.623902009037096,40.1538555419598],[19.623901722827455,40.153854681139734],[19.62390147561699,40.153853813234385],[19.62390126770191,40.15385293928371],[19.623901099331356,40.153852060334934],[19.623900970707066,40.153851177441254],[19.623900881983168,40.153850291660596],[19.623900833265974,40.15384940405434],[19.623900824613855,40.15384851568606],[19.623900856037178,40.153847627620245],[19.62390092749829,40.15384674092101],[19.623901038911562,40.15384585665087],[19.623901190143485,40.15384497586936],[19.623901381012853,40.15384409963188],[19.62390161129095,40.15384322898842],[19.623901880701844,40.15384236498219],[19.623902188922717,40.1538415086485],[19.62390253558424,40.15384066101345],[19.62390292027102,40.15383982309269],[19.623903342522116,40.1538389958903],[19.623903801831553,40.153838180397436],[19.623904297648973,40.15383737759127],[19.623904829380262,40.15383658843379],[19.623905396388263,40.153835813870565],[19.62390599799357,40.15383505482973],[19.623906633475304,40.15383431222082],[19.623907302072002,40.15383358693363],[19.623908002982517,40.15383287983726],[19.62390873536698,40.15383219177898],[19.62390949834782,40.15383152358325],[19.62391029101079,40.15383087605074],[19.62391111240609,40.153830249957345],[19.623911961549474,40.15382964605329],[19.623912837423465,40.15382906506219],[19.623913738978548,40.153828507680224],[19.623914665134432,40.153827974575286],[19.623915614781357,40.153827466386154],[19.62391658678141,40.15382698372175],[19.623917579969895,40.15382652716045],[19.62391859315672,40.15382609724931],[19.62391962512784,40.15382569450348],[19.6239206746467,40.15382531940555],[19.623921740455717,40.15382497240497],[19.623922821277787,40.15382465391754],[19.62392391581782,40.15382436432488],[19.62392502276428,40.15382410397401],[19.623926140790775,40.15382387317687],[19.623927268557637,40.153823672210045],[19.623928404713514,40.15382350131431],[19.623929547897017,40.15382336069445],[19.62393069673833,40.15382325051897],[19.623931849860853,40.153823170919885],[19.62393300588286,40.15382312199258],[19.62393416341916,40.15382310379567],[19.623935321082726,40.153823116350964],[19.623936477486403,40.15382315964341],[19.62393763124452,40.15382323362115],[19.623938780974605,40.15382333819554],[19.623939925298984,40.153823473241246],[19.62394106284648,40.15382363859648],[19.62394219225403,40.15382383406309],[19.623943312168326,40.153824059406865],[19.62394442124743,40.1538243143578],[19.623945518162394,40.15382459861037],[19.62394660159884,40.153824911823996],[19.62394767025854,40.15382525362335],[19.623948722860987,40.1538256235989],[19.62394975814489,40.15382602130729],[19.623950774869733,40.15382644627199],[19.623951771817218,40.153826897983784],[19.623952747792764,40.153827375901415],[19.623953701626903,40.15382787945221],[19.623954632176712,40.15382840803277],[19.623955538327156,40.15382896100977],[19.623956418992446,40.15382953772058],[19.623957273117323,40.153830137474166],[19.623997827519506,40.1538378137733],[19.623999708077267,40.15383097817008],[19.624039587023262,40.15383812869892],[19.62403726833192,40.15384652834102],[19.624090547862142,40.15385673769359],[19.62408846531635,40.153864303281665],[19.624105171342954,40.15386736964399],[19.62409226105094,40.153906013865765],[19.624107784214736,40.153909060563976],[19.624087210380598,40.153963059610696],[19.62405024611097,40.153956200371866],[19.624047356752804,40.1539646052439],[19.623998526639447,40.15395469865436],[19.623993809579048,40.15396601693838],[19.623958430213996,40.15395938135275],[19.62396623349759,40.15393890013161],[19.62388323608761,40.15391943604594]]]},"properties":{"AREA":0,"STRING":"200/146"}},
{"type":"Feature","geometry":{"type":"Polygon","coordinates":[[[19.63869588514781,40.14302234411007],[19.63864524522029,40.143049640773825],[19.638603611203926,40.1430068675497],[19.638654335989774,40.14297730417967],[19.63869588514781,40.14302234411007]]]},"properties":{"AREA":0,"STRING":"200/149"}},
{"type":"Feature","geometry":{"type":"Polygon","coordinates":[[[19.626055732245693,40.15353112263304],[19.626164342170387,40.15342497751022],[19.626191292076516,40.153441148980576],[19.62619991568208,40.15343268722111],[19.626219492563358,40.15344443444926],[19.626211673022272,40.153452107237015],[19.626300393981357,40.1535050141254],[19.626198333373868,40.153605159227055],[19.626170973141146,40.15358907216071],[19.626163410292094,40.15359649304946],[19.62613619275605,40.15358016101256],[19.62614468939503,40.15357182386488],[19.62612736650234,40.15356142915822],[19.6261193489099,40.15356929624975],[19.626055732245693,40.15353112263304]]]},"properties":{"AREA":0,"STRING":"200/138-ND"}},
{"type":"Feature","geometry":{"type":"Polygon","coordinates":[[[19.626480954573083,40.15359621327015],[19.62656606850669,40.15356464548953],[19.62655621410738,40.15354900146675],[19.62657239058863,40.15354300178548],[19.62661134755173,40.153601684071546],[19.626510702557173,40.15364102382666],[19.626480954573083,40.15359621327015]]]},"properties":{"AREA":0,"STRING":"200/122"}},
{"type":"Feature","geometry":{"type":"Polygon","coordinates":[[[19.610741685653032,40.15737605574421],[19.610646407937928,40.157313950980175],[19.6107688882449,40.15725604785623],[19.610674944536058,40.15714102301525],[19.610763301245726,40.157100502998304],[19.61092152093436,40.15729113528521],[19.610741685653032,40.15737605574421]]]},"properties":{"AREA":0,"STRING":"200/173"}},
{"type":"Feature","geometry":{"type":"Polygon","coordinates":[[[19.625428669782792,40.15420768052426],[19.625479510320197,40.15426947303222],[19.625391226786334,40.15431223985453],[19.625400710929892,40.15432448116813],[19.625238810785127,40.15440341654335],[19.62519303753832,40.15434778269325],[19.62532731853227,40.154282733822136],[19.62531204881905,40.15426417468402],[19.625428669782792,40.15420768052426]]]},"properties":{"AREA":0,"STRING":"200/136"}},
{"type":"Feature","geometry":{"type":"Polygon","coordinates":[[[19.620582105641812,40.15710314787444],[19.62065988719924,40.15717356118855],[19.620599903532256,40.157210208143404],[19.620616948283818,40.157226632988255],[19.620576147927707,40.157251559883726],[19.620560727948636,40.15723670071131],[19.620505467504064,40.15727046191189],[19.62042829117232,40.15719906304025],[19.620461367201315,40.15717801454217],[19.620457008855308,40.157173982460016],[19.62054273670719,40.157121321258536],[19.620546941229936,40.15712426398151],[19.620582105641812,40.15710314787444]]]},"properties":{"AREA":0,"STRING":"63/45"}},
{"type":"Feature","geometry":{"type":"Polygon","coordinates":[[[19.625907507066362,40.15394306270068],[19.6259273360491,40.15396804470365],[19.62590569470557,40.153978158505225],[19.625913536249655,40.15398803785406],[19.625787301609925,40.15404703183954],[19.625775354352054,40.15403197977672],[19.625753561347366,40.15404258377679],[19.625738025000327,40.154023009887304],[19.625907507066362,40.15394306270068]]]},"properties":{"AREA":0,"STRING":""}},
{"type":"Feature","geometry":{"type":"Polygon","coordinates":[[[19.630960035582607,40.15670096535227],[19.63105967351093,40.156697403072044],[19.631103541075877,40.156721595972265],[19.6311031904848,40.15678638384401],[19.63105666500455,40.156786235610376],[19.63103437549557,40.156771904259365],[19.630999989895088,40.15677179468567],[19.63099969564651,40.156755925111874],[19.630962782355272,40.156755807471946],[19.630960035582607,40.15670096535227]]]},"properties":{"AREA":0,"STRING":""}},
{"type":"Feature","geometry":{"type":"Polygon","coordinates":[[[19.63789919789189,40.14315207872981],[19.637965633889852,40.143114359297016],[19.638011310966224,40.14315949352354],[19.63799369103151,40.14317076530578],[19.637999186923953,40.143176466584265],[19.637949759094667,40.14320452953184],[19.63789919789189,40.14315207872981]]]},"properties":{"AREA":0,"STRING":""}},
{"type":"Feature","geometry":{"type":"Polygon","coordinates":[[[19.63196459804446,40.15543940759803],[19.63193805693498,40.15535735724638],[19.63204097787215,40.155334537838954],[19.63207018834696,40.15541645443591],[19.63196459804446,40.15543940759803]]]},"properties":{"AREA":0,"STRING":""}},
{"type":"Feature","geometry":{"type":"Polygon","coordinates":[[[19.63500062623369,40.14532044687475],[19.634895745789827,40.14533424870766],[19.634886074335462,40.14529717943205],[19.634992513089855,40.145280842916875],[19.63500062623369,40.14532044687475]]]},"properties":{"AREA":0,"STRING":""}},
{"type":"Feature","geometry":{"type":"Polygon","coordinates":[[[19.64435506071427,40.150059116844794],[19.644311758822028,40.14995594234183],[19.644396717334555,40.149936302493295],[19.64444224814831,40.150040096297],[19.64435506071427,40.150059116844794]]]},"properties":{"AREA":0,"STRING":""}},
{"type":"Feature","geometry":{"type":"Polygon","coordinates":[[[19.644484030524207,40.1498841940053],[19.644481250672108,40.149861951058895],[19.64451886617248,40.149859771159754],[19.64452198053063,40.149884310512675],[19.644484030524207,40.1498841940053]]]},"properties":{"AREA":0,"STRING":""}},
{"type":"Feature","geometry":{"type":"Polygon","coordinates":[[[19.627672214467946,40.14528015998846],[19.627675136611725,40.14524254035415],[19.62788081773148,40.14526035256925],[19.62787617968555,40.14529736178357],[19.627672214467946,40.14528015998846]]]},"properties":{"AREA":0,"STRING":""}},
{"type":"Feature","geometry":{"type":"Polygon","coordinates":[[[19.621887036080846,40.15320534841773],[19.622000872338102,40.153140755175336],[19.622065426052256,40.1532105785927],[19.622072569604395,40.15320668991708],[19.622110937348708,40.15324818963994],[19.62203419662144,40.15329131252963],[19.62203801309854,40.153295311488485],[19.621993122862563,40.15332053659448],[19.621887036080846,40.15320534841773]]]},"properties":{"AREA":0,"STRING":""}},
{"type":"Feature","geometry":{"type":"Polygon","coordinates":[[[19.63409186403308,40.15497102613915],[19.63411040706852,40.15492768178124],[19.63408586382374,40.15492178139407],[19.6340967901479,40.15489355146156],[19.634120041266144,40.154899239680795],[19.6341281328679,40.15488061106323],[19.63426935493504,40.15491446335728],[19.63422856646791,40.15500506703059],[19.63409186403308,40.15497102613915]]]},"properties":{"AREA":0,"STRING":""}},
{"type":"Feature","geometry":{"type":"Polygon","coordinates":[[[19.63432046157821,40.147043219633126],[19.634324420401445,40.1469347893004],[19.634481859933985,40.14693528636717],[19.634478212070235,40.147045152907],[19.63432046157821,40.147043219633126]]]},"properties":{"AREA":0,"STRING":""}},
{"type":"Feature","geometry":{"type":"Polygon","coordinates":[[[19.63275713760411,40.15759628464191],[19.632700834547148,40.15748069728692],[19.63279070821058,40.15745402608779],[19.632812310418426,40.15749684386449],[19.632836773377345,40.15748966205736],[19.632873142369817,40.15756259393826],[19.63275713760411,40.15759628464191]]]},"properties":{"AREA":0,"STRING":""}},
{"type":"Feature","geometry":{"type":"Polygon","coordinates":[[[19.625503392069934,40.153521080663864],[19.625465559958087,40.1535423458015],[19.625388363001917,40.153462428990494],[19.625465056705217,40.15341932005265],[19.625541836933316,40.15349974757102],[19.625503392069934,40.153521080663864]]]},"properties":{"AREA":0,"STRING":""}},
{"type":"Feature","geometry":{"type":"Polygon","coordinates":[[[19.629561641433874,40.15728144633579],[19.62951456146479,40.15722337956476],[19.629556793583088,40.157201854209205],[19.629544023284566,40.15718530492906],[19.629569621477195,40.1571725408644],[19.629583261756828,40.15718963956143],[19.629600344082526,40.15718161681682],[19.629608653620423,40.1571920331838],[19.629621765225497,40.15718587529183],[19.629642359627386,40.157210723783585],[19.629655994293138,40.157204070912265],[19.62967653660891,40.15723123945052],[19.629603747813444,40.15726675583847],[19.629600055845877,40.157262301239314],[19.629561641433874,40.15728144633579]]]},"properties":{"AREA":0,"STRING":""}},
{"type":"Feature","geometry":{"type":"Polygon","coordinates":[[[19.63827667279006,40.14324779617422],[19.638244655010133,40.14320034035419],[19.638418296754185,40.14313303625314],[19.638405562550364,40.14311040405964],[19.638438170981132,40.14309895240105],[19.63848429537965,40.143167929224234],[19.63827667279006,40.14324779617422]]]},"properties":{"AREA":0,"STRING":""}},
{"type":"Feature","geometry":{"type":"Polygon","coordinates":[[[19.6382234810615,40.14319499409252],[19.638159081667347,40.14310790385664],[19.63821635232697,40.14308075554176],[19.638282035210473,40.14316764966638],[19.6382234810615,40.14319499409252]]]},"properties":{"AREA":0,"STRING":""}},
{"type":"Feature","geometry":{"type":"Polygon","coordinates":[[[19.638280783801463,40.14315940628085],[19.638208800879625,40.14306633423296],[19.63822731865263,40.14305789902322],[19.638216970612113,40.143045382309204],[19.638316159485395,40.14299900427935],[19.63823992555512,40.14289497121324],[19.63829198029963,40.14287206328413],[19.63842976147657,40.14305267992955],[19.638437857859277,40.143049000950484],[19.638461196365974,40.143079251565695],[19.638280783801463,40.14315940628085]]]},"properties":{"AREA":0,"STRING":""}},
{"type":"Feature","geometry":{"type":"Polygon","coordinates":[[[19.626510702557173,40.15364102382666],[19.626516520986414,40.15365110187308],[19.62645288348862,40.153672734196],[19.62641829445304,40.15361945313023],[19.626480954573083,40.15359621327015],[19.626510702557173,40.15364102382666]]]},"properties":{"AREA":0,"STRING":""}},
{"type":"Feature","geometry":{"type":"Polygon","coordinates":[[[19.61059027709064,40.157564509576396],[19.610550072218167,40.15750891566341],[19.610801017211816,40.1574102159733],[19.61082744657204,40.15745015881332],[19.610712645557694,40.1574957255234],[19.610724065772544,40.157513238722196],[19.61059027709064,40.157564509576396]]]},"properties":{"AREA":0,"STRING":""}},
{"type":"Feature","geometry":{"type":"Polygon","coordinates":[[[19.610627628016477,40.15707678388943],[19.610566989812156,40.15699917078935],[19.610516067311877,40.157023783074685],[19.610495104361583,40.156995171503844],[19.61044682148524,40.157017711896835],[19.610434825254018,40.15700423575035],[19.610403512578984,40.15702181077327],[19.610396210751183,40.157015144831604],[19.610382226186754,40.15702370665581],[19.610342046291546,40.15699892321673],[19.610356958521518,40.15698440205889],[19.610312898372356,40.15695997977673],[19.61056454903796,40.15684010927337],[19.61071599561445,40.1570347642683],[19.610627628016477,40.15707678388943]]]},"properties":{"AREA":0,"STRING":""}},
{"type":"Feature","geometry":{"type":"Polygon","coordinates":[[[19.622274626630556,40.15760964910341],[19.62222207171892,40.15757105092794],[19.622330340707858,40.157472734703525],[19.622329821822056,40.15747244409806],[19.622329316475586,40.15747213976992],[19.622328825284594,40.15747182209016],[19.62232834884798,40.1574714914461],[19.622327887746632,40.15747114824089],[19.622327442542765,40.157470792893],[19.622327013779188,40.15747042583567],[19.62232660197868,40.15747004751645],[19.622326207643336,40.157469658396614],[19.622325831253946,40.157469258950584],[19.622325473269438,40.15746884966541],[19.622325134126278,40.15746843104011],[19.622324814237974,40.157468003585095],[19.622324513994553,40.15746756782154],[19.622324233762086,40.157467124280764],[19.622323973882256,40.15746667350355],[19.62232373467192,40.15746621603953],[19.622323516422732,40.157465752446456],[19.62232331940081,40.15746528328957],[19.622323143846355,40.15746480914088],[19.62232298997343,40.15746433057855],[19.622322857969635,40.157463848186026],[19.622322747995923,40.157463362551475],[19.622322660186374,40.15746287426702],[19.622322594648058,40.157462383928014],[19.622322551460876,40.157461892132304],[19.622322530677486,40.15746139947952],[19.62232253232323,40.15746090657033],[19.6223225563961,40.1574604140057],[19.622322602866745,40.157459922386224],[19.6223226716785,40.15745943231132],[19.622322762747473,40.15745894437846],[19.622322875962617,40.15745845918264],[19.6223230111859,40.157457977315396],[19.62232316825245,40.15745749936424],[19.622323346970756,40.157457025911945],[19.622323547122917,40.15745655753577],[19.62232376846489,40.15745609480677],[19.622324010726814,40.157455638289136],[19.62232427361329,40.1574551885395],[19.622324556803804,40.157454746106204],[19.622324859953068,40.1574543115287],[19.622325182691466,40.15745388533685],[19.62232552462549,40.157453468050285],[19.622325885338235,40.157453060177815],[19.622326264389905,40.157452662216706],[19.622326661318326,40.157452274652194],[19.622327075639546,40.15745189795681],[19.6223275068484,40.15745153258985],[19.622327954419127,40.1574511789968],[19.622328417806024,40.15745083760877],[19.622328896444102,40.15745050884201],[19.622329389749776,40.157450193097375],[19.622329897121574,40.15744989075982],[19.622330417940887,40.157449602197985],[19.62233095157269,40.15744932776371],[19.62233149736635,40.157449067791596],[19.622332054656408,40.1574488225986],[19.622332622763377,40.15744859248371],[19.62233320099459,40.157448377727476],[19.622333788645026,40.15744817859174],[19.622334384998197,40.157447995319295],[19.62233498932698,40.15744782813361],[19.622335600894555,40.15744767723853],[19.62233621895525,40.157447542818026],[19.622336842755498,40.15744742503599],[19.622337471534713,40.15744732403604],[19.62233810452626,40.15744723994131],[19.622338740958355,40.157447172854354],[19.62233938005502,40.157447122856944],[19.62234002103703,40.15744709001004],[19.622340663122863,40.15744707435369],[19.62234130552965,40.157447075907015],[19.622341947474123,40.1574470946681],[19.62234258817359,40.15744713061405],[19.622343226846873,40.15744718370108],[19.622343862715265,40.15744725386442],[19.62234449500347,40.157447341018546],[19.622345122940573,40.1574474450572],[19.622345745760946,40.15744756585351],[19.622346362705215,40.15744770326021],[19.622346973021166,40.15744785710977],[19.622347575964657,40.1574480272146],[19.622348170800553,40.15744821336729],[19.622348756803586,40.15744841534089],[19.62234933325927,40.157448632889114],[19.62234989946475,40.15744886574674],[19.622350454729684,40.15744911362984],[19.622350998377055,40.15744937623618],[19.622351529744012,40.15744965324559],[19.62235204818268,40.15744994432031],[19.622352553060956,40.157450249105445],[19.62235304376325,40.15745056722939],[19.622353519691277,40.15745089830426],[19.62235398026475,40.15745124192639],[19.62235442492212,40.15745159767682],[19.622354853121223,40.157451965121794],[19.622355264339973,40.1574523438133],[19.622355658076994,40.157452733289624],[19.622356033852213,40.157453133075876],[19.622409569592243,40.15740351420731],[19.622448963085535,40.15742959316533],[19.622371465554238,40.157499694086525],[19.622492028423466,40.157576231344365],[19.62238468005773,40.1576738998511],[19.62234859280235,40.157648879111115],[19.622379258034393,40.157620089845864],[19.62230951480105,40.15757639578281],[19.622274626630556,40.15760964910341]]]},"properties":{"AREA":0,"STRING":""}},
{"type":"Feature","geometry":{"type":"Polygon","coordinates":[[[19.61247703398959,40.15706694462193],[19.612371128685727,40.157032552266095],[19.612432879736986,40.1569224489839],[19.612538493455254,40.15695464331155],[19.61247703398959,40.15706694462193]]]},"properties":{"AREA":0,"STRING":""}},
{"type":"Feature","geometry":{"type":"Polygon","coordinates":[[[19.611726753681026,40.15543882739909],[19.61169217941839,40.15540419192471],[19.61171372004139,40.15538822275244],[19.611696696571514,40.15537470319124],[19.61181168167859,40.15530401337668],[19.611868962169115,40.15535524850537],[19.611726753681026,40.15543882739909]]]},"properties":{"AREA":0,"STRING":""}},
{"type":"Feature","geometry":{"type":"Polygon","coordinates":[[[19.611507730230457,40.15506593058391],[19.611607643710524,40.15514649938263],[19.61164479980951,40.155160952057784],[19.611656830770073,40.15515195845193],[19.61177395386311,40.15527389820091],[19.611699459982955,40.15532074742154],[19.6115560747558,40.15518306101854],[19.61153982450393,40.15519140440342],[19.611448602623593,40.155105885134304],[19.611507730230457,40.15506593058391]]]},"properties":{"AREA":0,"STRING":""}},
{"type":"Feature","geometry":{"type":"Polygon","coordinates":[[[19.611507730230457,40.15506593058391],[19.611448602623593,40.155105885134304],[19.611436519072864,40.15509681340506],[19.61141320589298,40.1551115410062],[19.611422987442527,40.155120657324915],[19.611398207868195,40.15513631127843],[19.61130966689966,40.15504620954957],[19.61141831403901,40.15497980094926],[19.611507730230457,40.15506593058391]]]},"properties":{"AREA":0,"STRING":""}},
{"type":"Feature","geometry":{"type":"Polygon","coordinates":[[[19.611255488137953,40.15511455401121],[19.611217207082163,40.15508693454844],[19.611241138671136,40.15507095832058],[19.611274955388822,40.15509866796055],[19.611255488137953,40.15511455401121]]]},"properties":{"AREA":0,"STRING":""}},
{"type":"Feature","geometry":{"type":"Polygon","coordinates":[[[19.638579680707977,40.14313117550578],[19.638502884951023,40.14316738689145],[19.6384664543448,40.14312188226479],[19.638541089613582,40.1430851574561],[19.638579680707977,40.14313117550578]]]},"properties":{"AREA":0,"STRING":""}}
]}