{"type":"FeatureCollection", "features": [
{"type":"Feature","geometry":{"type":"Polygon","coordinates":[[[19.62078914316416,40.16703090990782],[19.620702225458082,40.16702974893247],[19.620701136702092,40.16696805131417],[19.620788018855293,40.166967148920996],[19.620788075042025,40.16697033534376],[19.62078914316416,40.16703090990782]]]},"properties":{"sip":51.5615743601,"nr_pas":"200/85","BASHKIA":"PALASE","ZK":"2863","ADRESA":"PALASE","Nr_":65,"NR_PASURIE":"200/85","POSEDUESI":"ERIOL THANAS PAPA","NR_UNIK":"11_8187490","ZONA":"Perfunduar_legalizimi"}},
{"type":"Feature","geometry":{"type":"Polygon","coordinates":[[[19.620786727508786,40.16715877092641],[19.620787774471747,40.16721807823796],[19.62070089317246,40.16721898063334],[19.620699820488174,40.16715819176551],[19.620786727508786,40.16715877092641]]]},"properties":{"sip":49.3572019121,"nr_pas":"200/963","BASHKIA":"PALASE","ZK":"2863","ADRESA":"PALASE","Nr_":72,"NR_PASURIE":"200/963","POSEDUESI":"KALIOPI THANAS PAÇO","NR_UNIK":"","ZONA":"Perfunduar_legalizimi"}},
{"type":"Feature","geometry":{"type":"Polygon","coordinates":[[[19.620786727508786,40.16715877092641],[19.620699820488174,40.16715819176551],[19.620698731768307,40.16709648784453],[19.620785647742853,40.16709755335437],[19.620786727508786,40.16715877092641]]]},"properties":{"sip":50.5183828598,"nr_pas":"200/90","BASHKIA":"PALASE","ZK":"2863","ADRESA":"PALASE","Nr_":74,"NR_PASURIE":"200/90","POSEDUESI":"ARETUSHA THANAS GJOVASHO","NR_UNIK":"11_8301562","ZONA":"Perfunduar_legalizimi"}},
{"type":"Feature","geometry":{"type":"Polygon","coordinates":[[[19.622686501250865,40.16757165417997],[19.622728005346655,40.16753377372804],[19.62279856997679,40.16757927715799],[19.622757065892117,40.16761715763498],[19.622686501250865,40.16757165417997]]]},"properties":{"sip":43.1480477482,"nr_pas":"200/187","BASHKIA":"PALASE","ZK":"2863","ADRESA":"PALASE","Nr_":61,"NR_PASURIE":"200/187","POSEDUESI":"FOTAQ LLUKE KONOMAJ","NR_UNIK":"11_8311440","ZONA":"Perfunduar_legalizimi"}},
{"type":"Feature","geometry":{"type":"Polygon","coordinates":[[[19.628017346654453,40.16257468944229],[19.627981457796096,40.16254941156732],[19.628077303004012,40.16246946611808],[19.628116911419667,40.16249609028899],[19.62813212861515,40.16248489225491],[19.628171100863153,40.162511427986914],[19.628168478032432,40.162513993009],[19.62818230476534,40.16252425970524],[19.62811934364171,40.16257798070774],[19.62813057497641,40.16258578477035],[19.628116350154457,40.16259724810143],[19.62810642490691,40.162589138465904],[19.628081718092112,40.162609146274896],[19.6280450512044,40.16258415185891],[19.628023805364375,40.16260166881326],[19.628002546009714,40.162587518052035],[19.628017346654453,40.16257468944229]]]},"properties":{"sip":144.668846733,"nr_pas":"201/261","BASHKIA":"PALASE","ZK":"2863","ADRESA":"PALASE","Nr_":66,"NR_PASURIE":"201/261","POSEDUESI":"ANDREA FOTO ÇAÇI","NR_UNIK":"11_8289385","ZONA":"Perfunduar_legalizimi"}},
{"type":"Feature","geometry":{"type":"Polygon","coordinates":[[[19.62439331964661,40.16759621674817],[19.62444158938509,40.16763935609264],[19.62442582186584,40.167649739640346],[19.624417472609093,40.16764194661978],[19.624353977479355,40.16768446630771],[19.62431127336759,40.16764630099505],[19.624362078866046,40.167612843590646],[19.624364550884057,40.16761485704928],[19.62439331964661,40.16759621674817]]]},"properties":{"sip":50.474056158,"nr_pas":"200/98","BASHKIA":"PALASE","ZK":"2863","ADRESA":"PALASE","Nr_":67,"NR_PASURIE":"200/98","POSEDUESI":"LEONARD FILIP BILLA ,VIOLETA TELI BILLA","NR_UNIK":"","ZONA":"Perfunduar_legalizimi"}},
{"type":"Feature","geometry":{"type":"Polygon","coordinates":[[[19.62126640726191,40.16644976881947],[19.621243331522255,40.166539596053724],[19.62116717740597,40.16652713741352],[19.621161521202904,40.166432745966624],[19.62126640726191,40.16644976881947]]]},"properties":{"sip":80.0822077349,"nr_pas":"200/361","BASHKIA":"PALASE","ZK":"2863","ADRESA":"PALASE","Nr_":68,"NR_PASURIE":"200/361","POSEDUESI":"VIOLETA KAPO DHIMOLEA","NR_UNIK":"11_2216877","ZONA":"Perfunduar_legalizimi"}},
{"type":"Feature","geometry":{"type":"Polygon","coordinates":[[[19.62126640726191,40.16644976881947],[19.621185054184654,40.1664365653439],[19.621190603904513,40.16639721799912],[19.621159411679564,40.16639318429567],[19.621162847700052,40.16636174234826],[19.621194995514866,40.1663614901058],[19.621200850325735,40.166313972052734],[19.621295378535496,40.1663225019906],[19.621279313221212,40.16644683251258],[19.621267208230723,40.16644536322726],[19.62126640726191,40.16644976881947]]]},"properties":{"sip":123.186386042,"nr_pas":"200/361","BASHKIA":"PALASE","ZK":"2863","ADRESA":"PALASE","Nr_":68,"NR_PASURIE":"200/361","POSEDUESI":"VIOLETA KAPO DHIMOLEA","NR_UNIK":"11_2216877","ZONA":"Perfunduar_legalizimi"}},
{"type":"Feature","geometry":{"type":"Polygon","coordinates":[[[19.615768518512898,40.17155012295209],[19.61574175384852,40.1715127501799],[19.615823095781227,40.17147846929287],[19.615849860477073,40.17151584204663],[19.615768518512898,40.17155012295209]]]},"properties":{"sip":37.4316892491,"nr_pas":"30/268/1","BASHKIA":"PALASE","ZK":"2863","ADRESA":"PALASE","Nr_":69,"NR_PASURIE":"30/268/1","POSEDUESI":"ROLAND KIÇO NESTURI","NR_UNIK":"11_8301682","ZONA":"Perfunduar_legalizimi"}},
{"type":"Feature","geometry":{"type":"Polygon","coordinates":[[[19.62631305714636,40.164445675787086],[19.626227361767945,40.16444696170854],[19.626224881927396,40.164349693477476],[19.62631057718352,40.16434840755727],[19.62631305714636,40.164445675787086]]]},"properties":{"sip":78.878377594,"nr_pas":"201/262","BASHKIA":"PALASE","ZK":"2863","ADRESA":"PALASE","Nr_":71,"NR_PASURIE":"201/262","POSEDUESI":"KALTRA KOZMA ÇEÇO","NR_UNIK":"11_8186581","ZONA":"Perfunduar_legalizimi"}},
{"type":"Feature","geometry":{"type":"Polygon","coordinates":[[[19.623363299063726,40.164567591038924],[19.623303544215755,40.16463415003719],[19.623204460974215,40.164581791528555],[19.623306978743294,40.16446760037437],[19.623385494665026,40.16450909048484],[19.623342257177132,40.16455558884042],[19.623363299063726,40.164567591038924]]]},"properties":{"sip":143.888698467,"nr_pas":"200/270","BASHKIA":"PALASE","ZK":"2863","ADRESA":"PALASE","Nr_":73,"NR_PASURIE":"200/270","POSEDUESI":"ROLAND KIÇO NESTURI","NR_UNIK":"11_3022549","ZONA":"Perfunduar_legalizimi"}},
{"type":"Feature","geometry":{"type":"Polygon","coordinates":[[[19.624518325869904,40.16716836023463],[19.624561239936916,40.16720126313137],[19.624556056743952,40.16720621449833],[19.6245715180662,40.16721865528194],[19.624547831700003,40.16723335194368],[19.62453423786784,40.16722020236763],[19.62448345122365,40.167249108035406],[19.62445164278821,40.16721588370934],[19.624466597149077,40.167207592352824],[19.62446031242153,40.16719825515349],[19.624518325869904,40.16716836023463]]]},"properties":{"sip":47.8979181356,"nr_pas":"200/237","BASHKIA":"PALASE","ZK":"2863","ADRESA":"PALASE","Nr_":63,"NR_PASURIE":"200/237","POSEDUESI":"LEFTER DHIMITER KASHTA, LEONORA THOMA KASHTA","NR_UNIK":"","ZONA":"Perfunduar_legalizimi"}},
{"type":"Feature","geometry":{"type":"Polygon","coordinates":[[[19.626494978071925,40.16514376564443],[19.62652488909152,40.16522689548651],[19.62635200129659,40.1652635096579],[19.62632228167253,40.16518091116743],[19.626360883458453,40.16517299123211],[19.62635504846829,40.16515625189999],[19.626448928337062,40.16513637002649],[19.62645386647058,40.16515160760462],[19.626494978071925,40.16514376564443]]]},"properties":{"sip":161.420270681,"nr_pas":"200/350","BASHKIA":"PALASE","ZK":"2863","ADRESA":"PALASE","Nr_":62,"NR_PASURIE":"200/350","POSEDUESI":"FATJON JORGJI LULAJ","NR_UNIK":"11_8311355","ZONA":"Perfunduar_legalizimi"}},
{"type":"Feature","geometry":{"type":"Polygon","coordinates":[[[19.620707018965074,40.16702981295807],[19.620789144673683,40.16703091032386],[19.62079801381038,40.16703097400087],[19.62079650419698,40.16709727767018],[19.620785648467855,40.16709755378301],[19.620704175572666,40.167096555296304],[19.620707018965074,40.16702981295807]]]},"properties":{"sip":57.8333505169,"nr_pas":"200/88","BASHKIA":"PALASE","ZK":"2863","ADRESA":"PALASE","Nr_":28,"NR_PASURIE":"200/88","POSEDUESI":"MARIJE THANAS BOÇI","NR_UNIK":"11_8301564","ZONA":"Perfunduar_legalizimi"}},
{"type":"Feature","geometry":{"type":"Polygon","coordinates":[[[19.622937846512155,40.166198579517044],[19.622909758203516,40.166192432605094],[19.622908027903133,40.166197393992555],[19.622858717341547,40.16618420243187],[19.622866713501423,40.166165557751846],[19.622835658759765,40.166157718866046],[19.622848803610953,40.166127198263],[19.62285241988763,40.16611880174243],[19.622870539114132,40.166123501011576],[19.622893390958907,40.16607164114607],[19.622906136993677,40.16607506704515],[19.622922700215348,40.16603879712484],[19.622990490676997,40.16605598134801],[19.622945806225417,40.166159733273275],[19.62295371375716,40.16616173775293],[19.622937846512155,40.166198579517044]]]},"properties":{"sip":127.062535272,"nr_pas":"3/42","BASHKIA":"PALASE","ZK":"2863","ADRESA":"PALASE","Nr_":19,"NR_PASURIE":"3/42","POSEDUESI":"VIOLETA KLEARKO PAPA","NR_UNIK":"","ZONA":"Perfunduar_legalizimi"}},
{"type":"Feature","geometry":{"type":"Polygon","coordinates":[[[19.62422358395428,40.16704098491005],[19.624164135263683,40.16700289187046],[19.62423974199515,40.16693344602911],[19.624256612788844,40.16694359503098],[19.624296940531842,40.16696866784956],[19.62422358395428,40.16704098491005]]]},"properties":{"sip":64.9952629339,"nr_pas":"200/352","BASHKIA":"PALASE","ZK":"2863","ADRESA":"PALASE","Nr_":23,"NR_PASURIE":"200/352","POSEDUESI":"VEZIR THODHORI GJIKOKAJ,ORELDA SERVET GJIKOKAJ","NR_UNIK":"","ZONA":"Perfunduar_legalizimi"}},
{"type":"Feature","geometry":{"type":"Polygon","coordinates":[[[19.62481035799293,40.16714361673287],[19.62477894362763,40.16709579497768],[19.62479472291713,40.167089218541186],[19.624850802836438,40.16706584572277],[19.62485685972197,40.16707388787312],[19.624862338002146,40.16708116508108],[19.624878362284935,40.167101512839956],[19.62490972745871,40.16709047649516],[19.62494686607063,40.167144554010285],[19.624921959367885,40.1671548687649],[19.624904931463806,40.167140953031605],[19.624833096740883,40.16717537172081],[19.62481035799293,40.16714361673287]]]},"properties":{"sip":89.8769287032,"nr_pas":"3/12","BASHKIA":"PALASE","ZK":"2863","ADRESA":"PALASE","Nr_":29,"NR_PASURIE":"3/12","POSEDUESI":"KRISTO KLEARKO PAÇO","NR_UNIK":"","ZONA":"Perfunduar_legalizimi"}},
{"type":"Feature","geometry":{"type":"Polygon","coordinates":[[[19.62481035799293,40.16714361673287],[19.624768311666948,40.16716031116862],[19.624738120480394,40.16711313870686],[19.62477894362763,40.16709579497768],[19.62481035799293,40.16714361673287]]]},"properties":{"sip":23.5744125184,"nr_pas":"3/12","BASHKIA":"PALASE","ZK":"2863","ADRESA":"PALASE","Nr_":29,"NR_PASURIE":"3/12","POSEDUESI":"KRISTO KLEARKO PAÇO","NR_UNIK":"","ZONA":"Perfunduar_legalizimi"}},
{"type":"Feature","geometry":{"type":"Polygon","coordinates":[[[19.62467279035439,40.167779988998504],[19.624620902253223,40.16774840211428],[19.624664714073408,40.16770767339703],[19.624714794434652,40.16773937908325],[19.62467279035439,40.167779988998504]]]},"properties":{"sip":32.4571547177,"nr_pas":"3/3","BASHKIA":"PALASE","ZK":"2863","ADRESA":"PALASE","Nr_":22,"NR_PASURIE":"3/3","POSEDUESI":"AFROVITI STEFO ÇEÇO","NR_UNIK":"","ZONA":"Perfunduar_legalizimi"}},
{"type":"Feature","geometry":{"type":"Polygon","coordinates":[[[19.625545382295968,40.1680653044122],[19.625498745467514,40.16809084862296],[19.625462097050317,40.16805081288177],[19.625508836576405,40.16802563222359],[19.625545382295968,40.1680653044122]]]},"properties":{"sip":26.3799297699,"nr_pas":"201/1","BASHKIA":"PALASE","ZK":"2863","ADRESA":"PALASE","Nr_":30,"NR_PASURIE":"201/1","POSEDUESI":"THOMA MARKO PJERO","NR_UNIK":"","ZONA":"Perfunduar_legalizimi"}},
{"type":"Feature","geometry":{"type":"Polygon","coordinates":[[[19.624795630199156,40.16664106345015],[19.62476810053209,40.16659803579528],[19.624835472558114,40.16657258781766],[19.624858587742306,40.166614589694646],[19.624795630199156,40.16664106345015]]]},"properties":{"sip":32.4244559692,"nr_pas":"200/300","BASHKIA":"PALASE","ZK":"2863","ADRESA":"PALASE","Nr_":25,"NR_PASURIE":"200/300","POSEDUESI":"KLEANTH KOSTA BABE, ELSA EFTIQIO BABE","NR_UNIK":"","ZONA":"Perfunduar_legalizimi"}},
{"type":"Feature","geometry":{"type":"Polygon","coordinates":[[[19.624795630199156,40.16664106345015],[19.624858587742306,40.166614589694646],[19.624879977985007,40.16665003360503],[19.624816977259123,40.16667328635337],[19.624795630199156,40.16664106345015]]]},"properties":{"sip":25.1809939114,"nr_pas":"200/300","BASHKIA":"PALASE","ZK":"2863","ADRESA":"PALASE","Nr_":25,"NR_PASURIE":"200/300","POSEDUESI":"KLEANTH KOSTA BABE, ELSA EFTIQIO BABE","NR_UNIK":"","ZONA":"Perfunduar_legalizimi"}},
{"type":"Feature","geometry":{"type":"Polygon","coordinates":[[[19.624878113061186,40.16654251478665],[19.62480192217509,40.16651026790213],[19.624860683602222,40.16643988055034],[19.624884536480597,40.16645025054493],[19.624892707756853,40.166438386745355],[19.62492388208105,40.16645193971217],[19.624915510658628,40.16646407447956],[19.624932293385786,40.166471617264406],[19.624878113061186,40.16654251478665]]]},"properties":{"sip":71.144103277,"nr_pas":"3/131","BASHKIA":"PALASE","ZK":"2863","ADRESA":"PALASE","Nr_":21,"NR_PASURIE":"3/131","POSEDUESI":"OLLGA JORGJI BABE","NR_UNIK":"","ZONA":"Perfunduar_legalizimi"}},
{"type":"Feature","geometry":{"type":"Polygon","coordinates":[[[19.625799578576185,40.16655401362969],[19.62577773765038,40.16654080303752],[19.625793553252368,40.16652562756768],[19.625766267993175,40.16650928015188],[19.62578735718719,40.16648807131098],[19.62576738606852,40.16647583544714],[19.62580949366567,40.1664348618002],[19.62582981612269,40.166447223480404],[19.625844986893245,40.166431835826245],[19.625898641796308,40.166462619873215],[19.625817800939352,40.16654074699604],[19.625814747796024,40.16653888760022],[19.625799578576185,40.16655401362969]]]},"properties":{"sip":79.866520751,"nr_pas":"3/73","BASHKIA":"PALASE","ZK":"2863","ADRESA":"PALASE","Nr_":26,"NR_PASURIE":"3/73","POSEDUESI":"KOSTË VANGJEL GJERGJI, LLUIZA MANOL GJERGJI","NR_UNIK":"11_9032158","ZONA":"Perfunduar_legalizimi"}},
{"type":"Feature","geometry":{"type":"Polygon","coordinates":[[[19.62535242540065,40.16633283383585],[19.62532866894394,40.16631645233884],[19.62533953752178,40.166307809189306],[19.625307815335514,40.16628298410485],[19.62535380525809,40.16624667309807],[19.625382056992585,40.16626791918996],[19.62535689205094,40.16628796326338],[19.625384238084525,40.16630852822931],[19.62535242540065,40.16633283383585]]]},"properties":{"sip":31.0480444664,"nr_pas":"3/101","BASHKIA":"PALASE","ZK":"2863","ADRESA":"PALASE","Nr_":31,"NR_PASURIE":"3/101","POSEDUESI":"KIÇO MILO KONOMAJ","NR_UNIK":"","ZONA":"Perfunduar_legalizimi"}},
{"type":"Feature","geometry":{"type":"Polygon","coordinates":[[[19.625170896539608,40.166597480096534],[19.62507465397665,40.16655827150951],[19.62509953129214,40.16650993784341],[19.62511076048931,40.16648464976183],[19.625181868595508,40.166513313412615],[19.6252008575555,40.166551888689376],[19.625170896539608,40.166597480096534]]]},"properties":{"sip":79.1528978612,"nr_pas":"200/678","BASHKIA":"PALASE","ZK":"2863","ADRESA":"PALASE","Nr_":35,"NR_PASURIE":"200/678","POSEDUESI":"MIRELA ARISTOTEL DUMI","NR_UNIK":"","ZONA":"Perfunduar_legalizimi"}},
{"type":"Feature","geometry":{"type":"Polygon","coordinates":[[[19.62603406602972,40.16640425366411],[19.625879718823743,40.16642673424968],[19.62587335120368,40.16640100263987],[19.625896233283605,40.16639818446607],[19.625888782853114,40.16636347043503],[19.62587491130052,40.16636488624383],[19.62587231629597,40.16634990640304],[19.625912921295726,40.16634504625758],[19.625910802252324,40.16633123543063],[19.626008822482348,40.16631984947532],[19.62603406602972,40.16640425366411]]]},"properties":{"sip":113.478354858,"nr_pas":"3/99","BASHKIA":"PALASE","ZK":"2863","ADRESA":"PALASE","Nr_":34,"NR_PASURIE":"3/99","POSEDUESI":"KRISTAQ VANGJEL VERA","NR_UNIK":"11_9034377","ZONA":"Perfunduar_legalizimi"}},
{"type":"Feature","geometry":{"type":"Polygon","coordinates":[[[19.625323094063948,40.16342021495392],[19.625379453734357,40.1633999409451],[19.62540912459476,40.1634484914308],[19.625352764892835,40.16346876545375],[19.625323094063948,40.16342021495392]]]},"properties":{"sip":31.5743980075,"nr_pas":"200/125","BASHKIA":"PALASE","ZK":"2863","ADRESA":"PALASE","Nr_":27,"NR_PASURIE":"200/125","POSEDUESI":"LEONARD THODHORI ÇEÇO, DRITA PRENG ÇEÇO","NR_UNIK":"","ZONA":"Perfunduar_legalizimi"}},
{"type":"Feature","geometry":{"type":"Polygon","coordinates":[[[19.622899366698903,40.162409502321246],[19.622926021845934,40.16236212267949],[19.623000767277457,40.16238687533646],[19.623012653884402,40.1623908116927],[19.622986225703414,40.16243778800723],[19.622954808291794,40.162427383845205],[19.622899366698903,40.162409502321246]]]},"properties":{"sip":45.7949187285,"nr_pas":"2/395","BASHKIA":"PALASE","ZK":"2863","ADRESA":"PALASE","Nr_":24,"NR_PASURIE":"2/395","POSEDUESI":"ARISTIDHI THANAS PAÇO","NR_UNIK":"","ZONA":"Perfunduar_legalizimi"}},
{"type":"Feature","geometry":{"type":"Polygon","coordinates":[[[19.624334665033043,40.16718805452101],[19.624240720004757,40.16724967876942],[19.624161894163663,40.167178952979135],[19.624293194474227,40.16709282514352],[19.624348238297763,40.16714221266413],[19.624310882980673,40.16716671633193],[19.624334665033043,40.16718805452101]]]},"properties":{"sip":139.005822412,"nr_pas":"200/96","BASHKIA":"PALASE","ZK":"2863","ADRESA":"PALASE","Nr_":36,"NR_PASURIE":"200/96","POSEDUESI":"STEFAN SPIRO STEFANIU , JOANA JORGO STEFANIU","NR_UNIK":"","ZONA":"Perfunduar_legalizimi"}},
{"type":"Feature","geometry":{"type":"Polygon","coordinates":[[[19.624922948970905,40.16746506490405],[19.624898813178905,40.16741026379155],[19.625033183239076,40.1673754333325],[19.625057319127233,40.16743023441777],[19.624922948970905,40.16746506490405]]]},"properties":{"sip":77.6043218465,"nr_pas":"3/216","BASHKIA":"PALASE","ZK":"2863","ADRESA":"PALASE","Nr_":32,"NR_PASURIE":"3/216","POSEDUESI":"FOTO VANGJEL KASHTA","NR_UNIK":"","ZONA":"Perfunduar_legalizimi"}},
{"type":"Feature","geometry":{"type":"Polygon","coordinates":[[[19.62270348666977,40.16733102645465],[19.622708842819975,40.167234831068015],[19.622779490901078,40.16723714622314],[19.622774134850363,40.16733334161344],[19.62270348666977,40.16733102645465]]]},"properties":{"sip":64.4009692206,"nr_pas":"200/639","BASHKIA":"PALASE","ZK":"2863","ADRESA":"PALASE","Nr_":38,"NR_PASURIE":"200/639","POSEDUESI":"FOTINA LLUKA PAÇO, STEFO LLUKA PAÇO, NIKOLLA LLUKA PAÇO, KALIRO LLUKA PAÇO                                    EFTALIA LLUKA PAÇO","NR_UNIK":"","ZONA":"Perfunduar_legalizimi"}},
{"type":"Feature","geometry":{"type":"Polygon","coordinates":[[[19.627199477217275,40.162509723012874],[19.627222179332037,40.16252453244005],[19.627246933929936,40.162502195125185],[19.627247982826344,40.162502879358605],[19.627295752820572,40.16253404144454],[19.627205344813802,40.16261562107655],[19.62714056905307,40.162573365469015],[19.627133823787567,40.16256896527953],[19.627199477217275,40.162509723012874]]]},"properties":{"sip":86.8302293933,"nr_pas":"200/865","BASHKIA":"PALASE","ZK":"2863","ADRESA":"PALASE","Nr_":39,"NR_PASURIE":"200/865","POSEDUESI":"ANDON DHIMITRI NESTURI, KATINA MANTHO NESTURI","NR_UNIK":"11_9030830","ZONA":"Perfunduar_legalizimi"}},
{"type":"Feature","geometry":{"type":"Polygon","coordinates":[[[19.62267493209475,40.16726913034444],[19.622608642553153,40.16726300454683],[19.622602422011845,40.167302622723284],[19.62250797701322,40.16729389502019],[19.62252774484096,40.167167996104666],[19.62268847912683,40.16718284958059],[19.62267493209475,40.16726913034444]]]},"properties":{"sip":168.990438019,"nr_pas":"3/67","BASHKIA":"PALASE","ZK":"2863","ADRESA":"PALASE","Nr_":40,"NR_PASURIE":"3/67","POSEDUESI":"LILJANA ARISTIDH PAÇO, MANTHO JORGJI PAÇO","NR_UNIK":"11_9021659","ZONA":"Perfunduar_legalizimi"}},
{"type":"Feature","geometry":{"type":"Polygon","coordinates":[[[19.62157257848245,40.16338562015769],[19.62153208582875,40.16341507188513],[19.621464682370643,40.163360523281256],[19.621556070871048,40.16329405320894],[19.6216013813133,40.16333072224184],[19.62160294061331,40.16333198415795],[19.62155204475975,40.163369002546396],[19.62157257848245,40.16338562015769]]]},"properties":{"sip":74.347684079,"nr_pas":"3/199","BASHKIA":"PALASE","ZK":"2863","ADRESA":"PALASE","Nr_":41,"NR_PASURIE":"3/199","POSEDUESI":"VIOLETA SPIRO RISTANI","NR_UNIK":"","ZONA":"Perfunduar_legalizimi"}},
{"type":"Feature","geometry":{"type":"Polygon","coordinates":[[[19.62506560534782,40.16658274644064],[19.625030871447493,40.16662293215023],[19.624918749213233,40.16656589358678],[19.625005470108903,40.166465561118365],[19.625056644330908,40.166491594358526],[19.625032322270158,40.16651973403177],[19.625050784008465,40.166529125838814],[19.62502311914007,40.16656113298507],[19.62506560534782,40.16658274644064]]]},"properties":{"sip":111.323962555,"nr_pas":"3/1","BASHKIA":"PALASE","ZK":"2863","ADRESA":"PALASE","Nr_":42,"NR_PASURIE":"3/1","POSEDUESI":"MIHAL THANAS LALUCI","NR_UNIK":"","ZONA":"Perfunduar_legalizimi"}},
{"type":"Feature","geometry":{"type":"Polygon","coordinates":[[[19.62409914562121,40.16743812639267],[19.624180898546367,40.167468474845975],[19.62412773514041,40.167552762207684],[19.624045982138416,40.16752241371688],[19.62409914562121,40.16743812639267]]]},"properties":{"sip":80.4407778402,"nr_pas":"3/5","BASHKIA":"PALASE","ZK":"2863","ADRESA":"PALASE","Nr_":43,"NR_PASURIE":"3/5","POSEDUESI":"AHILEA THODHORI THODOJANI","NR_UNIK":"","ZONA":"Perfunduar_legalizimi"}},
{"type":"Feature","geometry":{"type":"Polygon","coordinates":[[[19.624700597733593,40.167435914504],[19.62467180698012,40.167353775083384],[19.624771311338062,40.167333247945415],[19.624800102203185,40.16741538734209],[19.624700597733593,40.167435914504]]]},"properties":{"sip":82.9007839286,"nr_pas":"3/11","BASHKIA":"PALASE","ZK":"2863","ADRESA":"PALASE","Nr_":44,"NR_PASURIE":"3/11","POSEDUESI":"VAJINA ALEKS BILLA","NR_UNIK":"","ZONA":"Perfunduar_legalizimi"}},
{"type":"Feature","geometry":{"type":"Polygon","coordinates":[[[19.622899366698903,40.162409502321246],[19.622954808291794,40.162427383845205],[19.62292906725458,40.16247436300575],[19.62287362563042,40.16245648146953],[19.622899366698903,40.162409502321246]]]},"properties":{"sip":28.9928592503,"nr_pas":"200/450","BASHKIA":"PALASE","ZK":"2863","ADRESA":"PALASE","Nr_":45,"NR_PASURIE":"200/450","POSEDUESI":"ALBERT FOTO PAÇO, LEONORA HYSEN PAÇO","NR_UNIK":"11_9028438","ZONA":"Perfunduar_legalizimi"}},
{"type":"Feature","geometry":{"type":"Polygon","coordinates":[[[19.627723981903838,40.16257064266685],[19.627657841334045,40.162652780747194],[19.627530549543547,40.16259244560741],[19.627623082520127,40.162477531749985],[19.627691969797375,40.16251018369635],[19.62769496074831,40.162511601378384],[19.627668568456357,40.16254437724405],[19.627723981903838,40.16257064266685]]]},"properties":{"sip":167.446660586,"nr_pas":"201/1","BASHKIA":"PALASE","ZK":"2863","ADRESA":"PALASE","Nr_":30,"NR_PASURIE":"201/1","POSEDUESI":"THOMA MARKO PJERO","NR_UNIK":"","ZONA":"Perfunduar_legalizimi"}},
{"type":"Feature","geometry":{"type":"Polygon","coordinates":[[[19.625559800676427,40.1660953771356],[19.625696809496844,40.166071031220945],[19.625718772586012,40.16614377816061],[19.625607351961175,40.16616357717016],[19.625566422369545,40.16611635974015],[19.625559800676427,40.1660953771356]]]},"properties":{"sip":92.6439963741,"nr_pas":"200/696","BASHKIA":"PALASE","ZK":"2863","ADRESA":"PALASE","Nr_":47,"NR_PASURIE":"200/696","POSEDUESI":"DHIMITRAQ THOMA GJERGJI, LENA PANO GJERGJI","NR_UNIK":"11_9032156","ZONA":"Perfunduar_legalizimi"}},
{"type":"Feature","geometry":{"type":"Polygon","coordinates":[[[19.624945884046074,40.166839971845285],[19.62488519274884,40.16686270985302],[19.624855933222815,40.16681674426559],[19.624916624488634,40.16679400627291],[19.624945884046074,40.166839971845285]]]},"properties":{"sip":32.6812194552,"nr_pas":"200/344","BASHKIA":"PALASE","ZK":"2863","ADRESA":"PALASE","Nr_":48,"NR_PASURIE":"200/344","POSEDUESI":"JANI ARISTOTEL ÇAÇI, VALENTINA KOÇO ÇAÇI, MIMOZA ABDI ÇAÇI","NR_UNIK":"","ZONA":"Perfunduar_legalizimi"}},
{"type":"Feature","geometry":{"type":"Polygon","coordinates":[[[19.624945884046074,40.166839971845285],[19.624958533476175,40.1668354124707],[19.625012685876897,40.166905118431984],[19.625000738304088,40.16691058126734],[19.6249665612913,40.1669262081446],[19.62493211128382,40.16688186344531],[19.62492915559197,40.16687805881984],[19.624950046240375,40.16686850691859],[19.624931937464275,40.16684519693938],[19.624945884046074,40.166839971845285]]]},"properties":{"sip":35.7377956519,"nr_pas":"200/344","BASHKIA":"PALASE","ZK":"2863","ADRESA":"PALASE","Nr_":48,"NR_PASURIE":"200/344","POSEDUESI":"JANI ARISTOTEL ÇAÇI , VALENTINA KOÇO ÇAÇI,  MIMOZA ABDI ÇAÇI","NR_UNIK":"","ZONA":"Perfunduar_legalizimi"}},
{"type":"Feature","geometry":{"type":"Polygon","coordinates":[[[19.623295088832634,40.16623579563012],[19.623201690320066,40.16621065966059],[19.623238788809772,40.166129526304196],[19.623332187225298,40.16615466224368],[19.623295088832634,40.16623579563012]]]},"properties":{"sip":80.4997129833,"nr_pas":"3/40","BASHKIA":"PALASE","ZK":"2863","ADRESA":"PALASE","Nr_":49,"NR_PASURIE":"3/40","POSEDUESI":"KASIANI JORGJI KUÇI","NR_UNIK":"","ZONA":"Perfunduar_legalizimi"}},
{"type":"Feature","geometry":{"type":"Polygon","coordinates":[[[19.62223958790267,40.16320893928868],[19.62235984888435,40.16315482460365],[19.622444025083325,40.16326493689556],[19.622323763972783,40.16331905166638],[19.62223958790267,40.16320893928868]]]},"properties":{"sip":168.35564268,"nr_pas":"3/178","BASHKIA":"PALASE","ZK":"2863","ADRESA":"PALASE","Nr_":50,"NR_PASURIE":"3/178","POSEDUESI":"SPIRO HARILLA THODHORJANI , MIRELA PAVLLO THODHORJANI","NR_UNIK":"","ZONA":"Perfunduar_legalizimi"}},
{"type":"Feature","geometry":{"type":"Polygon","coordinates":[[[19.620427992621774,40.17066117410891],[19.620529464161688,40.17056738550448],[19.620584787705877,40.170602610093376],[19.6204833161889,40.170696398745825],[19.620427992621774,40.17066117410891]]]},"properties":{"sip":82.8854704239,"nr_pas":"201/111","BASHKIA":"PALASE","ZK":"2863","ADRESA":"PALASE","Nr_":51,"NR_PASURIE":"201/111","POSEDUESI":"VANGJEL SIMO BABE, KALIOPI KRISTO ÇURI","NR_UNIK":"","ZONA":"Perfunduar_legalizimi"}},
{"type":"Feature","geometry":{"type":"Polygon","coordinates":[[[19.62503761214751,40.16507663769228],[19.6251222467913,40.16506568161143],[19.625143058805456,40.16516030948215],[19.62499760005238,40.165179139293656],[19.624982682984957,40.16511131387956],[19.6249796004805,40.165097298229774],[19.625040424404286,40.16508942452264],[19.62503761214751,40.16507663769228]]]},"properties":{"sip":126.342649085,"nr_pas":"3/142","BASHKIA":"PALASE","ZK":"2863","ADRESA":"PALASE","Nr_":53,"NR_PASURIE":"3/142","POSEDUESI":"VALENTINA MINELLA GJIKOKA","NR_UNIK":"","ZONA":"Perfunduar_legalizimi"}},
{"type":"Feature","geometry":{"type":"Polygon","coordinates":[[[19.625490891554428,40.16516916837349],[19.625364454245037,40.16521853039387],[19.62529048531486,40.16510701230316],[19.62541688395242,40.16505766539935],[19.625431764531317,40.16508009983967],[19.625447214937733,40.1650740678791],[19.62546373501991,40.165098974059404],[19.625448323126637,40.16510499098471],[19.625490891554428,40.16516916837349]]]},"properties":{"sip":172.475767093,"nr_pas":"200/456","BASHKIA":"PALASE","ZK":"2863","ADRESA":"PALASE","Nr_":55,"NR_PASURIE":"200/456","POSEDUESI":"HRISTO PASKAL GJERGJI","NR_UNIK":"","ZONA":"Perfunduar_legalizimi"}},
{"type":"Feature","geometry":{"type":"Polygon","coordinates":[[[19.62572338644735,40.165087624817104],[19.62575657932669,40.165128694770154],[19.625732202462736,40.16514029086601],[19.625748725927032,40.16516073553631],[19.625716723100272,40.1651759592972],[19.625700199641965,40.16515551462243],[19.625681138791347,40.16516458187028],[19.625664950243753,40.16517228275898],[19.62565816819557,40.16516389123916],[19.625622918782767,40.16518065936282],[19.62558649463591,40.16513559120297],[19.625591714087236,40.16513310831503],[19.62562650572484,40.16511655795603],[19.625636519089966,40.165128947645506],[19.62572338644735,40.165087624817104]]]},"properties":{"sip":79.4289723286,"nr_pas":"200/348","BASHKIA":"PALASE","ZK":"2863","ADRESA":"PALASE","Nr_":58,"NR_PASURIE":"200/348","POSEDUESI":"LEFTER VASIL KONOMAJ, MIMOZA KISTRO KONOMAJ","NR_UNIK":"","ZONA":"Perfunduar_legalizimi"}},
{"type":"Feature","geometry":{"type":"Polygon","coordinates":[[[19.623084997756184,40.16653324492103],[19.62309195711099,40.16650094735053],[19.62317790548325,40.16651205616324],[19.623170816592314,40.16654433699147],[19.623084997756184,40.16653324492103]]]},"properties":{"sip":26.9687307916,"nr_pas":"3/13","BASHKIA":"PALASE","ZK":"2863","ADRESA":"PALASE","Nr_":59,"NR_PASURIE":"3/13","POSEDUESI":"QIRJAKO VANGJEL NIKA, MELPO ANDREA NIKA","NR_UNIK":"","ZONA":"Perfunduar_legalizimi"}},
{"type":"Feature","geometry":{"type":"Polygon","coordinates":[[[19.623068402606684,40.166497618460724],[19.623064928400066,40.16651517844312],[19.62304271140247,40.1665125913465],[19.623046185614676,40.166495031364754],[19.623068402606684,40.166497618460724]]]},"properties":{"sip":3.77530576008,"nr_pas":"3/13","BASHKIA":"PALASE","ZK":"2863","ADRESA":"PALASE","Nr_":59,"NR_PASURIE":"3/13","POSEDUESI":"QIRJAKO VANGJEL NIKA, MELPO ANDREA NIKA","NR_UNIK":"","ZONA":"Perfunduar_legalizimi"}},
{"type":"Feature","geometry":{"type":"Polygon","coordinates":[[[19.621709370842076,40.16630076979379],[19.621616694194223,40.16630157341875],[19.62161535016953,40.16621034238059],[19.621709871094147,40.16621065123588],[19.621709370842076,40.16630076979379]]]},"properties":{"sip":80.2813127909,"nr_pas":"200/230","BASHKIA":"PALASE","ZK":"2863","ADRESA":"PALASE","Nr_":13,"NR_PASURIE":"200/230","POSEDUESI":"EMILIANO UMBERTO PAPUÇIU","NR_UNIK":"11_8304863","ZONA":"Perfunduar_legalizimi"}},
{"type":"Feature","geometry":{"type":"Polygon","coordinates":[[[19.619515260109853,40.16781738754101],[19.619475090793106,40.16783317979057],[19.6194675859657,40.16784220982918],[19.619400542824877,40.16783388789052],[19.619362748805216,40.16781613080576],[19.619351181726007,40.16783264369511],[19.61930437305607,40.16781307950183],[19.619351690092813,40.16774645092523],[19.61939921766507,40.167766315585546],[19.619433798050917,40.167717621736195],[19.619551248302653,40.16776671118905],[19.619515260109853,40.16781738754101]]]},"properties":{"sip":167.333282002,"nr_pas":"200/220","BASHKIA":"PALASE","ZK":"2863","ADRESA":"PALASE","Nr_":18,"NR_PASURIE":"200/220","POSEDUESI":"TATIANA LEANDRO PAPUÇIU","NR_UNIK":"11_3022710","ZONA":"Perfunduar_legalizimi"}},
{"type":"Feature","geometry":{"type":"Polygon","coordinates":[[[19.623117929976516,40.16493489094146],[19.623093672467526,40.164951581296826],[19.62301958045736,40.16491304228579],[19.623114990867894,40.164803745207344],[19.6231672474297,40.16483001592088],[19.623180149854008,40.1648160595036],[19.623214049815985,40.16483362970973],[19.623127116104037,40.16493851180041],[19.623117929976516,40.16493489094146]]]},"properties":{"sip":136.432452576,"nr_pas":"200/581","BASHKIA":"HIMARE","ZK":"2863","ADRESA":"PALASE","Nr_":107,"NR_PASURIE":"200/581","POSEDUESI":"KSENOFON ILIA BABE, AFËRDITA LEFTER BABE","NR_UNIK":"","ZONA":"Perfunduar_legalizimi"}},
{"type":"Feature","geometry":{"type":"Polygon","coordinates":[[[19.623033587454458,40.166096922851075],[19.623145961003086,40.16612303806128],[19.623096941521794,40.16624718243555],[19.6229845677899,40.166221067175165],[19.623033587454458,40.166096922851075]]]},"properties":{"sip":143.999647066,"nr_pas":"","BASHKIA":"HIMARE","ZK":"","ADRESA":"PALASE","Nr_":0,"NR_PASURIE":"","POSEDUESI":"","NR_UNIK":"","ZONA":"Perfunduar_legalizimi"}},
{"type":"Feature","geometry":{"type":"Polygon","coordinates":[[[19.623015540513364,40.162857070569494],[19.623092295159427,40.16280134865615],[19.623179449206248,40.16287201389568],[19.62310269454857,40.16292773586602],[19.623015540513364,40.162857070569494]]]},"properties":{"sip":97.2001809065,"nr_pas":"","BASHKIA":"HIMARE","ZK":"","ADRESA":"PALASE","Nr_":0,"NR_PASURIE":"","POSEDUESI":"","NR_UNIK":"","ZONA":"Perfunduar_legalizimi"}},
{"type":"Feature","geometry":{"type":"Polygon","coordinates":[[[19.62694963233745,40.16544080173022],[19.62687616856474,40.16533969597951],[19.626957291465597,40.1653050028389],[19.627021716344274,40.165393484087566],[19.626981996783904,40.16541004651976],[19.626991373034958,40.16542294975314],[19.62694963233745,40.16544080173022]]]},"properties":{"sip":95.4807353379,"nr_pas":"","BASHKIA":"HIMARE","ZK":"","ADRESA":"PALASE","Nr_":0,"NR_PASURIE":"","POSEDUESI":"","NR_UNIK":"","ZONA":"Perfunduar_legalizimi"}},
{"type":"Feature","geometry":{"type":"Polygon","coordinates":[[[19.624550490531156,40.163069880294216],[19.624486564049832,40.162964534932605],[19.62461003554686,40.16292043116195],[19.62465215815856,40.16298984586287],[19.624586164973852,40.16301341794238],[19.624607968950716,40.163049349450695],[19.624550490531156,40.163069880294216]]]},"properties":{"sip":122.360627972,"nr_pas":"","BASHKIA":"HIMARE","ZK":"","ADRESA":"PALASE","Nr_":0,"NR_PASURIE":"","POSEDUESI":"","NR_UNIK":"","ZONA":"Perfunduar_legalizimi"}},
{"type":"Feature","geometry":{"type":"Polygon","coordinates":[[[19.62428513342031,40.163118062911586],[19.624198193590043,40.16300210956526],[19.624307600038218,40.16295382360635],[19.62434272726658,40.16300067306395],[19.624345271055944,40.1629995501262],[19.624381276506206,40.16304757128175],[19.624396542770032,40.16304083369118],[19.624412350055994,40.16306191634201],[19.624369605674563,40.16308078161001],[19.62437487478714,40.16308780826101],[19.624331112627058,40.16310712268679],[19.624325843517596,40.163100096033894],[19.62428513342031,40.163118062911586]]]},"properties":{"sip":169.770448679,"nr_pas":"","BASHKIA":"HIMARE","ZK":"","ADRESA":"PALASE","Nr_":0,"NR_PASURIE":"","POSEDUESI":"","NR_UNIK":"","ZONA":"Perfunduar_legalizimi"}},
{"type":"Feature","geometry":{"type":"Polygon","coordinates":[[[19.62839462921757,40.162437982886665],[19.628367852840395,40.16237836677444],[19.628544349352715,40.16233170410376],[19.628571125868294,40.16239132017788],[19.62839462921757,40.162437982886665]]]},"properties":{"sip":111.300139477,"nr_pas":"","BASHKIA":"HIMARE","ZK":"","ADRESA":"PALASE","Nr_":0,"NR_PASURIE":"","POSEDUESI":"","NR_UNIK":"","ZONA":"Perfunduar_legalizimi"}},
{"type":"Feature","geometry":{"type":"Polygon","coordinates":[[[19.623177192274774,40.16651196212484],[19.623060314322107,40.16649655203461],[19.623067175938335,40.166465923426415],[19.6231840538404,40.166481333508926],[19.623177192274774,40.16651196212484]]]},"properties":{"sip":34.845054643,"nr_pas":"","BASHKIA":"HIMARE","ZK":"","ADRESA":"PALASE","Nr_":0,"NR_PASURIE":"","POSEDUESI":"","NR_UNIK":"","ZONA":"Perfunduar_legalizimi"}},
{"type":"Feature","geometry":{"type":"Polygon","coordinates":[[[19.623194341595536,40.16647263595391],[19.623069363756297,40.16645615745735],[19.623083385140525,40.1663935686363],[19.62320836404322,40.16641004712998],[19.623194341595536,40.16647263595391]]]},"properties":{"sip":76.1401951267,"nr_pas":"","BASHKIA":"HIMARE","ZK":"","ADRESA":"PALASE","Nr_":0,"NR_PASURIE":"","POSEDUESI":"","NR_UNIK":"","ZONA":"Perfunduar_legalizimi"}},
{"type":"Feature","geometry":{"type":"Polygon","coordinates":[[[19.625847517071204,40.16502417264868],[19.625838564651158,40.16499247955991],[19.625793811646187,40.164999920479396],[19.62578834138816,40.16498055263632],[19.62583309438088,40.16497311171875],[19.62582289793968,40.16493701642771],[19.6260065001024,40.16490649085407],[19.626017441891168,40.164945227436284],[19.62611497980625,40.16492901008205],[19.626127413369336,40.16497302837815],[19.62607233315988,40.164982186503785],[19.626066116393556,40.164960177353265],[19.626023658640488,40.16496723658917],[19.62603111946001,40.16499364704013],[19.625847517071204,40.16502417264868]]]},"properties":{"sip":200.229825303,"nr_pas":"","BASHKIA":"HIMARE","ZK":"","ADRESA":"PALASE","Nr_":0,"NR_PASURIE":"","POSEDUESI":"","NR_UNIK":"","ZONA":"Perfunduar_legalizimi"}},
{"type":"Feature","geometry":{"type":"Polygon","coordinates":[[[19.622150301059303,40.15571063035211],[19.622166444969814,40.155682127551806],[19.622153523927278,40.15567781876935],[19.622189554563693,40.15561420447647],[19.62220247442286,40.15561851324081],[19.62221861828883,40.15559001043206],[19.6223381311885,40.155629863764645],[19.622269815318557,40.155750482870616],[19.622150301059303,40.15571063035211]]]},"properties":{"sip":171.299805981,"nr_pas":"","BASHKIA":"HIMARE","ZK":"","ADRESA":"PALASE","Nr_":0,"NR_PASURIE":"","POSEDUESI":"","NR_UNIK":"","ZONA":"Perfunduar_legalizimi"}},
{"type":"Feature","geometry":{"type":"Polygon","coordinates":[[[19.623967419960337,40.16754920949604],[19.62389007569889,40.16752534075172],[19.623929950066458,40.16744929171592],[19.62395391849529,40.16745668623827],[19.623942086872127,40.16747925066976],[19.623953834055754,40.16748287590769],[19.623984708901318,40.16749240401507],[19.623995465266923,40.167495723466665],[19.623992446464243,40.167501480718464],[19.623967419960337,40.16754920949604]]]},"properties":{"sip":0,"nr_pas":"","BASHKIA":"","ZK":"","ADRESA":"","Nr_":0,"NR_PASURIE":"","POSEDUESI":"","NR_UNIK":"","ZONA":"Perfunduar_legalizimi"}},
{"type":"Feature","geometry":{"type":"Polygon","coordinates":[[[19.622671514334993,40.16705666397232],[19.622552949722138,40.16705863052271],[19.622549625063122,40.16694065304419],[19.62266818947054,40.16693868649374],[19.622671514334993,40.16705666397232]]]},"properties":{"sip":0,"nr_pas":"","BASHKIA":"","ZK":"","ADRESA":"","Nr_":0,"NR_PASURIE":"","POSEDUESI":"","NR_UNIK":"","ZONA":"Perfunduar_legalizimi"}},
{"type":"Feature","geometry":{"type":"Polygon","coordinates":[[[19.625943010851355,40.16577839435967],[19.62582140634265,40.16576985662873],[19.625830073854843,40.165697195238735],[19.625951678235463,40.165705732958465],[19.625943010851355,40.16577839435967]]]},"properties":{"sip":0,"nr_pas":"","BASHKIA":"","ZK":"","ADRESA":"","Nr_":0,"NR_PASURIE":"","POSEDUESI":"","NR_UNIK":"","ZONA":"Perfunduar_legalizimi"}}
]}