{"type":"FeatureCollection", "features": [
{"type":"Feature","geometry":{"type":"Point","coordinates":[19.624284561688604,40.16763385060472]},"properties":{"ET_ID":955,"FID_1":958,"shenime":"","ET_X":467994.764,"ET_Y":4448210.1508,"ET_Z":0,"ET_M":0}},
{"type":"Feature","geometry":{"type":"Point","coordinates":[19.623706852396847,40.16758012232608]},"properties":{"ET_ID":1050,"FID_1":1053,"shenime":"","ET_X":467945.52657,"ET_Y":4448204.39323,"ET_Z":0,"ET_M":0}},
{"type":"Feature","geometry":{"type":"Point","coordinates":[19.62405175150607,40.1668638292155]},"properties":{"ET_ID":2645,"FID_1":2652,"shenime":"","ET_X":467974.57019,"ET_Y":4448124.73288,"ET_Z":0,"ET_M":0}},
{"type":"Feature","geometry":{"type":"Point","coordinates":[19.623895165058496,40.1669839912274]},"properties":{"ET_ID":4620,"FID_1":4629,"shenime":"","ET_X":467961.28772,"ET_Y":4448138.13193,"ET_Z":0,"ET_M":0}},
{"type":"Feature","geometry":{"type":"Point","coordinates":[19.622146877373034,40.16569078275967]},"properties":{"ET_ID":4622,"FID_1":4631,"shenime":"","ET_X":467811.74762,"ET_Y":4447995.16839,"ET_Z":0,"ET_M":0}},
{"type":"Feature","geometry":{"type":"Point","coordinates":[19.622836689767695,40.167241065561164]},"properties":{"ET_ID":4625,"FID_1":4634,"shenime":"","ET_X":467871.24186,"ET_Y":4448167.05933,"ET_Z":0,"ET_M":0}},
{"type":"Feature","geometry":{"type":"Point","coordinates":[19.62293842620183,40.167123505958806]},"properties":{"ET_ID":4627,"FID_1":4636,"shenime":"","ET_X":467879.85292,"ET_Y":4448153.96893,"ET_Z":0,"ET_M":0}},
{"type":"Feature","geometry":{"type":"Point","coordinates":[19.622478730846513,40.16685883008505]},"properties":{"ET_ID":4628,"FID_1":4637,"shenime":"","ET_X":467840.56858,"ET_Y":4448124.74611,"ET_Z":0,"ET_M":0}},
{"type":"Feature","geometry":{"type":"Point","coordinates":[19.624186617267718,40.16549730032888]},"properties":{"ET_ID":4629,"FID_1":4638,"shenime":"","ET_X":467985.4169,"ET_Y":4447972.94731,"ET_Z":0,"ET_M":0}},
{"type":"Feature","geometry":{"type":"Point","coordinates":[19.62398757343537,40.166538432802696]},"properties":{"ET_ID":4631,"FID_1":4640,"shenime":"","ET_X":467968.95018,"ET_Y":4448088.62458,"ET_Z":0,"ET_M":0}},
{"type":"Feature","geometry":{"type":"Point","coordinates":[19.623645419211854,40.166748676659594]},"properties":{"ET_ID":4632,"FID_1":4641,"shenime":"","ET_X":467939.90222,"ET_Y":4448112.09312,"ET_Z":0,"ET_M":0}},
{"type":"Feature","geometry":{"type":"Point","coordinates":[19.622679066042206,40.16591800857004]},"properties":{"ET_ID":4637,"FID_1":4646,"shenime":"","ET_X":467857.19057,"ET_Y":4448020.20643,"ET_Z":0,"ET_M":0}},
{"type":"Feature","geometry":{"type":"Point","coordinates":[19.62272281250629,40.16555562290586]},"properties":{"ET_ID":4638,"FID_1":4647,"shenime":"","ET_X":467860.7463,"ET_Y":4447979.95194,"ET_Z":0,"ET_M":0}},
{"type":"Feature","geometry":{"type":"Point","coordinates":[19.62361467558622,40.16570269894887]},"properties":{"ET_ID":4640,"FID_1":4649,"shenime":"","ET_X":467936.79116,"ET_Y":4447995.9607,"ET_Z":0,"ET_M":0}},
{"type":"Feature","geometry":{"type":"Point","coordinates":[19.623998996705353,40.166088452767504]},"properties":{"ET_ID":4641,"FID_1":4650,"shenime":"","ET_X":467969.71179,"ET_Y":4448038.65547,"ET_Z":0,"ET_M":0}},
{"type":"Feature","geometry":{"type":"Point","coordinates":[19.623807529615927,40.16584870789197]},"properties":{"ET_ID":4644,"FID_1":4653,"shenime":"","ET_X":467953.28856,"ET_Y":4448012.10368,"ET_Z":0,"ET_M":0}},
{"type":"Feature","geometry":{"type":"Point","coordinates":[19.627824137960694,40.16251199283487]},"properties":{"ET_ID":5341,"FID_1":5350,"shenime":"","ET_X":468293.89995,"ET_Y":4447640.15955,"ET_Z":0,"ET_M":0}},
{"type":"Feature","geometry":{"type":"Point","coordinates":[19.62716910907375,40.16274972722152]},"properties":{"ET_ID":5343,"FID_1":5352,"shenime":"","ET_X":468238.20793,"ET_Y":4447666.79113,"ET_Z":0,"ET_M":0}},
{"type":"Feature","geometry":{"type":"Point","coordinates":[19.627990546132292,40.1627535799534]},"properties":{"ET_ID":5345,"FID_1":5354,"shenime":"","ET_X":468308.18883,"ET_Y":4447666.92556,"ET_Z":0,"ET_M":0}},
{"type":"Feature","geometry":{"type":"Point","coordinates":[19.62791260443881,40.162910964723835]},"properties":{"ET_ID":5346,"FID_1":5355,"shenime":"","ET_X":468301.62209,"ET_Y":4447684.42909,"ET_Z":0,"ET_M":0}},
{"type":"Feature","geometry":{"type":"Point","coordinates":[19.62502859459344,40.16299193937975]},"properties":{"ET_ID":5350,"FID_1":5359,"shenime":"","ET_X":468055.96869,"ET_Y":4447694.45344,"ET_Z":0,"ET_M":0}},
{"type":"Feature","geometry":{"type":"Point","coordinates":[19.625981066184693,40.16343505155041]},"properties":{"ET_ID":5351,"FID_1":5360,"shenime":"","ET_X":468137.31765,"ET_Y":4447743.31374,"ET_Z":0,"ET_M":0}},
{"type":"Feature","geometry":{"type":"Point","coordinates":[19.625386751710653,40.16420503401447]},"properties":{"ET_ID":5352,"FID_1":5361,"shenime":"","ET_X":468087.04841,"ET_Y":4447829.02454,"ET_Z":0,"ET_M":0}},
{"type":"Feature","geometry":{"type":"Point","coordinates":[19.625188564727623,40.16463649573502]},"properties":{"ET_ID":5353,"FID_1":5362,"shenime":"","ET_X":468070.36715,"ET_Y":4447877.00449,"ET_Z":0,"ET_M":0}},
{"type":"Feature","geometry":{"type":"Point","coordinates":[19.625735277170893,40.16488870273154]},"properties":{"ET_ID":5354,"FID_1":5363,"shenime":"","ET_X":468117.05888,"ET_Y":4447904.81273,"ET_Z":0,"ET_M":0}},
{"type":"Feature","geometry":{"type":"Point","coordinates":[19.625141715182696,40.16531359164671]},"properties":{"ET_ID":5355,"FID_1":5364,"shenime":"","ET_X":468066.69337,"ET_Y":4447952.20485,"ET_Z":0,"ET_M":0}},
{"type":"Feature","geometry":{"type":"Point","coordinates":[19.626000006334092,40.16521202158376]},"properties":{"ET_ID":5357,"FID_1":5366,"shenime":"","ET_X":468139.76189,"ET_Y":4447940.61849,"ET_Z":0,"ET_M":0}},
{"type":"Feature","geometry":{"type":"Point","coordinates":[19.626111333387815,40.16542118654535]},"properties":{"ET_ID":5358,"FID_1":5367,"shenime":"","ET_X":468149.34338,"ET_Y":4447963.80387,"ET_Z":0,"ET_M":0}},
{"type":"Feature","geometry":{"type":"Point","coordinates":[19.622979258874214,40.16294544379414]},"properties":{"ET_ID":5360,"FID_1":5369,"shenime":"","ET_X":467881.36226,"ET_Y":4447690.0296,"ET_Z":0,"ET_M":0}},
{"type":"Feature","geometry":{"type":"Point","coordinates":[19.621341414590404,40.16343991812508]},"properties":{"ET_ID":5362,"FID_1":5371,"shenime":"","ET_X":467742.06695,"ET_Y":4447745.52859,"ET_Z":0,"ET_M":0}},
{"type":"Feature","geometry":{"type":"Point","coordinates":[19.620818632700153,40.164101677315166]},"properties":{"ET_ID":5366,"FID_1":5375,"shenime":"","ET_X":467697.84469,"ET_Y":4447819.1991,"ET_Z":0,"ET_M":0}},
{"type":"Feature","geometry":{"type":"Point","coordinates":[19.62476106766175,40.16557538588186]},"properties":{"ET_ID":5368,"FID_1":5377,"shenime":"","ET_X":468034.38961,"ET_Y":4447981.41092,"ET_Z":0,"ET_M":0}},
{"type":"Feature","geometry":{"type":"Point","coordinates":[19.62454765575804,40.16566692823823]},"properties":{"ET_ID":5369,"FID_1":5378,"shenime":"","ET_X":468016.25253,"ET_Y":4447991.65244,"ET_Z":0,"ET_M":0}},
{"type":"Feature","geometry":{"type":"Point","coordinates":[19.62487508246544,40.165454992335036]},"properties":{"ET_ID":5370,"FID_1":5379,"shenime":"","ET_X":468044.04579,"ET_Y":4447968.00161,"ET_Z":0,"ET_M":0}},
{"type":"Feature","geometry":{"type":"Point","coordinates":[19.624929774356158,40.1661714773205]},"properties":{"ET_ID":5371,"FID_1":5380,"shenime":"","ET_X":468049.04079,"ET_Y":4448047.53916,"ET_Z":0,"ET_M":0}},
{"type":"Feature","geometry":{"type":"Point","coordinates":[19.624957585655455,40.16624157222057]},"properties":{"ET_ID":5372,"FID_1":5381,"shenime":"","ET_X":468051.44281,"ET_Y":4448055.31237,"ET_Z":0,"ET_M":0}},
{"type":"Feature","geometry":{"type":"Point","coordinates":[19.625127338874222,40.16604843401587]},"properties":{"ET_ID":5373,"FID_1":5382,"shenime":"","ET_X":468065.81302,"ET_Y":4448033.8056,"ET_Z":0,"ET_M":0}},
{"type":"Feature","geometry":{"type":"Point","coordinates":[19.624999952932495,40.16631787142]},"properties":{"ET_ID":5375,"FID_1":5384,"shenime":"","ET_X":468055.0877,"ET_Y":4448063.76926,"ET_Z":0,"ET_M":0}},
{"type":"Feature","geometry":{"type":"Point","coordinates":[19.624859727392522,40.166409836848736]},"properties":{"ET_ID":5376,"FID_1":5385,"shenime":"","ET_X":468043.18549,"ET_Y":4448074.03138,"ET_Z":0,"ET_M":0}},
{"type":"Feature","geometry":{"type":"Point","coordinates":[19.624973904157002,40.166427691035786]},"properties":{"ET_ID":5377,"FID_1":5386,"shenime":"","ET_X":468052.92018,"ET_Y":4448075.97281,"ET_Z":0,"ET_M":0}},
{"type":"Feature","geometry":{"type":"Point","coordinates":[19.62537707629326,40.16644392157222]},"properties":{"ET_ID":5381,"FID_1":5390,"shenime":"","ET_X":468087.2726,"ET_Y":4448077.63009,"ET_Z":0,"ET_M":0}},
{"type":"Feature","geometry":{"type":"Point","coordinates":[19.625400853000542,40.16653875415477]},"properties":{"ET_ID":5382,"FID_1":5391,"shenime":"","ET_X":468089.34246,"ET_Y":4448088.15159,"ET_Z":0,"ET_M":0}},
{"type":"Feature","geometry":{"type":"Point","coordinates":[19.62525475683554,40.166715599978296]},"properties":{"ET_ID":5385,"FID_1":5394,"shenime":"","ET_X":468076.9799,"ET_Y":4448107.84074,"ET_Z":0,"ET_M":0}},
{"type":"Feature","geometry":{"type":"Point","coordinates":[19.62569800560745,40.16636097288482]},"properties":{"ET_ID":5386,"FID_1":5395,"shenime":"","ET_X":468114.57263,"ET_Y":4448068.30437,"ET_Z":0,"ET_M":0}},
{"type":"Feature","geometry":{"type":"Point","coordinates":[19.625633709821614,40.16669157034217]},"properties":{"ET_ID":5388,"FID_1":5397,"shenime":"","ET_X":468109.2502,"ET_Y":4448105.03641,"ET_Z":0,"ET_M":0}},
{"type":"Feature","geometry":{"type":"Point","coordinates":[19.625354307827138,40.16668786371096]},"properties":{"ET_ID":5389,"FID_1":5398,"shenime":"","ET_X":468085.44728,"ET_Y":4448104.72518,"ET_Z":0,"ET_M":0}},
{"type":"Feature","geometry":{"type":"Point","coordinates":[19.626321279540797,40.16653616791253]},"properties":{"ET_ID":5390,"FID_1":5399,"shenime":"","ET_X":468167.74903,"ET_Y":4448087.53417,"ET_Z":0,"ET_M":0}},
{"type":"Feature","geometry":{"type":"Point","coordinates":[19.62539725402085,40.16726140117846]},"properties":{"ET_ID":5393,"FID_1":5402,"shenime":"","ET_X":468089.37427,"ET_Y":4448168.39434,"ET_Z":0,"ET_M":0}},
{"type":"Feature","geometry":{"type":"Point","coordinates":[19.62535182642398,40.167336726948015]},"properties":{"ET_ID":5394,"FID_1":5403,"shenime":"","ET_X":468085.53978,"ET_Y":4448176.77471,"ET_Z":0,"ET_M":0}},
{"type":"Feature","geometry":{"type":"Point","coordinates":[19.62535093420757,40.16742490556764]},"properties":{"ET_ID":5395,"FID_1":5404,"shenime":"","ET_X":468085.50507,"ET_Y":4448186.56623,"ET_Z":0,"ET_M":0}},
{"type":"Feature","geometry":{"type":"Point","coordinates":[19.625414324928904,40.16753493411021]},"properties":{"ET_ID":5396,"FID_1":5405,"shenime":"","ET_X":468090.95655,"ET_Y":4448198.76083,"ET_Z":0,"ET_M":0}},
{"type":"Feature","geometry":{"type":"Point","coordinates":[19.625718798852624,40.16738484694042]},"properties":{"ET_ID":5398,"FID_1":5407,"shenime":"","ET_X":468116.82297,"ET_Y":4448181.98608,"ET_Z":0,"ET_M":0}},
{"type":"Feature","geometry":{"type":"Point","coordinates":[19.625751151293876,40.16732263154854]},"properties":{"ET_ID":5399,"FID_1":5408,"shenime":"","ET_X":468119.54982,"ET_Y":4448175.06618,"ET_Z":0,"ET_M":0}},
{"type":"Feature","geometry":{"type":"Point","coordinates":[19.625437342878474,40.16810947280334]},"properties":{"ET_ID":5400,"FID_1":5409,"shenime":"","ET_X":468093.18635,"ET_Y":4448262.54834,"ET_Z":0,"ET_M":0}},
{"type":"Feature","geometry":{"type":"Point","coordinates":[19.625628987378953,40.1679118423785]},"properties":{"ET_ID":5401,"FID_1":5410,"shenime":"","ET_X":468109.41898,"ET_Y":4448240.53498,"ET_Z":0,"ET_M":0}},
{"type":"Feature","geometry":{"type":"Point","coordinates":[19.62554707516782,40.16790253471445]},"properties":{"ET_ID":5402,"FID_1":5411,"shenime":"","ET_X":468102.43696,"ET_Y":4448239.53088,"ET_Z":0,"ET_M":0}},
{"type":"Feature","geometry":{"type":"Point","coordinates":[19.6256181386295,40.16766949972523]},"properties":{"ET_ID":5403,"FID_1":5412,"shenime":"","ET_X":468108.38142,"ET_Y":4448213.62957,"ET_Z":0,"ET_M":0}},
{"type":"Feature","geometry":{"type":"Point","coordinates":[19.62470789091101,40.16696192962292]},"properties":{"ET_ID":5405,"FID_1":5414,"shenime":"","ET_X":468030.51007,"ET_Y":4448135.38943,"ET_Z":0,"ET_M":0}},
{"type":"Feature","geometry":{"type":"Point","coordinates":[19.624435790602224,40.166979422260795]},"properties":{"ET_ID":5406,"FID_1":5415,"shenime":"","ET_X":468007.3392,"ET_Y":4448137.42974,"ET_Z":0,"ET_M":0}},
{"type":"Feature","geometry":{"type":"Point","coordinates":[19.624388359816333,40.16710189049255]},"properties":{"ET_ID":5407,"FID_1":5416,"shenime":"","ET_X":468003.35627,"ET_Y":4448151.04549,"ET_Z":0,"ET_M":0}},
{"type":"Feature","geometry":{"type":"Point","coordinates":[19.62445213543751,40.167344001967855]},"properties":{"ET_ID":5408,"FID_1":5417,"shenime":"","ET_X":468008.9027,"ET_Y":4448177.90615,"ET_Z":0,"ET_M":0}},
{"type":"Feature","geometry":{"type":"Point","coordinates":[19.624929494529233,40.16720229896685]},"properties":{"ET_ID":5410,"FID_1":5419,"shenime":"","ET_X":468049.50026,"ET_Y":4448161.99988,"ET_Z":0,"ET_M":0}},
{"type":"Feature","geometry":{"type":"Point","coordinates":[19.625158562521044,40.16724521201216]},"properties":{"ET_ID":5413,"FID_1":5422,"shenime":"","ET_X":468069.03364,"ET_Y":4448166.6825,"ET_Z":0,"ET_M":0}},
{"type":"Feature","geometry":{"type":"Point","coordinates":[19.624650105034032,40.167504523949574]},"properties":{"ET_ID":5417,"FID_1":5426,"shenime":"","ET_X":468025.84213,"ET_Y":4448195.65895,"ET_Z":0,"ET_M":0}},
{"type":"Feature","geometry":{"type":"Point","coordinates":[19.624651529494436,40.16783826071508]},"properties":{"ET_ID":5418,"FID_1":5427,"shenime":"","ET_X":468026.12006,"ET_Y":4448232.71599,"ET_Z":0,"ET_M":0}},
{"type":"Feature","geometry":{"type":"Point","coordinates":[19.6245192053362,40.16765768590758]},"properties":{"ET_ID":5420,"FID_1":5429,"shenime":"","ET_X":468014.76331,"ET_Y":4448212.71292,"ET_Z":0,"ET_M":0}},
{"type":"Feature","geometry":{"type":"Point","coordinates":[19.624337893235655,40.16751245153775]},"properties":{"ET_ID":5421,"FID_1":5430,"shenime":"","ET_X":467999.25004,"ET_Y":4448196.65165,"ET_Z":0,"ET_M":0}},
{"type":"Feature","geometry":{"type":"Point","coordinates":[19.62425221530658,40.167397345648936]},"properties":{"ET_ID":5422,"FID_1":5431,"shenime":"","ET_X":467991.89749,"ET_Y":4448183.90136,"ET_Z":0,"ET_M":0}},
{"type":"Feature","geometry":{"type":"Point","coordinates":[19.624038786428166,40.16755655154797]},"properties":{"ET_ID":5423,"FID_1":5432,"shenime":"","ET_X":467973.79131,"ET_Y":4448201.65624,"ET_Z":0,"ET_M":0}},
{"type":"Feature","geometry":{"type":"Point","coordinates":[19.62401727888015,40.16757618478132]},"properties":{"ET_ID":5424,"FID_1":5433,"shenime":"","ET_X":467971.96842,"ET_Y":4448203.84403,"ET_Z":0,"ET_M":0}},
{"type":"Feature","geometry":{"type":"Point","coordinates":[19.62401063937973,40.16760752733361]},"properties":{"ET_ID":5425,"FID_1":5434,"shenime":"","ET_X":467971.41756,"ET_Y":4448207.32665,"ET_Z":0,"ET_M":0}},
{"type":"Feature","geometry":{"type":"Point","coordinates":[19.623878029290804,40.167388938606216]},"properties":{"ET_ID":5426,"FID_1":5435,"shenime":"","ET_X":467960.01839,"ET_Y":4448183.10276,"ET_Z":0,"ET_M":0}},
{"type":"Feature","geometry":{"type":"Point","coordinates":[19.62478064802459,40.16655734772249]},"properties":{"ET_ID":5430,"FID_1":5439,"shenime":"","ET_X":468036.51818,"ET_Y":4448090.43918,"ET_Z":0,"ET_M":0}},
{"type":"Feature","geometry":{"type":"Point","coordinates":[19.625393461708672,40.16597233109178]},"properties":{"ET_ID":5431,"FID_1":5440,"shenime":"","ET_X":468088.44759,"ET_Y":4448025.25963,"ET_Z":0,"ET_M":0}},
{"type":"Feature","geometry":{"type":"Point","coordinates":[19.625499954936107,40.16635536148608]},"properties":{"ET_ID":5432,"FID_1":5441,"shenime":"","ET_X":468097.69874,"ET_Y":4448067.7524,"ET_Z":0,"ET_M":0}},
{"type":"Feature","geometry":{"type":"Point","coordinates":[19.624720689518895,40.16721489491042]},"properties":{"ET_ID":5434,"FID_1":5443,"shenime":"","ET_X":468031.719,"ET_Y":4448163.47364,"ET_Z":0,"ET_M":0}},
{"type":"Feature","geometry":{"type":"Point","coordinates":[19.625237175502093,40.16681803916131]},"properties":{"ET_ID":5436,"FID_1":5445,"shenime":"","ET_X":468075.53021,"ET_Y":4448119.22172,"ET_Z":0,"ET_M":0}},
{"type":"Feature","geometry":{"type":"Point","coordinates":[19.625507472605403,40.16690475225032]},"properties":{"ET_ID":5437,"FID_1":5446,"shenime":"","ET_X":468098.59633,"ET_Y":4448128.75308,"ET_Z":0,"ET_M":0}},
{"type":"Feature","geometry":{"type":"Point","coordinates":[19.625551041140966,40.16779307145816]},"properties":{"ET_ID":5438,"FID_1":5447,"shenime":"","ET_X":468102.72356,"ET_Y":4448227.37485,"ET_Z":0,"ET_M":0}},
{"type":"Feature","geometry":{"type":"Point","coordinates":[19.62537515016512,40.16779485427222]},"properties":{"ET_ID":5439,"FID_1":5448,"shenime":"","ET_X":468087.74116,"ET_Y":4448227.63599,"ET_Z":0,"ET_M":0}},
{"type":"Feature","geometry":{"type":"Point","coordinates":[19.62544127735449,40.167614010748615]},"properties":{"ET_ID":5440,"FID_1":5449,"shenime":"","ET_X":468093.28952,"ET_Y":4448207.53168,"ET_Z":0,"ET_M":0}},
{"type":"Feature","geometry":{"type":"Point","coordinates":[19.62557099391778,40.16756672084244]},"properties":{"ET_ID":5441,"FID_1":5450,"shenime":"","ET_X":468104.31729,"ET_Y":4448202.2341,"ET_Z":0,"ET_M":0}},
{"type":"Feature","geometry":{"type":"Point","coordinates":[19.62582849507981,40.167442996946505]},"properties":{"ET_ID":5442,"FID_1":5451,"shenime":"","ET_X":468126.19467,"ET_Y":4448188.40359,"ET_Z":0,"ET_M":0}},
{"type":"Feature","geometry":{"type":"Point","coordinates":[19.623392431696704,40.16722620571869]},"properties":{"ET_ID":5443,"FID_1":5452,"shenime":"","ET_X":467918.57601,"ET_Y":4448165.20846,"ET_Z":0,"ET_M":0}},
{"type":"Feature","geometry":{"type":"Point","coordinates":[19.626317423697806,40.164640933891775]},"properties":{"ET_ID":5445,"FID_1":5454,"shenime":"","ET_X":468166.53529,"ET_Y":4447877.09214,"ET_Z":0,"ET_M":0}},
{"type":"Feature","geometry":{"type":"Point","coordinates":[19.629914578284723,40.16445783401218]},"properties":{"ET_ID":5488,"FID_1":5497,"shenime":"","ET_X":468472.88758,"ET_Y":4447855.47819,"ET_Z":0,"ET_M":0}},
{"type":"Feature","geometry":{"type":"Point","coordinates":[19.62520911765259,40.16117392064824]},"properties":{"ET_ID":5489,"FID_1":5498,"shenime":"","ET_X":468070.49592,"ET_Y":4447492.5191,"ET_Z":0,"ET_M":0}},
{"type":"Feature","geometry":{"type":"Point","coordinates":[19.622033668404285,40.16814028550673]},"properties":{"ET_ID":5497,"FID_1":5506,"shenime":"","ET_X":467803.26097,"ET_Y":4448267.19792,"ET_Z":0,"ET_M":0}},
{"type":"Feature","geometry":{"type":"Point","coordinates":[19.628367626420204,40.163126903220196]},"properties":{"ET_ID":5498,"FID_1":5507,"shenime":"","ET_X":468340.48612,"ET_Y":4447708.24424,"ET_Z":0,"ET_M":0}},
{"type":"Feature","geometry":{"type":"Point","coordinates":[19.626440737052068,40.166085461338575]},"properties":{"ET_ID":5499,"FID_1":5508,"shenime":"","ET_X":468177.71472,"ET_Y":4448037.44571,"ET_Z":0,"ET_M":0}},
{"type":"Feature","geometry":{"type":"Point","coordinates":[19.62489863763921,40.16431876060883]},"properties":{"ET_ID":5500,"FID_1":5509,"shenime":"","ET_X":468045.51965,"ET_Y":4447841.828,"ET_Z":0,"ET_M":0}},
{"type":"Feature","geometry":{"type":"Point","coordinates":[19.61531755768709,40.1708575772836]},"properties":{"ET_ID":5520,"FID_1":5529,"shenime":"","ET_X":467232.46011,"ET_Y":4448571.37748,"ET_Z":0,"ET_M":0}},
{"type":"Feature","geometry":{"type":"Point","coordinates":[19.615720375339944,40.17154485418925]},"properties":{"ET_ID":5521,"FID_1":5530,"shenime":"","ET_X":467267.10268,"ET_Y":4448647.54305,"ET_Z":0,"ET_M":0}},
{"type":"Feature","geometry":{"type":"Point","coordinates":[19.604805411335402,40.17381430463255]},"properties":{"ET_ID":5539,"FID_1":5548,"shenime":"","ET_X":466338.48602,"ET_Y":4448903.6189,"ET_Z":0,"ET_M":0}},
{"type":"Feature","geometry":{"type":"Point","coordinates":[19.604571375417024,40.173929106894384]},"properties":{"ET_ID":5540,"FID_1":5549,"shenime":"","ET_X":466318.60823,"ET_Y":4448916.45509,"ET_Z":0,"ET_M":0}},
{"type":"Feature","geometry":{"type":"Point","coordinates":[19.59582841935565,40.1734517224185]},"properties":{"ET_ID":5541,"FID_1":5550,"shenime":"","ET_X":465573.66687,"ET_Y":4448866.79936,"ET_Z":0,"ET_M":0}},
{"type":"Feature","geometry":{"type":"Point","coordinates":[19.61561304908915,40.17492787686137]},"properties":{"ET_ID":5547,"FID_1":5556,"shenime":"","ET_X":467259.58639,"ET_Y":4449023.22799,"ET_Z":0,"ET_M":0}},
{"type":"Feature","geometry":{"type":"Point","coordinates":[19.615612287360513,40.1747941641876]},"properties":{"ET_ID":5548,"FID_1":5557,"shenime":"","ET_X":467259.45725,"ET_Y":4449008.38103,"ET_Z":0,"ET_M":0}},
{"type":"Feature","geometry":{"type":"Point","coordinates":[19.592810724664158,40.18440509447278]},"properties":{"ET_ID":5549,"FID_1":5558,"shenime":"","ET_X":465322.20314,"ET_Y":4450084.21999,"ET_Z":0,"ET_M":0}},
{"type":"Feature","geometry":{"type":"Point","coordinates":[19.592649532376935,40.18474788546959]},"properties":{"ET_ID":5550,"FID_1":5559,"shenime":"","ET_X":465308.64996,"ET_Y":4450122.34601,"ET_Z":0,"ET_M":0}},
{"type":"Feature","geometry":{"type":"Point","coordinates":[19.59261534068779,40.18446734817477]},"properties":{"ET_ID":5551,"FID_1":5560,"shenime":"","ET_X":465305.59516,"ET_Y":4450091.20888,"ET_Z":0,"ET_M":0}},
{"type":"Feature","geometry":{"type":"Point","coordinates":[19.62474151034213,40.16664512947489]},"properties":{"ET_ID":7711,"FID_1":7721,"shenime":"","ET_X":468033.22536,"ET_Y":4448100.20039,"ET_Z":0,"ET_M":0}},
{"type":"Feature","geometry":{"type":"Point","coordinates":[19.62512258504099,40.16740805812201]},"properties":{"ET_ID":7712,"FID_1":7722,"shenime":"","ET_X":468066.0452,"ET_Y":4448184.77758,"ET_Z":0,"ET_M":0}},
{"type":"Feature","geometry":{"type":"Point","coordinates":[19.621463771034296,40.16340178457504]},"properties":{"ET_ID":7713,"FID_1":7723,"shenime":"","ET_X":467752.47248,"ET_Y":4447741.24988,"ET_Z":0,"ET_M":0}},
{"type":"Feature","geometry":{"type":"Point","coordinates":[19.6241966011373,40.16750397431532]},"properties":{"ET_ID":7714,"FID_1":7724,"shenime":"","ET_X":467987.21007,"ET_Y":4448195.76126,"ET_Z":0,"ET_M":0}},
{"type":"Feature","geometry":{"type":"Point","coordinates":[19.624879326383923,40.16691183088213]},"properties":{"ET_ID":7715,"FID_1":7725,"shenime":"","ET_X":468045.09045,"ET_Y":4448129.76486,"ET_Z":0,"ET_M":0}},
{"type":"Feature","geometry":{"type":"Point","coordinates":[19.626348563440335,40.163806529966486]},"properties":{"ET_ID":7720,"FID_1":0,"shenime":"digjitalizuar orto","ET_X":468168.79833,"ET_Y":4447784.43028,"ET_Z":0,"ET_M":0}},
{"type":"Feature","geometry":{"type":"Point","coordinates":[19.62314879977899,40.162272386312495]},"properties":{"ET_ID":7721,"FID_1":0,"shenime":"digjitalizuar orto","ET_X":467895.48855,"ET_Y":4447615.23324,"ET_Z":0,"ET_M":0}},
{"type":"Feature","geometry":{"type":"Point","coordinates":[19.620526651291907,40.164441442986075]},"properties":{"ET_ID":7722,"FID_1":0,"shenime":"digjitalizuar orto","ET_X":467673.13213,"ET_Y":4447857.03229,"ET_Z":0,"ET_M":0}},
{"type":"Feature","geometry":{"type":"Point","coordinates":[19.623924291532354,40.16678989727183]},"properties":{"ET_ID":7725,"FID_1":0,"shenime":"digjitalizuar orto","ET_X":467963.67764,"ET_Y":4448116.56957,"ET_Z":0,"ET_M":0}},
{"type":"Feature","geometry":{"type":"Point","coordinates":[19.621628112037644,40.16326787233021]},"properties":{"ET_ID":7727,"FID_1":0,"shenime":"digjitalizuar orto","ET_X":467766.4094,"ET_Y":4447726.32087,"ET_Z":0,"ET_M":0}},
{"type":"Feature","geometry":{"type":"Point","coordinates":[19.62174783859821,40.163211274860004]},"properties":{"ET_ID":7728,"FID_1":0,"shenime":"digjitalizuar orto","ET_X":467776.5822,"ET_Y":4447719.99295,"ET_Z":0,"ET_M":0}},
{"type":"Feature","geometry":{"type":"Point","coordinates":[19.621840790610538,40.163165197134816]},"properties":{"ET_ID":7729,"FID_1":0,"shenime":"digjitalizuar orto","ET_X":467784.47905,"ET_Y":4447714.84285,"ET_Z":0,"ET_M":0}},
{"type":"Feature","geometry":{"type":"Point","coordinates":[19.62761579055248,40.160224716613655]},"properties":{"ET_ID":7730,"FID_1":0,"shenime":"RGB, MULTI","ET_X":468275.08595,"ET_Y":4447386.25905,"ET_Z":0,"ET_M":0}},
{"type":"Feature","geometry":{"type":"Point","coordinates":[19.6258077048044,40.16351482926562]},"properties":{"ET_ID":7731,"FID_1":0,"shenime":"RGB 2026","ET_X":468122.58627,"ET_Y":4447752.23431,"ET_Z":0,"ET_M":0}},
{"type":"Feature","geometry":{"type":"Point","coordinates":[19.626037669567655,40.16384172169093]},"properties":{"ET_ID":7732,"FID_1":0,"shenime":"RGB 2026","ET_X":468142.3298,"ET_Y":4447788.44935,"ET_Z":0,"ET_M":0}},
{"type":"Feature","geometry":{"type":"Point","coordinates":[19.627390372632323,40.16494035609868]},"properties":{"ET_ID":7733,"FID_1":0,"shenime":"RGB 2026","ET_X":468258.07789,"ET_Y":4447909.9555,"ET_Z":0,"ET_M":0}},
{"type":"Feature","geometry":{"type":"Point","coordinates":[19.628236453018253,40.1647062282317]},"properties":{"ET_ID":7734,"FID_1":0,"shenime":"RGB 2026","ET_X":468330.04528,"ET_Y":4447883.65637,"ET_Z":0,"ET_M":0}},
{"type":"Feature","geometry":{"type":"Point","coordinates":[19.62801777769587,40.16548807482689]},"properties":{"ET_ID":7735,"FID_1":0,"shenime":"RGB 2026","ET_X":468311.78017,"ET_Y":4447970.5492,"ET_Z":0,"ET_M":0}},
{"type":"Feature","geometry":{"type":"Point","coordinates":[19.628176603311733,40.165426401230334]},"properties":{"ET_ID":7736,"FID_1":0,"shenime":"RGB 2026","ET_X":468325.28149,"ET_Y":4447963.64443,"ET_Z":0,"ET_M":0}},
{"type":"Feature","geometry":{"type":"Point","coordinates":[19.627978124514506,40.16567743351549]},"properties":{"ET_ID":7737,"FID_1":0,"shenime":"RGB 2026","ET_X":468308.49027,"ET_Y":4447991.5894,"ET_Z":0,"ET_M":0}},
{"type":"Feature","geometry":{"type":"Point","coordinates":[19.626677362039622,40.16547355629132]},"properties":{"ET_ID":7738,"FID_1":0,"shenime":"RGB 2026","ET_X":468197.58652,"ET_Y":4447969.41612,"ET_Z":0,"ET_M":0}},
{"type":"Feature","geometry":{"type":"Point","coordinates":[19.62677069075539,40.164882385697425]},"properties":{"ET_ID":7739,"FID_1":0,"shenime":"RGB 2026","ET_X":468205.26117,"ET_Y":4447903.74018,"ET_Z":0,"ET_M":0}},
{"type":"Feature","geometry":{"type":"Point","coordinates":[19.6246092898611,40.166572483454054]},"properties":{"ET_ID":7740,"FID_1":0,"shenime":"RGB 2026","ET_X":468021.92791,"ET_Y":4448092.1815,"ET_Z":0,"ET_M":0}}
]}