{"type":"FeatureCollection", "features": [
{"type":"Feature","geometry":{"type":"Polygon","coordinates":[[[19.61943734055407,40.167805406550926],[19.619557642175256,40.16786216528974],[19.619520594795187,40.167918407914904],[19.61948213265631,40.167933424225005],[19.61947657967598,40.167946025384474],[19.619405912382344,40.16793527694049],[19.61936599564023,40.16791621758142],[19.619354391099808,40.16793258427447],[19.619308449802418,40.16791224295396],[19.619353277228857,40.16783751789635],[19.61939919611886,40.1678616445595],[19.61943734055407,40.167805406550926]]]},"properties":{"AREA":0,"STRING":"200/220"}},
{"type":"Feature","geometry":{"type":"Polygon","coordinates":[[[19.622592877967843,40.1675882476359],[19.622541174185987,40.167510532503655],[19.622637727249124,40.167474292943155],[19.622687228781746,40.16755130354344],[19.622592877967843,40.1675882476359]]]},"properties":{"AREA":0,"STRING":"200/129"}},
{"type":"Feature","geometry":{"type":"Polygon","coordinates":[[[19.623081697713104,40.16639606268804],[19.623204205188276,40.16641145147662],[19.623188569458822,40.16647565909144],[19.623069194234862,40.16645854934257],[19.623081697713104,40.16639606268804]]]},"properties":{"AREA":0,"STRING":"200/113"}},
{"type":"Feature","geometry":{"type":"Polygon","coordinates":[[[19.621616694194238,40.16630157341875],[19.621615350169524,40.166210342380566],[19.62171146996514,40.16621071295154],[19.62171096971518,40.16630083150949],[19.621616694194238,40.16630157341875]]]},"properties":{"AREA":0,"STRING":"200/230"}},
{"type":"Feature","geometry":{"type":"Polygon","coordinates":[[[19.624343965390192,40.162998481221805],[19.62423382764907,40.16304701591305],[19.62419900004335,40.16300046119293],[19.624308548978604,40.162952220999934],[19.624343965390192,40.162998481221805]]]},"properties":{"AREA":0,"STRING":"200/104"}},
{"type":"Feature","geometry":{"type":"Polygon","coordinates":[[[19.628397841347635,40.16244385332689],[19.628369182123016,40.16238303397263],[19.628547291090417,40.16233602534912],[19.62857449947443,40.162394852219315],[19.628397841347635,40.16244385332689]]]},"properties":{"AREA":0,"STRING":"200/105"}},
{"type":"Feature","geometry":{"type":"Polygon","coordinates":[[[19.628703488308506,40.15579304482828],[19.628671435709528,40.155737446345874],[19.628776494498606,40.15570178749769],[19.628796076637933,40.155735248081356],[19.628825977243924,40.15572494561295],[19.62883993932407,40.1557399377237],[19.628798626124897,40.15576075333845],[19.628703488308506,40.15579304482828]]]},"properties":{"AREA":0,"STRING":"200/239"}},
{"type":"Feature","geometry":{"type":"Polygon","coordinates":[[[19.625907507066362,40.15394306270068],[19.625738025000327,40.154023009887304],[19.625694601528828,40.15396830157477],[19.625864513182876,40.15388889578666],[19.625907507066362,40.15394306270068]]]},"properties":{"AREA":0,"STRING":"200/237"}},
{"type":"Feature","geometry":{"type":"Polygon","coordinates":[[[19.633960926644296,40.145833220101935],[19.63405263233365,40.145810814978255],[19.634085974031045,40.14589118561042],[19.634000814534307,40.14591199140222],[19.634004329778254,40.14592292133881],[19.633955035844572,40.14593603158037],[19.633931045642743,40.14588290914343],[19.633977268623514,40.14586939058362],[19.633960926644296,40.145833220101935]]]},"properties":{"AREA":0,"STRING":"77/31"}},
{"type":"Feature","geometry":{"type":"Polygon","coordinates":[[[19.615558737622568,40.15252926643436],[19.615208006723286,40.152755191261356],[19.6151712306591,40.15272206664379],[19.615200280919762,40.15270307610079],[19.615149273649546,40.1526571332198],[19.615112238385187,40.15268134365165],[19.614981703842883,40.15256109126812],[19.615316727436387,40.15234981539256],[19.615333310588756,40.15236501723596],[19.615357347687613,40.15234957782083],[19.615390280633353,40.15237976754958],[19.61541255210325,40.15239254524532],[19.615558737622568,40.15252926643436]]]},"properties":{"AREA":0,"STRING":"68/4/2-ND1"}},
{"type":"Feature","geometry":{"type":"Polygon","coordinates":[[[19.634826982278156,40.14670514873249],[19.634813357528547,40.14666829325901],[19.63489153455006,40.146651870788766],[19.634886472511806,40.146641494946564],[19.634912966341403,40.14663368497471],[19.63491811258854,40.14664396601698],[19.63499555447505,40.14662521954257],[19.635012528765333,40.146658397329155],[19.63505944271277,40.14665042315206],[19.635070996925652,40.146686968802015],[19.63482166471908,40.146745983627945],[19.634808456012617,40.14670864127587],[19.634826982278156,40.14670514873249]]]},"properties":{"AREA":0,"STRING":"74/73/2"}},
{"type":"Feature","geometry":{"type":"Polygon","coordinates":[[[19.624552288352007,40.16306734768926],[19.624488455604265,40.162962802056065],[19.62461460118332,40.162917465250196],[19.624656293607565,40.16298739199721],[19.624589114980665,40.16301096883949],[19.624610412851915,40.16304728023973],[19.624552288352007,40.16306734768926]]]},"properties":{"AREA":0,"STRING":""}},
{"type":"Feature","geometry":{"type":"Polygon","coordinates":[[[19.623057405676708,40.16649988223372],[19.623065609824597,40.16646963814577],[19.623180931121986,40.166488049962496],[19.62317399718501,40.16651656746782],[19.623057405676708,40.16649988223372]]]},"properties":{"AREA":0,"STRING":""}},
{"type":"Feature","geometry":{"type":"Polygon","coordinates":[[[19.62423382764907,40.16304701591305],[19.624343965390192,40.162998481221805],[19.624347515595517,40.16299691674047],[19.624383367876394,40.16304561927303],[19.62439851398205,40.16303905620878],[19.624412813496114,40.16305848095709],[19.624368604895807,40.16307763728525],[19.624375004213455,40.16308633025092],[19.624332154237923,40.16310489783833],[19.624326329007758,40.16309698471834],[19.624285530043764,40.163116127346655],[19.62423382764907,40.16304701591305]]]},"properties":{"AREA":0,"STRING":""}},
{"type":"Feature","geometry":{"type":"Polygon","coordinates":[[[19.63373105877256,40.1532380696117],[19.63382565092469,40.153181044394096],[19.63384807920832,40.15320294975886],[19.633796109398084,40.15323427997253],[19.633803183398648,40.153241189043],[19.633760148418563,40.153266481063106],[19.63373105877256,40.1532380696117]]]},"properties":{"AREA":0,"STRING":""}},
{"type":"Feature","geometry":{"type":"Polygon","coordinates":[[[19.63382565092469,40.153181044394096],[19.63373105877256,40.1532380696117],[19.633694138721538,40.15320201026836],[19.633788730854057,40.15314498508045],[19.63382565092469,40.153181044394096]]]},"properties":{"AREA":0,"STRING":""}},
{"type":"Feature","geometry":{"type":"Polygon","coordinates":[[[19.625907507066362,40.15394306270068],[19.6259273360491,40.15396804470365],[19.62590569470557,40.153978158505225],[19.625913536249655,40.15398803785406],[19.625787301609925,40.15404703183954],[19.625775354352054,40.15403197977672],[19.625753561347366,40.15404258377679],[19.625738025000327,40.154023009887304],[19.625907507066362,40.15394306270068]]]},"properties":{"AREA":0,"STRING":""}},
{"type":"Feature","geometry":{"type":"Polygon","coordinates":[[[19.634609505062024,40.14658035923123],[19.634656753083526,40.14659508142701],[19.634655737610196,40.14659767925551],[19.63473983070018,40.146617037659794],[19.634734803280224,40.146628295214384],[19.634784329083537,40.146640246150575],[19.63476633721461,40.14668515272631],[19.634583042508886,40.14663948081059],[19.634609505062024,40.14658035923123]]]},"properties":{"AREA":0,"STRING":""}}
]}