{"type":"FeatureCollection", "features": [
{"type":"Feature","geometry":{"type":"Polygon","coordinates":[[[19.628360520817193,40.16247543553376],[19.62829838276953,40.1623455872338],[19.62854588273491,40.16227927657592],[19.628606326905242,40.162408467973016],[19.628360520817193,40.16247543553376]]]},"properties":{"AREA":0,"STRING":""}},
{"type":"Feature","geometry":{"type":"Polygon","coordinates":[[[19.62436812326232,40.162922240208765],[19.624631619578008,40.16282864962556],[19.62463538834213,40.16284748085162],[19.62464791710023,40.16288729043946],[19.624742471056834,40.1630016870689],[19.624486177839085,40.16309017225505],[19.62436812326232,40.162922240208765]]]},"properties":{"AREA":0,"STRING":""}},
{"type":"Feature","geometry":{"type":"Polygon","coordinates":[[[19.621599485955343,40.166328754330316],[19.621602476094704,40.166210590073604],[19.62158064760867,40.1661487460334],[19.621716054004388,40.166140235894396],[19.62173199301998,40.166211908828636],[19.62174764386689,40.166335505357786],[19.621599485955343,40.166328754330316]]]},"properties":{"AREA":0,"STRING":""}},
{"type":"Feature","geometry":{"type":"Polygon","coordinates":[[[19.623205255286916,40.16647769757671],[19.623188569458822,40.16647565909144],[19.623067346977113,40.16645828457876],[19.623011612502914,40.16645237586683],[19.623004022589086,40.166492242619064],[19.622799770707136,40.16646579576035],[19.622795976194734,40.16638098324694],[19.62294196122463,40.16637451507219],[19.622951174812346,40.16627453977269],[19.623093152927716,40.166284547784635],[19.623084990508012,40.16638484934413],[19.623264926775494,40.1664121274214],[19.62325693493679,40.16645060946138],[19.623212427973893,40.16644706113081],[19.623205255286916,40.16647769757671]]]},"properties":{"AREA":0,"STRING":""}},
{"type":"Feature","geometry":{"type":"Polygon","coordinates":[[[19.623205255286916,40.16647769757671],[19.623202443427697,40.16648922656439],[19.623195905723158,40.16648825470134],[19.623187554208968,40.166518507584826],[19.623004022589086,40.166492242619064],[19.623011612502914,40.16645237586683],[19.623067346977113,40.16645828457876],[19.623188569458822,40.16647565909144],[19.623205255286916,40.16647769757671]]]},"properties":{"AREA":0,"STRING":""}},
{"type":"Feature","geometry":{"type":"Polygon","coordinates":[[[19.61930128988559,40.1680891157561],[19.619169683474567,40.168006693749355],[19.61938153019154,40.16777775463598],[19.619580616582148,40.16787142768953],[19.619521259593707,40.16793025258567],[19.61930128988559,40.1680891157561]]]},"properties":{"AREA":0,"STRING":""}},
{"type":"Feature","geometry":{"type":"Polygon","coordinates":[[[19.622592877967843,40.1675882476359],[19.622541174185987,40.167510532503655],[19.622521060300414,40.16748400097805],[19.62259095911738,40.16741746886975],[19.622712227525327,40.16747280588432],[19.622690530758852,40.16755642507763],[19.62260443871432,40.167614918393774],[19.622592877967843,40.1675882476359]]]},"properties":{"AREA":0,"STRING":""}},
{"type":"Feature","geometry":{"type":"Polygon","coordinates":[[[19.633748970545458,40.15329470916923],[19.633637720770903,40.153184991878426],[19.633803531154264,40.1530865360628],[19.633895028574816,40.15318300351916],[19.63389494125117,40.15319926570027],[19.633748970545458,40.15329470916923]]]},"properties":{"AREA":0,"STRING":""}},
{"type":"Feature","geometry":{"type":"Polygon","coordinates":[[[19.628640579123424,40.155818613226714],[19.62859098604609,40.15573835614005],[19.62879258282325,40.155653982830074],[19.62887439690384,40.1557210444756],[19.628837636242842,40.1557412005129],[19.628798626124897,40.15576075333845],[19.628703488308506,40.15579304482828],[19.628705964553355,40.15579734012188],[19.628640579123424,40.155818613226714]]]},"properties":{"AREA":0,"STRING":""}},
{"type":"Feature","geometry":{"type":"Polygon","coordinates":[[[19.62578015755558,40.154093237105705],[19.625626942766274,40.15390617691204],[19.62587904666201,40.15385134154112],[19.625934431642712,40.153924113327285],[19.62597683838442,40.15390469318841],[19.6260312772295,40.1539655447157],[19.62599135365087,40.15399877981084],[19.62578015755558,40.154093237105705]]]},"properties":{"AREA":0,"STRING":""}},
{"type":"Feature","geometry":{"type":"Polygon","coordinates":[[[19.633958349207706,40.14594336848235],[19.63390685747925,40.14582934826377],[19.63410199329069,40.14576172463805],[19.63416191524839,40.14589317067809],[19.633958349207706,40.14594336848235]]]},"properties":{"AREA":0,"STRING":""}},
{"type":"Feature","geometry":{"type":"Polygon","coordinates":[[[19.62436812326232,40.162922240208765],[19.624486177839085,40.16309017225505],[19.624224240217746,40.1631616094337],[19.624117107967034,40.16300385731985],[19.62411953456891,40.162979253533926],[19.62436812326232,40.162922240208765]]]},"properties":{"AREA":0,"STRING":""}}
]}