{"type":"FeatureCollection", "features": [
{"type":"Feature","geometry":{"type":"Polygon","coordinates":[[[19.62155158900814,40.15359256514841],[19.621542861759636,40.15360633708158],[19.621557114527434,40.15361165459285],[19.621535553494155,40.153645679373426],[19.62147748668675,40.15362401384882],[19.621484160684282,40.15361348237702],[19.621438763038796,40.153596543416576],[19.621462378543363,40.15355927821253],[19.62155158900814,40.15359256514841]]]},"properties":{"OBJECTID":79907,"SIP":49.9353525162,"drejtoria":"VLORE","Shape_Leng":31.4001551791,"Shape_Area":49.9353525162}},
{"type":"Feature","geometry":{"type":"Polygon","coordinates":[[[19.631614814731805,40.1525334428588],[19.631589958027316,40.15254153475798],[19.631593167653353,40.15254733943672],[19.631576956966846,40.15255261637056],[19.631585438122826,40.152567957355394],[19.631547613550165,40.152580270799746],[19.6315391324194,40.152564928911566],[19.63149590349746,40.152579001005],[19.631454870942385,40.152504780775544],[19.631552135009468,40.15247311923987],[19.631565888828835,40.1524979974477],[19.631590745501928,40.15248990645413],[19.631614814731805,40.1525334428588]]]},"properties":{"OBJECTID":79914,"SIP":99.1005679648,"drejtoria":"VLORE","Shape_Leng":44.2001267138,"Shape_Area":99.1005679648}},
{"type":"Feature","geometry":{"type":"Polygon","coordinates":[[[19.62145892553372,40.15373878882891],[19.62145019824714,40.15375256075412],[19.621464451019417,40.15375787917778],[19.621442889910245,40.15379190303799],[19.621384823010366,40.15377023746586],[19.62139149703703,40.15375970600014],[19.62134609931925,40.15374276700252],[19.62136971490867,40.15370550272069],[19.62145892553372,40.15373878882891]]]},"properties":{"OBJECTID":79936,"SIP":49.9349001101,"drejtoria":"VLORE","Shape_Leng":31.3999739785,"Shape_Area":49.9349001101}},
{"type":"Feature","geometry":{"type":"Polygon","coordinates":[[[19.621505129359097,40.1536658795321],[19.62149640209151,40.1536796514613],[19.62151065485247,40.15368496987914],[19.621489092616414,40.15371899373515],[19.621431026936452,40.15369732820069],[19.62143770094859,40.15368679673196],[19.62139230326686,40.15366985775287],[19.62141591880489,40.15363259346031],[19.621505129359097,40.1536658795321]]]},"properties":{"OBJECTID":79937,"SIP":49.9348262647,"drejtoria":"VLORE","Shape_Leng":31.3999257105,"Shape_Area":49.9348262647}},
{"type":"Feature","geometry":{"type":"Polygon","coordinates":[[[19.621598049729304,40.153519250757434],[19.62158932249991,40.153533022694624],[19.621603575256326,40.15353834020006],[19.621582013096425,40.15357236497647],[19.621523947527404,40.153550698588994],[19.621530620318314,40.153540168000866],[19.62148522388288,40.15352322907305],[19.621508839335768,40.1534859638582],[19.621598049729304,40.153519250757434]]]},"properties":{"OBJECTID":79938,"SIP":49.9352069291,"drejtoria":"VLORE","Shape_Leng":31.3999257115,"Shape_Area":49.9352069291}},
{"type":"Feature","geometry":{"type":"Polygon","coordinates":[[[19.62164895254788,40.153468840862814],[19.62162573632331,40.15350221801965],[19.621568774012754,40.15347888909376],[19.6215759605217,40.15346855831542],[19.62153142752772,40.153450319760175],[19.62155685429791,40.15341376349737],[19.62164436807052,40.15344960496639],[19.62163497105767,40.15346311487586],[19.62164895254788,40.153468840862814]]]},"properties":{"OBJECTID":79939,"SIP":49.9351462554,"drejtoria":"VLORE","Shape_Leng":31.4000876378,"Shape_Area":49.9351462554}},
{"type":"Feature","geometry":{"type":"Polygon","coordinates":[[[19.63733159097376,40.14342903076847],[19.63750371095703,40.143364912164856],[19.63751960039641,40.14339003375781],[19.637393942348055,40.14343684487936],[19.637408294372147,40.14345953574474],[19.637349161876184,40.14348156357475],[19.63733159097376,40.14342903076847]]]},"properties":{"OBJECTID":51423,"SIP":66.3899727891,"drejtoria":"","Shape_Leng":45.7207456396,"Shape_Area":66.3899727891}},
{"type":"Feature","geometry":{"type":"Polygon","coordinates":[[[19.623038195759857,40.166099937928436],[19.623150569314383,40.16612605313664],[19.62310154983465,40.16625019751188],[19.62298917609686,40.16622408225349],[19.623038195759857,40.166099937928436]]]},"properties":{"OBJECTID":64172,"SIP":143.999647066,"drejtoria":"Vlore","Shape_Leng":48.7999529695,"Shape_Area":143.999647066}},
{"type":"Feature","geometry":{"type":"Polygon","coordinates":[[[19.62152802845764,40.15505325988738],[19.621469436499435,40.155064701112636],[19.621462487957324,40.155043749656556],[19.621440302320256,40.15504808193287],[19.62141525816164,40.15497256930414],[19.62166555428087,40.15492369392975],[19.621690598701935,40.15499920650929],[19.621669550612168,40.15500331633383],[19.62167649921453,40.155024267778664],[19.62152802845764,40.15505325988738]]]},"properties":{"OBJECTID":75034,"SIP":233.979360174,"drejtoria":"VLORE","Shape_Leng":66.0999945853,"Shape_Area":233.979360174}},
{"type":"Feature","geometry":{"type":"Polygon","coordinates":[[[19.623332504203297,40.154605205874724],[19.623391565206116,40.15462736247961],[19.623398269314876,40.15461684206717],[19.623440455950437,40.154632667294216],[19.623418799947288,40.15466665705914],[19.623429346911188,40.15467061314388],[19.623408206246747,40.15470379280795],[19.623397659279053,40.154699836721235],[19.623376003250677,40.15473382557636],[19.623333816568813,40.154718000325296],[19.62334051952188,40.15470747990271],[19.62328145729389,40.154685323257226],[19.623332504203297,40.154605205874724]]]},"properties":{"OBJECTID":75040,"SIP":109.540231929,"drejtoria":"VLORE","Shape_Leng":46.1999824885,"Shape_Area":109.540231929}},
{"type":"Feature","geometry":{"type":"Polygon","coordinates":[[[19.62790431988777,40.14523164803797],[19.62790383125581,40.14518300643136],[19.62812684760693,40.14518168697321],[19.62812733637992,40.14523032948226],[19.62790431988777,40.14523164803797]]]},"properties":{"OBJECTID":75042,"SIP":102.59988613,"drejtoria":"VLORE","Shape_Leng":48.7999731737,"Shape_Area":102.59988613}},
{"type":"Feature","geometry":{"type":"Polygon","coordinates":[[[19.623020148719156,40.16286008564511],[19.623096903367003,40.16280436373035],[19.623184057419937,40.16287502896838],[19.623107302760474,40.16293075094012],[19.623020148719156,40.16286008564511]]]},"properties":{"OBJECTID":75043,"SIP":97.2001809065,"drejtoria":"VLORE","Shape_Leng":39.6000367944,"Shape_Area":97.2001809065}},
{"type":"Feature","geometry":{"type":"Polygon","coordinates":[[[19.63606113784214,40.145759166038346],[19.636033568988072,40.14571636676845],[19.636020942366656,40.14572115682603],[19.636002736207455,40.14569289328391],[19.636015363998485,40.14568810324206],[19.635987794027262,40.145645303947866],[19.63610354379228,40.14560139303223],[19.636176887757376,40.14571525505263],[19.63606113784214,40.145759166038346]]]},"properties":{"OBJECTID":75045,"SIP":159.30050946,"drejtoria":"VLORE","Shape_Leng":52.6001747952,"Shape_Area":159.30050946}},
{"type":"Feature","geometry":{"type":"Polygon","coordinates":[[[19.63885435342189,40.14266027958237],[19.63878510698827,40.14258754457138],[19.638989819733517,40.14247275568701],[19.63904660130812,40.14253239791591],[19.63904138838255,40.142535320469285],[19.63905385334977,40.14254841313259],[19.63885435342189,40.14266027958237]]]},"properties":{"OBJECTID":75048,"SIP":215.009669791,"drejtoria":"VLORE","Shape_Leng":63.2000097656,"Shape_Area":215.009669791}},
{"type":"Feature","geometry":{"type":"Polygon","coordinates":[[[19.63554397851221,40.146419672126754],[19.63554712839927,40.14639637558045],[19.635627106592995,40.14640274520683],[19.635616564723755,40.14648069687151],[19.63558387248501,40.14647809355597],[19.63558072262394,40.146501389202406],[19.635424853144244,40.146488975479826],[19.63543539523374,40.146411023836386],[19.63554397851221,40.146419672126754]]]},"properties":{"OBJECTID":75052,"SIP":151.035093538,"drejtoria":"VLORE","Shape_Leng":54.90019376,"Shape_Area":151.035093538}},
{"type":"Feature","geometry":{"type":"Polygon","coordinates":[[[19.63408625328488,40.151137334683455],[19.633971746277936,40.15112882321338],[19.633967784330586,40.151160204817096],[19.633932731316296,40.15115759839718],[19.633936126774284,40.15113070026104],[19.63389523218549,40.151127660033296],[19.633911078864823,40.15100213541511],[19.634086343634248,40.15101516383262],[19.63408068464627,40.15105999406938],[19.63409587414453,40.15106112373839],[19.63408625328488,40.151137334683455]]]},"properties":{"OBJECTID":75054,"SIP":225.798563694,"drejtoria":"VLORE","Shape_Leng":66.5996275932,"Shape_Area":225.798563694}},
{"type":"Feature","geometry":{"type":"Polygon","coordinates":[[[19.6257471147923,40.15583994763491],[19.625761694848933,40.15573967984878],[19.62589295413267,40.155750917255034],[19.62587837426581,40.15585118506072],[19.6257471147923,40.15583994763491]]]},"properties":{"OBJECTID":75055,"SIP":126.000129924,"drejtoria":"VLORE","Shape_Leng":44.9000232862,"Shape_Area":126.000129924}},
{"type":"Feature","geometry":{"type":"Polygon","coordinates":[[[19.636580309756834,40.14496649820292],[19.636558850938343,40.14498359890817],[19.63654830161802,40.144984023333095],[19.63654910085257,40.14499571760096],[19.63649459423232,40.14499791177816],[19.636493795007112,40.14498621751008],[19.63648324451247,40.14498664191522],[19.63645957354341,40.14497135751727],[19.636362281025704,40.144975273889514],[19.63635797820049,40.144912303370944],[19.636404865592446,40.14491041682518],[19.636404128234467,40.1448996214964],[19.636451015634954,40.14489773403106],[19.636450278251726,40.144886939603126],[19.636578047203535,40.144881796443826],[19.636578784588973,40.144892591772],[19.63662567198178,40.14489070423576],[19.6366264105665,40.14490149867686],[19.636673297946665,40.14489961202212],[19.636677601080986,40.1449625816332],[19.636580309756834,40.14496649820292]]]},"properties":{"OBJECTID":75058,"SIP":245.180383954,"drejtoria":"VLORE","Shape_Leng":76.6208240811,"Shape_Area":245.180383954}},
{"type":"Feature","geometry":{"type":"Polygon","coordinates":[[[19.634001736204056,40.1468983600837],[19.634022050800787,40.14690069799084],[19.634051647156664,40.14674925403165],[19.63414973890029,40.146760543854846],[19.63410604175645,40.146984145932834],[19.633987633909094,40.14697051814399],[19.634001736204056,40.1468983600837]]]},"properties":{"OBJECTID":75059,"SIP":226.270239668,"drejtoria":"VLORE","Shape_Leng":70.6000070941,"Shape_Area":226.270239668}},
{"type":"Feature","geometry":{"type":"Polygon","coordinates":[[[19.634001736204056,40.1468983600837],[19.633987633909094,40.14697051814399],[19.633985718883146,40.14698031730987],[19.633723365975015,40.146950123032504],[19.633737293382364,40.14687885574712],[19.633754706705353,40.146880860360575],[19.633762192955803,40.146842553564966],[19.633846935778745,40.146852306821174],[19.63384327968003,40.146871014395636],[19.634003477240622,40.14688945167002],[19.634001736204056,40.1468983600837]]]},"properties":{"OBJECTID":75060,"SIP":242.54913506,"drejtoria":"VLORE","Shape_Leng":69.7999866814,"Shape_Area":242.54913506}},
{"type":"Feature","geometry":{"type":"Polygon","coordinates":[[[19.626954240800675,40.16544381673688],[19.62688077702154,40.16534271098741],[19.626961899925025,40.165308017845305],[19.627026324809325,40.16539649909291],[19.62698660524766,40.165413061525825],[19.62699598149953,40.16542596475905],[19.626954240800675,40.16544381673688]]]},"properties":{"OBJECTID":75339,"SIP":95.4807353379,"drejtoria":"VLORE","Shape_Leng":41.571387368,"Shape_Area":95.4807353379}},
{"type":"Feature","geometry":{"type":"Polygon","coordinates":[[[19.63733159097376,40.14342903076847],[19.637314908528356,40.143393427588066],[19.63737211234371,40.14337250952553],[19.63736826830717,40.14336643176187],[19.63748125460675,40.14332434098706],[19.637510046786545,40.14336255155286],[19.63733159097376,40.14342903076847]]]},"properties":{"OBJECTID":75385,"SIP":76.5314971794,"drejtoria":"VLORE","Shape_Leng":42.8486016228,"Shape_Area":76.5314971794}},
{"type":"Feature","geometry":{"type":"Polygon","coordinates":[[[19.638576120824396,40.14313191005898],[19.63850149809188,40.1431677529439],[19.638464135102474,40.14312193811508],[19.63853875780314,40.14308609525345],[19.638576120824396,40.14313191005898]]]},"properties":{"OBJECTID":75386,"SIP":44.9997134129,"drejtoria":"VLORE","Shape_Leng":26.9999251356,"Shape_Area":44.9997134129}},
{"type":"Feature","geometry":{"type":"Polygon","coordinates":[[[19.638279748597995,40.143158871138354],[19.638278731235733,40.14315932044113],[19.63820860507039,40.14306580596327],[19.63822590021049,40.143058167825124],[19.638215946387568,40.14304489469655],[19.638317680103306,40.14299996259781],[19.638239226241758,40.14289534282163],[19.638293143895737,40.14287152884829],[19.638428258691757,40.143051706153145],[19.63843537903561,40.14304856101024],[19.63845879833461,40.14307979093759],[19.638279748597995,40.143158871138354]]]},"properties":{"OBJECTID":75387,"SIP":303.448326852,"drejtoria":"VLORE","Shape_Leng":89.5551496205,"Shape_Area":303.448326852}},
{"type":"Feature","geometry":{"type":"Polygon","coordinates":[[[19.638417995564307,40.143131939824414],[19.638403956122488,40.14311063025603],[19.638435381009998,40.143098436561026],[19.638481198988597,40.14316797911022],[19.638275890958226,40.143247646925175],[19.638244112558247,40.14319941298609],[19.638417995564307,40.143131939824414]]]},"properties":{"OBJECTID":75388,"SIP":125.553102916,"drejtoria":"VLORE","Shape_Leng":56.5016339693,"Shape_Area":125.553102916}},
{"type":"Feature","geometry":{"type":"Polygon","coordinates":[[[19.61072806193314,40.157511427230965],[19.61059200968946,40.15756449236708],[19.61055477005074,40.15750828176809],[19.610805943998486,40.157410315669445],[19.61083254334685,40.15745046590855],[19.610717422679105,40.157495366952354],[19.61072806193314,40.157511427230965]]]},"properties":{"OBJECTID":75389,"SIP":145.999418055,"drejtoria":"VLORE","Shape_Leng":61.9998623155,"Shape_Area":145.999418055}},
{"type":"Feature","geometry":{"type":"Polygon","coordinates":[[[19.62639856228818,40.15349117578939],[19.62638233929192,40.1534934202761],[19.626317613263076,40.15346596367661],[19.626307387692716,40.153458527840456],[19.626335883370192,40.1534181239973],[19.626317474411966,40.15341016403218],[19.626333612415177,40.15338819037054],[19.626352022525154,40.1533961512477],[19.626354904171112,40.15339222592927],[19.62639856228818,40.15349117578939]]]},"properties":{"OBJECTID":75390,"SIP":45.5209399873,"drejtoria":"VLORE","Shape_Leng":32.5014738524,"Shape_Area":45.5209399873}},
{"type":"Feature","geometry":{"type":"Polygon","coordinates":[[[19.624485913163433,40.163097608724165],[19.624226472497917,40.16316913742549],[19.624158375406882,40.16306216752923],[19.624122487887487,40.16300488183996],[19.624126960262288,40.16298355548315],[19.62436941045036,40.16292829555558],[19.624485913163433,40.163097608724165]],[[19.624289741691705,40.163121077964576],[19.624330451790286,40.163103111086144],[19.624335720900195,40.16311013773899],[19.62437948306169,40.16309082331239],[19.624374213948656,40.163083796661475],[19.62441695833145,40.16306493139272],[19.624401151044133,40.16304384874213],[19.62438588477982,40.16305058633298],[19.624349879326452,40.16300256517803],[19.62434733553701,40.163003688115865],[19.62431220830562,40.16295683865885],[19.62420280185395,40.16300512461976],[19.624289741691705,40.163121077964576]]]},"properties":{"OBJECTID":75392,"SIP":330.245633301,"drejtoria":"VLORE","Shape_Leng":145.445307089,"Shape_Area":330.245633301}},
{"type":"Feature","geometry":{"type":"Polygon","coordinates":[[[19.624555098813122,40.163072895342424],[19.62449117232569,40.16296754998188],[19.624614643826973,40.162923446208985],[19.624656766442712,40.162992860909206],[19.624590773255722,40.16301643298991],[19.62461257723467,40.163052364497865],[19.624555098813122,40.163072895342424]]]},"properties":{"OBJECTID":75393,"SIP":122.360627972,"drejtoria":"VLORE","Shape_Leng":49.0000194293,"Shape_Area":122.360627972}},
{"type":"Feature","geometry":{"type":"Polygon","coordinates":[[[19.624289741691705,40.163121077964576],[19.62420280185395,40.16300512461976],[19.62431220830562,40.16295683865885],[19.62434733553701,40.163003688115865],[19.624349879326452,40.16300256517803],[19.62438588477982,40.16305058633298],[19.624401151044133,40.16304384874213],[19.62441695833145,40.16306493139272],[19.624374213948656,40.163083796661475],[19.62437948306169,40.16309082331239],[19.624335720900195,40.16311013773899],[19.624330451790286,40.163103111086144],[19.624289741691705,40.163121077964576]]]},"properties":{"OBJECTID":75394,"SIP":169.770448679,"drejtoria":"VLORE","Shape_Leng":56.4999331593,"Shape_Area":169.770448679}},
{"type":"Feature","geometry":{"type":"Polygon","coordinates":[[[19.628399237654822,40.16244099786545],[19.628372461274612,40.16238138175368],[19.628548957793516,40.162334719079794],[19.628575734312133,40.16239433515348],[19.628399237654822,40.16244099786545]]]},"properties":{"OBJECTID":75395,"SIP":111.300139477,"drejtoria":"VLORE","Shape_Leng":45.7999768856,"Shape_Area":111.300139477}},
{"type":"Feature","geometry":{"type":"Polygon","coordinates":[[[19.623181800599358,40.16651497719988],[19.623064922640914,40.166499567111764],[19.623071784256506,40.166468938503414],[19.623188662164363,40.16648434858383],[19.623181800599358,40.16651497719988]]]},"properties":{"OBJECTID":75396,"SIP":34.845054643,"drejtoria":"VLORE","Shape_Leng":27.1000227373,"Shape_Area":34.845054643}},
{"type":"Feature","geometry":{"type":"Polygon","coordinates":[[[19.623198949919693,40.16647565102862],[19.623073972074273,40.166459172534296],[19.623087993457233,40.16639658371297],[19.62321297236611,40.166413062204406],[19.623198949919693,40.16647565102862]]]},"properties":{"OBJECTID":75397,"SIP":76.1401951267,"drejtoria":"VLORE","Shape_Leng":35.7000533972,"Shape_Area":76.1401951267}},
{"type":"Feature","geometry":{"type":"Polygon","coordinates":[[[19.625852125471667,40.16502718767484],[19.62584317305025,40.164995494586236],[19.62579842004348,40.16500293550651],[19.625792949784614,40.16498356766352],[19.625837702779137,40.16497612674514],[19.625827506336364,40.164940031454265],[19.626011108506496,40.16490950587731],[19.626022050296946,40.164948242459346],[19.62611958821596,40.16493202510337],[19.62613202178096,40.16497604339927],[19.626076941569277,40.16498520152591],[19.62607072480199,40.16496319237549],[19.626028267047214,40.16497025161214],[19.62603572786788,40.16499666206301],[19.625852125471667,40.16502718767484]]]},"properties":{"OBJECTID":75398,"SIP":200.229825303,"drejtoria":"VLORE","Shape_Leng":81.6000881506,"Shape_Area":200.229825303}},
{"type":"Feature","geometry":{"type":"Polygon","coordinates":[[[19.623754019186592,40.15485265279788],[19.62377400560496,40.15482255398199],[19.62378812673085,40.15482807416162],[19.623827297917508,40.15476908141395],[19.623945499687128,40.15481529145786],[19.62387968083853,40.154914416640835],[19.623820056831292,40.15489110673096],[19.623826718178424,40.15488107407985],[19.623754019186592,40.15485265279788]]]},"properties":{"OBJECTID":75399,"SIP":137.618318116,"drejtoria":"VLORE","Shape_Leng":50.0000042108,"Shape_Area":137.618318116}},
{"type":"Feature","geometry":{"type":"Polygon","coordinates":[[[19.639381985086413,40.14291928158628],[19.639317830524146,40.142836942620335],[19.639483549077724,40.14276089428659],[19.63954770377373,40.14284323316387],[19.639381985086413,40.14291928158628]]]},"properties":{"OBJECTID":75402,"SIP":175.193635078,"drejtoria":"VLORE","Shape_Leng":54.2001600478,"Shape_Area":175.193635078}},
{"type":"Feature","geometry":{"type":"Polygon","coordinates":[[[19.620426537740446,40.15719802226441],[19.620459868896205,40.157176649829744],[19.62045723376189,40.15717423011317],[19.62054281406438,40.15711935373517],[19.620545449217953,40.157121772549125],[19.62057878029943,40.15710040007872],[19.620656323423603,40.15717159417084],[19.62060047100634,40.157207408403636],[19.62061816315668,40.157223651820885],[19.620577625476084,40.15724964569567],[19.620559933328998,40.157233402272354],[19.620504080810825,40.15726921645655],[19.620426537740446,40.15719802226441]]]},"properties":{"OBJECTID":75403,"SIP":187.969253689,"drejtoria":"VLORE","Shape_Leng":59.7998578926,"Shape_Area":187.969253689}},
{"type":"Feature","geometry":{"type":"Polygon","coordinates":[[[19.63103461577113,40.15676998439438],[19.630999439546276,40.156771328819836],[19.63099827104038,40.15675333550121],[19.630963094823713,40.15675467991574],[19.63095958937292,40.156700698157515],[19.63105925681559,40.15669688837488],[19.631101872754634,40.156719611475246],[19.631106137925705,40.15678528884322],[19.631059234705617,40.156787082018894],[19.63103461577113,40.15676998439438]]]},"properties":{"OBJECTID":75404,"SIP":95.2756676255,"drejtoria":"VLORE","Shape_Leng":41.0489025128,"Shape_Area":95.2756676255}},
{"type":"Feature","geometry":{"type":"Polygon","coordinates":[[[19.63490523725991,40.14665238219759],[19.634932716442044,40.146645871859796],[19.634936697608318,40.14665577029112],[19.63501520953459,40.146637169544334],[19.635029753330574,40.1466733199019],[19.6350751784272,40.14666255797668],[19.635089721086544,40.14669870831335],[19.634840724964594,40.146757699626],[19.634826182426476,40.146721549260405],[19.634845250146398,40.146717031682684],[19.634830706440233,40.146680881303645],[19.63490921842251,40.146662280629805],[19.63490523725991,40.14665238219759]]]},"properties":{"OBJECTID":75457,"SIP":165.147955715,"drejtoria":"VLORE","Shape_Leng":63.5001318646,"Shape_Area":165.147955715}},
{"type":"Feature","geometry":{"type":"Polygon","coordinates":[[[19.63480269145699,40.14665147217489],[19.63478378966712,40.146696485071935],[19.63460167750013,40.14665144771833],[19.634626160081446,40.14659314552067],[19.63467587805705,40.14660544101229],[19.634674618175847,40.14660844151327],[19.63475841216722,40.146629164149964],[19.634754091382757,40.14663945298659],[19.63480269145699,40.14665147217489]]]},"properties":{"OBJECTID":75458,"SIP":101.472813828,"drejtoria":"VLORE","Shape_Leng":46.1999901634,"Shape_Area":101.472813828}},
{"type":"Feature","geometry":{"type":"Polygon","coordinates":[[[19.63400185120598,40.14591326363477],[19.63400589361845,40.14592267452577],[19.633958513198618,40.14593465892751],[19.633936099539852,40.14588247120615],[19.63397846283915,40.14587175556541],[19.63396266231064,40.14583496771522],[19.63405407787465,40.14581184501872],[19.634088250949766,40.145891409680225],[19.63400185120598,40.14591326363477]]]},"properties":{"OBJECTID":75459,"SIP":99.9351903741,"drejtoria":"VLORE","Shape_Leng":44.800120208,"Shape_Area":99.9351903741}},
{"type":"Feature","geometry":{"type":"Polygon","coordinates":[[[19.600855525578567,40.159745559504884],[19.60074319205393,40.159581060593],[19.600727938497432,40.15952957302592],[19.60083963802663,40.159522254516425],[19.600966065948928,40.159652071075726],[19.600947496126835,40.15966305127454],[19.600921833892894,40.15967753408041],[19.600932703956516,40.15969895574327],[19.600917325794793,40.159706722224826],[19.600923024962214,40.15972029573584],[19.600855525578567,40.159745559504884]]]},"properties":{"OBJECTID":75460,"SIP":266.16727526,"drejtoria":"VLORE","Shape_Leng":70.827067914,"Shape_Area":266.16727526}},
{"type":"Feature","geometry":{"type":"Polygon","coordinates":[[[19.62265824987762,40.15625884392402],[19.6226218270033,40.15625094203394],[19.622626621178753,40.15623774396068],[19.62259191148984,40.15623001109406],[19.62260984413008,40.15618155090147],[19.622656601542584,40.156191784782266],[19.622660457966777,40.15618141432319],[19.62263219123802,40.15617522750786],[19.622637514803372,40.1561623267267],[19.622603942276733,40.156154798386204],[19.62262238635046,40.15610595418105],[19.62269425998727,40.15612128241459],[19.622700828152087,40.15610315042902],[19.622757164507547,40.156115165814356],[19.622733133643838,40.15618093657232],[19.62274854995711,40.15618425244062],[19.62272695683068,40.15624321157513],[19.622716636120803,40.15624083201054],[19.62270561590749,40.15626911835971],[19.62265824987762,40.15625884392402]]]},"properties":{"OBJECTID":75464,"SIP":172.758189733,"drejtoria":"VLORE","Shape_Leng":68.9429388518,"Shape_Area":172.758189733}},
{"type":"Feature","geometry":{"type":"Polygon","coordinates":[[[19.621889386891553,40.15676475690149],[19.621786894582836,40.15665890405357],[19.621907546285865,40.15659013228257],[19.621899002139767,40.15657944306446],[19.621955610404793,40.15655275982186],[19.621983264079233,40.15658729929714],[19.6220012696961,40.156578812613475],[19.62201110142746,40.15659109284404],[19.622067126185335,40.156564696298595],[19.62211996798186,40.15663069716078],[19.621992326971817,40.15669086243747],[19.622007075168927,40.156709283241526],[19.621968863650668,40.15672729529421],[19.621957186926284,40.15671271199116],[19.621910343034187,40.156734791590054],[19.62192161431294,40.15674950881189],[19.621889386891553,40.15676475690149]]]},"properties":{"OBJECTID":75467,"SIP":325.250756609,"drejtoria":"VLORE","Shape_Leng":87.2741258657,"Shape_Area":325.250756609}},
{"type":"Feature","geometry":{"type":"Polygon","coordinates":[[[19.626419177360972,40.15361724267437],[19.62656729692511,40.1535625938242],[19.626558141092378,40.153547981421255],[19.626574010647964,40.15354212636553],[19.626611147123292,40.1536013901735],[19.626507462595093,40.153639644417694],[19.626512927126683,40.15364959315458],[19.626453245830277,40.15367161241315],[19.626419177360972,40.15361724267437]]]},"properties":{"OBJECTID":75472,"SIP":94.7388152243,"drejtoria":"VLORE","Shape_Leng":47.9363591746,"Shape_Area":94.7388152243}},
{"type":"Feature","geometry":{"type":"Polygon","coordinates":[[[19.62630008054555,40.15350331197049],[19.62619774734599,40.153603144904],[19.626171911095156,40.15358755164125],[19.62616429051409,40.153594986530045],[19.626136608745067,40.153578279453775],[19.626144229309027,40.1535708454675],[19.626128081226074,40.15356109966645],[19.626120460661504,40.15356853365167],[19.62605725457266,40.15353038580129],[19.626167207232932,40.15342311899013],[19.62619488894772,40.1534398260586],[19.626202509507685,40.15343239116725],[19.626220963599824,40.15344352920345],[19.626213343040558,40.153450964096024],[19.62630008054555,40.15350331197049]]]},"properties":{"OBJECTID":75473,"SIP":215.48237932,"drejtoria":"VLORE","Shape_Leng":63.3001079158,"Shape_Area":215.48237932}},
{"type":"Feature","geometry":{"type":"Polygon","coordinates":[[[19.623087760108962,40.155389415616234],[19.62305761018258,40.15538352903425],[19.623065136897797,40.15536083179416],[19.62300256238889,40.155348614433606],[19.62302933981422,40.155267863482464],[19.623056077076015,40.15527308334913],[19.623065485466956,40.15524471112275],[19.62313147252245,40.155257594267205],[19.623087760108962,40.155389415616234]]]},"properties":{"OBJECTID":75474,"SIP":101.127019702,"drejtoria":"VLORE","Shape_Leng":46.4998963429,"Shape_Area":101.127019702}},
{"type":"Feature","geometry":{"type":"Polygon","coordinates":[[[19.63864354137933,40.14305120879228],[19.63860154997285,40.1430072585333],[19.63864812091108,40.14298105166742],[19.638690113524014,40.143025001023034],[19.63864354137933,40.14305120879228]]]},"properties":{"OBJECTID":75475,"SIP":29.7661799412,"drejtoria":"VLORE","Shape_Leng":21.9400639012,"Shape_Area":29.7661799412}},
{"type":"Feature","geometry":{"type":"Polygon","coordinates":[[[19.62399334569841,40.15396758491301],[19.623960013066764,40.15396037423729],[19.623968104511917,40.15393835211988],[19.62388381325171,40.15392011758864],[19.623906431530912,40.15385856045061],[19.623906096305102,40.15385766005862],[19.623905802344595,40.15385675114801],[19.623905549612996,40.153855835520176],[19.623905339284157,40.153854913189036],[19.623905170147868,40.153853985942035],[19.62390504455176,40.153853053807104],[19.62390496007548,40.15385212035911],[19.623904919084833,40.15385118472525],[19.623904920387815,40.15385024779226],[19.623904965103694,40.15384931227623],[19.62390505088485,40.153848378149206],[19.623905180042527,40.15384744724048],[19.623905351384725,40.15384652043684],[19.62390556489329,40.15384559863896],[19.62390581937618,40.15384468273356],[19.623906115970883,40.153843774536014],[19.623906454659174,40.153842874947],[19.623906833075278,40.153841984839325],[19.623907251201,40.15384110511367],[19.62390771017377,40.15384023758538],[19.623908207645986,40.15383938222657],[19.623908744736898,40.15383854175324],[19.623909319117054,40.15383771523683],[19.623909929576296,40.15383690446476],[19.62391057842586,40.15383611126634],[19.623911262144322,40.15383533559967],[19.62391198069531,40.15383457926619],[19.62391273290501,40.15383384225193],[19.623913518755245,40.153833125457574],[19.623914335862022,40.15383243065662],[19.623915185399152,40.15383175786302],[19.623916063808824,40.15383110883632],[19.623916972283045,40.15383048268975],[19.623917908419646,40.153829882097504],[19.6239188710448,40.153829307045626],[19.623919858984706,40.153828757520195],[19.62392087220298,40.15382823532255],[19.623921907178214,40.153827740410854],[19.623922965084194,40.153827272799084],[19.623924043518777,40.1538268351614],[19.623925141344486,40.15382642568244],[19.623926256177352,40.15382604613573],[19.62392738919118,40.153825696535215],[19.623928535672544,40.15382537772573],[19.623929696795248,40.15382508972131],[19.623930870193504,40.15382483339468],[19.623932054711666,40.15382460783123],[19.623933249139565,40.153824414818374],[19.623934451147758,40.153824253427544],[19.62393565954426,40.15382412454546],[19.623936873155245,40.15382402815815],[19.62393809078873,40.153823965152405],[19.623939310133455,40.1538239336989],[19.62394053115306,40.15382393559902],[19.62394175034428,40.153823969910256],[19.623942967707137,40.15382403663254],[19.623944180893986,40.15382413573803],[19.623945388712844,40.15382426811345],[19.623946590026264,40.15382443194346],[19.62394778364225,40.15382462811478],[19.623948967213177,40.15382485659955],[19.62395013960161,40.15382511558236],[19.62395129959737,40.15382540685075],[19.623952444889188,40.15382572857533],[19.623953575477074,40.15382608075615],[19.6239546890134,40.153826463365284],[19.62395578551635,40.15382687550207],[19.623956861482664,40.153827316223925],[19.62395791689418,40.15382778643154],[19.623958950631607,40.15382828340892],[19.62395996148479,40.15382880894346],[19.62396094716064,40.1538293603052],[19.624000719681895,40.153837964654386],[19.624003013065835,40.153831722465554],[19.624041430744835,40.15384003321712],[19.624039041707977,40.15384653553439],[19.624093163611008,40.15385824376331],[19.624090774578367,40.15386474608169],[19.62410772377679,40.15386841242216],[19.624093834367002,40.15390621448738],[19.624108636133112,40.15390941656231],[19.62408844051085,40.153964384433166],[19.6240529615999,40.15395670953233],[19.624050030904968,40.15396468561051],[19.623998506415198,40.15395353977061],[19.62399334569841,40.15396758491301]]]},"properties":{"OBJECTID":75476,"SIP":214.665988666,"drejtoria":"VLORE","Shape_Leng":65.2139294748,"Shape_Area":214.665988666}},
{"type":"Feature","geometry":{"type":"Polygon","coordinates":[[[19.623919402878,40.154197866539064],[19.62393911255234,40.15413644689993],[19.623938733350165,40.15413568923038],[19.62393838838873,40.15413492205779],[19.623938079997494,40.15413414631074],[19.623937805810616,40.154133362862034],[19.623937566983738,40.15413257262634],[19.623937364672503,40.154131776518234],[19.623937198876906,40.1541309745378],[19.623937069542396,40.15413016938709],[19.623936976668972,40.15412936106609],[19.623936920220252,40.15412855137623],[19.623936901370083,40.15412774033143],[19.62393691892644,40.15412692881845],[19.623936972852967,40.15412611863866],[19.623937063131468,40.15412531069278],[19.623937190935784,40.154124504994755],[19.62393735505571,40.15412370333203],[19.623937555473056,40.15412290660528],[19.623937792169666,40.15412211571521],[19.623938063935324,40.15412133244927],[19.62393837078824,40.154120555906765],[19.623938713865837,40.15411978790301],[19.623939090784148,40.15411903021154],[19.623939502716954,40.154118282846255],[19.62393994729846,40.15411754667999],[19.62394042566611,40.15411682352804],[19.623940935490452,40.15411611246184],[19.62394147789075,40.154115416197456],[19.623942051693195,40.154114734720885],[19.623942656879596,40.154114068932834],[19.623943291084146,40.154113419706114],[19.623943954288645,40.15411278794138],[19.623944645301098,40.15411217452543],[19.623945364121518,40.154111579458224],[19.623946110713526,40.15411100454117],[19.623946881555675,40.15411044973241],[19.62394767782178,40.154109915045886],[19.623948497109666,40.154109403155786],[19.623949339455685,40.15410891226072],[19.623950203631484,40.15410844504882],[19.623951088481423,40.15410800060547],[19.623951992795323,40.15410758071804],[19.623952915417547,40.15410718447195],[19.623953856311733,40.154106813668555],[19.623954813130254,40.15410646827995],[19.62395578469928,40.15410614829222],[19.623956769826815,40.15410585459206],[19.623957768494684,40.15410558808017],[19.623958778373424,40.154105347828],[19.62395979828924,40.15410513382155],[19.62396082818756,40.15410494876293],[19.623961864601508,40.15410478990817],[19.623962908650334,40.15410465997336],[19.62396395684895,40.154104557115204],[19.623965010334835,40.15410448314907],[19.623966065604687,40.154104437132396],[19.62396712265854,40.154104419065185],[19.62396818032255,40.15410442893349],[19.623969236230916,40.154104467610104],[19.62397029040182,40.15410453419432],[19.623971340469453,40.15410462955893],[19.62397238529634,40.15410475188863],[19.623973424846145,40.15410490298476],[19.62397445563377,40.15410508100408],[19.62397547881484,40.15410528686129],[19.62397649086793,40.15410552051447],[19.623977493003203,40.15410578017623],[19.62397848168102,40.15410606670538],[19.62399375715471,40.15410895279978],[19.62400121686511,40.15408344475113],[19.624162856199625,40.154113984151515],[19.624151994705997,40.15414783386857],[19.624142988484117,40.154146132223445],[19.624132744627623,40.15417805862422],[19.624144142768266,40.15418021212473],[19.62412595548281,40.15423689127485],[19.62409004869172,40.15423010680645],[19.62408746642317,40.15423815459448],[19.624032407948174,40.15422775146324],[19.62403499020458,40.15421970457721],[19.623919402878,40.154197866539064]]]},"properties":{"OBJECTID":75477,"SIP":243.140668796,"drejtoria":"VLORE","Shape_Leng":67.2286311101,"Shape_Area":243.140668796}},
{"type":"Feature","geometry":{"type":"Polygon","coordinates":[[[19.640770390826315,40.14153845166406],[19.64068399795594,40.14144632879279],[19.640799269753202,40.14138265673244],[19.640885662703468,40.14147477951994],[19.640770390826315,40.14153845166406]]]},"properties":{"OBJECTID":75478,"SIP":152.460672831,"drejtoria":"VLORE","Shape_Leng":49.4001099556,"Shape_Area":152.460672831}},
{"type":"Feature","geometry":{"type":"Polygon","coordinates":[[[19.62523960513645,40.154404006550045],[19.625194157391306,40.154348787811806],[19.625328157050454,40.15428385294634],[19.625312485212053,40.154264811671645],[19.62542812185735,40.15420877497214],[19.625479838467925,40.154271609582736],[19.625393482374484,40.15431345687911],[19.62540288550399,40.154324881277546],[19.62523960513645,40.154404006550045]]]},"properties":{"OBJECTID":75479,"SIP":198.412625734,"drejtoria":"VLORE","Shape_Leng":69.8001563081,"Shape_Area":198.412625734}},
{"type":"Feature","geometry":{"type":"Polygon","coordinates":[[[19.64094720775999,40.1414683225662],[19.640896148644817,40.141412184518465],[19.64097940166658,40.14136758537108],[19.641030460818964,40.14142372338309],[19.64094720775999,40.1414683225662]]]},"properties":{"OBJECTID":75480,"SIP":65.7403056878,"drejtoria":"VLORE","Shape_Leng":32.5000684091,"Shape_Area":65.7403056878}},
{"type":"Feature","geometry":{"type":"Polygon","coordinates":[[[19.607626464362266,40.157531934622185],[19.607581147116314,40.157489897248986],[19.6077994313523,40.15734939121556],[19.607778037343078,40.15731558042982],[19.608056221792392,40.15721194957305],[19.60809521624873,40.15727382717111],[19.607833759072467,40.15737122677104],[19.60784499240985,40.15738897915816],[19.607719128320518,40.15746965200017],[19.607720946240093,40.15747136036726],[19.607626464362266,40.157531934622185]]]},"properties":{"OBJECTID":75481,"SIP":344.684110795,"drejtoria":"VLORE","Shape_Leng":120.11708829,"Shape_Area":344.684110795}},
{"type":"Feature","geometry":{"type":"Polygon","coordinates":[[[19.6241380026336,40.15505568135897],[19.624098417087392,40.155033125054075],[19.624105415190712,40.15502589372044],[19.624045094967283,40.15499152236474],[19.62407868968058,40.154956808596516],[19.62409377031442,40.15496540144091],[19.62414276411167,40.154914776776096],[19.62422759039036,40.15496311063816],[19.624199594469594,40.15499203866129],[19.624213732573114,40.15500009505773],[19.624181536119664,40.15503336240111],[19.624167399168936,40.155025306915356],[19.6241380026336,40.15505568135897]]]},"properties":{"OBJECTID":75482,"SIP":124.979937497,"drejtoria":"VLORE","Shape_Leng":49.799760926,"Shape_Area":124.979937497}},
{"type":"Feature","geometry":{"type":"Polygon","coordinates":[[[19.622306477831522,40.157573304350294],[19.6222709590936,40.157604518064716],[19.62222164594005,40.157564306416845],[19.622330519874218,40.15746863067962],[19.622330084578202,40.157468324595186],[19.622329663587166,40.15746800787004],[19.622329256901086,40.157467680504205],[19.622328865693866,40.15746734251161],[19.62232848879161,40.15746699387831],[19.62232812852386,40.15746663553294],[19.622327783698548,40.15746626836222],[19.622327455489543,40.157465892380124],[19.622327145070724,40.15746550760061],[19.622326851249998,40.157465114910444],[19.622326576356915,40.15746471523819],[19.62232631804372,40.157464308555966],[19.62232607983205,40.157463894905646],[19.62232585818206,40.15746347514604],[19.62232565661539,40.15746304931904],[19.622325475095607,40.157462619226045],[19.62232531127498,40.15746218483912],[19.62232516751945,40.1574617452855],[19.622325043774413,40.157461303267276],[19.622324940058057,40.157460857883756],[19.62232485635219,40.15746041003561],[19.622324791482928,40.1574599597089],[19.622324747761617,40.15745950873293],[19.62232472520645,40.157459056207024],[19.622324721433277,40.15745860390463],[19.622324738789846,40.15745815185367],[19.62232477610227,40.157457700040204],[19.622324833352348,40.157457249364896],[19.622324910521886,40.15745680072846],[19.622325007592668,40.15745635503158],[19.622325125756767,40.15745591138753],[19.622325262630035,40.15745547156978],[19.622325419404543,40.15745503469157],[19.62232559602567,40.15745460345502],[19.622325791355962,40.15745417604477],[19.622326005340796,40.15745375516287],[19.622326239190464,40.157453339021906],[19.622326490520784,40.15745292939538],[19.622326760487457,40.1574525271979],[19.62232704791659,40.15745213241549],[19.62232735280819,40.157451745048206],[19.622327675144028,40.1574513659967],[19.622328013732055,40.15745099614771],[19.62232836976433,40.15745063461452],[19.62232874085671,40.15745028317055],[19.62232912818305,40.1574499418298],[19.62232952939561,40.15744961056433],[19.622329946823935,40.15744929030274],[19.62233039103289,40.15744898117078],[19.622330849073446,40.157448684816195],[19.622331319771728,40.157448401224954],[19.622331803145954,40.157448129496444],[19.622332299159694,40.15744787143199],[19.622332806639083,40.15744762701765],[19.62233332560233,40.15744739535273],[19.62233385364706,40.15744717911138],[19.622334391983568,40.157446976506165],[19.622334938245896,40.157446788409835],[19.622335493607924,40.15744661483638],[19.622336056877568,40.1574464566725],[19.622336625707074,40.15744631389028],[19.622337201288534,40.157446185603],[19.622337782411655,40.157446073598045],[19.622338369094646,40.15744597697477],[19.622338958971543,40.157445896605886],[19.62233955206057,40.15744583159071],[19.62234014834352,40.15744578282995],[19.62234074547262,40.15744575029567],[19.622341344639977,40.15744573310111],[19.622341943479633,40.15744573211909],[19.622342543165452,40.1574457473635],[19.622343141349706,40.15744577880647],[19.622343736858493,40.157445826433985],[19.62234433088392,40.157445889359366],[19.622344921060012,40.15744596845533],[19.62234550738678,40.15744606372187],[19.62234608870856,40.15744617424435],[19.62234666500714,40.15744630092346],[19.622347235145057,40.15744644194383],[19.622347799085905,40.15744659910687],[19.62234835451833,40.15744677058324],[19.622348902598034,40.1574469572876],[19.622349440995446,40.15744715829132],[19.622349970866253,40.157447374509054],[19.622350489899112,40.157447604111496],[19.62235099809402,40.15744784709864],[19.62235149543277,40.15744810437116],[19.6223519807779,40.157448374113734],[19.62235245293733,40.15744865721307],[19.622352911929273,40.15744895276844],[19.622407734874336,40.157400774843765],[19.62244841568691,40.15742802859305],[19.622371200713083,40.15749588355519],[19.622411439026138,40.1575228410573],[19.622488820327565,40.157574681327894],[19.622379946437732,40.157670357213206],[19.622344571304208,40.15764665851],[19.622375457858606,40.15761951672657],[19.622306477831522,40.157573304350294]]]},"properties":{"OBJECTID":75483,"SIP":272.322489909,"drejtoria":"VLORE","Shape_Leng":94.2847782171,"Shape_Area":272.322489909}},
{"type":"Feature","geometry":{"type":"Polygon","coordinates":[[[19.635386884246305,40.14782121447192],[19.635366946627478,40.147820555143966],[19.63536644130453,40.14782955472024],[19.635347399389904,40.14783388349398],[19.635135715105008,40.14782687732432],[19.635135133427482,40.14783722646879],[19.6351034683655,40.14783617838911],[19.635105643636145,40.14779748006466],[19.635122062771764,40.14779802318296],[19.635122770514048,40.14778542324069],[19.635388401380016,40.147794215756456],[19.635386884246305,40.14782121447192]]]},"properties":{"OBJECTID":75484,"SIP":107.498433396,"drejtoria":"VLORE","Shape_Leng":59.0419191308,"Shape_Area":107.498433396}},
{"type":"Feature","geometry":{"type":"Polygon","coordinates":[[[19.625332530419307,40.15668161595192],[19.625339390185772,40.15669085156826],[19.62534652972536,40.15668772909737],[19.625390552012128,40.15671980173278],[19.625427987610944,40.156770202672305],[19.625421562372868,40.156773012904715],[19.625430572344754,40.156785143449206],[19.625410681867226,40.156793840723545],[19.6254131235394,40.15679712831185],[19.62534121401074,40.156828573064786],[19.625256694051938,40.15671477801077],[19.625332530419307,40.15668161595192]]]},"properties":{"OBJECTID":75485,"SIP":131.670142626,"drejtoria":"VLORE","Shape_Leng":47.0659599762,"Shape_Area":131.670142626}},
{"type":"Feature","geometry":{"type":"Polygon","coordinates":[[[19.632703874874537,40.15748119162394],[19.632794593599677,40.15745515637282],[19.63281556976966,40.15749818660155],[19.632839211341675,40.15749140174184],[19.63287458338084,40.15756396088387],[19.632760222926784,40.15759678104292],[19.632703874874537,40.15748119162394]]]},"properties":{"OBJECTID":75486,"SIP":131.51509787,"drejtoria":"VLORE","Shape_Leng":48.200068065,"Shape_Area":131.51509787}},
{"type":"Feature","geometry":{"type":"Polygon","coordinates":[[[19.631914688097268,40.1548182270505],[19.631819655182575,40.15484158089077],[19.631782236969187,40.15475193214244],[19.631833107342022,40.154739430457376],[19.631840269043618,40.1547565882824],[19.631884431481698,40.154745736153146],[19.631914688097268,40.1548182270505]]]},"properties":{"OBJECTID":75487,"SIP":80.9253401213,"drejtoria":"VLORE","Shape_Leng":37.9000161071,"Shape_Area":80.9253401213}},
{"type":"Feature","geometry":{"type":"Polygon","coordinates":[[[19.613437189794183,40.156699789386884],[19.613481028813233,40.15664645527562],[19.613559475942708,40.15668441860212],[19.613515635785074,40.156737752729306],[19.613437189794183,40.156699789386884]]]},"properties":{"OBJECTID":75488,"SIP":55.2997831465,"drejtoria":"VLORE","Shape_Leng":29.7999472134,"Shape_Area":55.2997831465}},
{"type":"Feature","geometry":{"type":"Polygon","coordinates":[[[19.613411103924943,40.15668945522492],[19.613341577675058,40.1566558365347],[19.613334066144382,40.15666498180135],[19.61329930361136,40.156648173346404],[19.613306813970862,40.15663902806796],[19.613199048874105,40.1565869195312],[19.61324286243357,40.156533572592004],[19.613454917388932,40.15663610820472],[19.613411103924943,40.15668945522492]]]},"properties":{"OBJECTID":75489,"SIP":153.650224337,"drejtoria":"VLORE","Shape_Leng":59.1000261832,"Shape_Area":153.650224337}},
{"type":"Feature","geometry":{"type":"Polygon","coordinates":[[[19.63938795177099,40.14245008600207],[19.639346605989328,40.14238689195041],[19.639393284568683,40.142368904187144],[19.63943463038364,40.142432098222855],[19.63938795177099,40.14245008600207]]]},"properties":{"OBJECTID":75490,"SIP":34.9324371459,"drejtoria":"VLORE","Shape_Leng":24.5999470468,"Shape_Area":34.9324371459}},
{"type":"Feature","geometry":{"type":"Polygon","coordinates":[[[19.634084925421558,40.154919515629416],[19.63409670560283,40.15489166957057],[19.63412015419574,40.15489751025475],[19.6341279472391,40.154879089346124],[19.634265850202993,40.154913436473464],[19.63422742978695,40.15500425737768],[19.63408952783507,40.15496991021623],[19.63410837519675,40.15492535632995],[19.634084925421558,40.154919515629416]]]},"properties":{"OBJECTID":75491,"SIP":137.735095681,"drejtoria":"VLORE","Shape_Leng":50.1000387824,"Shape_Area":137.735095681}},
{"type":"Feature","geometry":{"type":"Polygon","coordinates":[[[19.634431017454204,40.147037485506374],[19.634321923391976,40.14703442751998],[19.634327064307357,40.14692640284596],[19.634485426993347,40.14693084103592],[19.634480286328163,40.14703886572108],[19.634431017454204,40.147037485506374]]]},"properties":{"OBJECTID":75492,"SIP":162.000319854,"drejtoria":"VLORE","Shape_Leng":50.9999900297,"Shape_Area":162.000319854}},
{"type":"Feature","geometry":{"type":"Polygon","coordinates":[[[19.61062305684659,40.15707622277058],[19.610562994121803,40.15699997949225],[19.610513762762807,40.15702281229878],[19.610492204433662,40.15699544514955],[19.61044196788885,40.15701874334352],[19.610432554135055,40.15700679418819],[19.61040170996902,40.157021099801305],[19.610394768969318,40.1570163497705],[19.61037620022057,40.15702491076421],[19.610336332163314,40.15699731930284],[19.610350257524445,40.1569856304732],[19.61034600329667,40.156982362255434],[19.610311993787832,40.15695997720061],[19.610310476164077,40.15695804995358],[19.61056165624589,40.156841556312834],[19.610713481652,40.157034284951614],[19.61062305684659,40.15707622277058]]]},"properties":{"OBJECTID":75493,"SIP":411.388946053,"drejtoria":"VLORE","Shape_Leng":100.507964435,"Shape_Area":411.388946053}},
{"type":"Feature","geometry":{"type":"Polygon","coordinates":[[[19.60917662324362,40.156508276817135],[19.609287962890676,40.15644810738659],[19.609307567312364,40.15646946473681],[19.609196227628274,40.156529635086386],[19.60917662324362,40.156508276817135]]]},"properties":{"OBJECTID":75494,"SIP":33.6401746614,"drejtoria":"VLORE","Shape_Leng":29.0000367206,"Shape_Area":33.6401746614}},
{"type":"Feature","geometry":{"type":"Polygon","coordinates":[[[19.60933600524927,40.15668191133953],[19.60944734506647,40.15662174085915],[19.609468301481932,40.156644572094635],[19.60940831304125,40.15667699064659],[19.609412368778614,40.1566814096801],[19.609361018572592,40.15670916074327],[19.60933600524927,40.15668191133953]]]},"properties":{"OBJECTID":75495,"SIP":39.1702592464,"drejtoria":"VLORE","Shape_Leng":30.6000183288,"Shape_Area":39.1702592464}},
{"type":"Feature","geometry":{"type":"Polygon","coordinates":[[[19.629576570700802,40.15718153216357],[19.629583792316676,40.15719061325346],[19.629599827186407,40.15718310657274],[19.62960777597872,40.15719310348711],[19.629622809253156,40.1571860660341],[19.629642987616755,40.1572114421265],[19.62965501376386,40.157205812335185],[19.62967641522076,40.15723272634116],[19.629603253155643,40.15726697517247],[19.629600807006817,40.15726389933306],[19.629561721364194,40.15728219724974],[19.629514638978755,40.15722298513393],[19.629557734478844,40.157202811253114],[19.629544281878673,40.15718589324389],[19.629570339712274,40.15717369524717],[19.629576570700802,40.15718153216357]]]},"properties":{"OBJECTID":75496,"SIP":87.4098352167,"drejtoria":"VLORE","Shape_Leng":43.0001372791,"Shape_Area":87.4098352167}},
{"type":"Feature","geometry":{"type":"Polygon","coordinates":[[[19.625426119238096,40.15343996958087],[19.625464211212357,40.15341889814922],[19.625539726861067,40.153499277672054],[19.625501636055787,40.153520348241145],[19.625426119238096,40.15343996958087]]]},"properties":{"OBJECTID":75497,"SIP":43.9996820183,"drejtoria":"VLORE","Shape_Leng":29.9999344911,"Shape_Area":43.9996820183}},
{"type":"Feature","geometry":{"type":"Polygon","coordinates":[[[19.625426119238096,40.15343996958087],[19.625501636055787,40.153520348241145],[19.62546354403517,40.153541419684],[19.625388028432425,40.15346104011276],[19.625426119238096,40.15343996958087]]]},"properties":{"OBJECTID":75498,"SIP":43.9996820153,"drejtoria":"VLORE","Shape_Leng":29.9999344909,"Shape_Area":43.9996820153}},
{"type":"Feature","geometry":{"type":"Polygon","coordinates":[[[19.62203669882081,40.153294935483096],[19.62199209406386,40.15331985623871],[19.62188498884299,40.15320698178447],[19.622000295826556,40.15314255889304],[19.622064213166723,40.15320991957458],[19.62207085717911,40.153206208515165],[19.62211058946157,40.15324808100887],[19.622033243126605,40.153291294308225],[19.62203669882081,40.153294935483096]]]},"properties":{"OBJECTID":75499,"SIP":188.625253838,"drejtoria":"VLORE","Shape_Leng":56.7000919099,"Shape_Area":188.625253838}},
{"type":"Feature","geometry":{"type":"Polygon","coordinates":[[[19.612370315303103,40.15703239245813],[19.612430014253608,40.156921688759496],[19.612536324809163,40.15695544073624],[19.612476625998642,40.1570661444915],[19.612370315303103,40.15703239245813]]]},"properties":{"OBJECTID":75500,"SIP":130.339105224,"drejtoria":"VLORE","Shape_Leng":46.1998484112,"Shape_Area":130.339105224}},
{"type":"Feature","geometry":{"type":"Polygon","coordinates":[[[19.631784175150678,40.1499278810084],[19.631927375938393,40.149926421849074],[19.631929575143268,40.150053424325286],[19.631786372914902,40.150054883468975],[19.631784175150678,40.1499278810084]]]},"properties":{"OBJECTID":75501,"SIP":172.019505921,"drejtoria":"VLORE","Shape_Leng":52.5999296562,"Shape_Area":172.019505921}},
{"type":"Feature","geometry":{"type":"Polygon","coordinates":[[[19.638834581969995,40.1453751922851],[19.638854045915217,40.14530380564238],[19.63897462648269,40.145323704530234],[19.638986849161142,40.14528008810621],[19.63886577963567,40.14526010510342],[19.63888504048407,40.14518912688303],[19.639127787936665,40.14522918726113],[19.639077331223056,40.14541525279201],[19.638834581969995,40.1453751922851]]]},"properties":{"OBJECTID":75502,"SIP":394.080423809,"drejtoria":"VLORE","Shape_Leng":105.559072596,"Shape_Area":394.080423809}},
{"type":"Feature","geometry":{"type":"Polygon","coordinates":[[[19.638743035479244,40.14496095221217],[19.63877091171696,40.144937793125536],[19.63888300194828,40.14501725262774],[19.638738044568022,40.14513768263358],[19.63862595314188,40.145058222978356],[19.638653830650924,40.14503506303471],[19.638649518725355,40.14503200688457],[19.638738723554177,40.14495789606533],[19.638743035479244,40.14496095221217]]]},"properties":{"OBJECTID":75503,"SIP":242.199550917,"drejtoria":"VLORE","Shape_Leng":63.399994408,"Shape_Area":242.199550917}},
{"type":"Feature","geometry":{"type":"Polygon","coordinates":[[[19.61255131049064,40.15603948137853],[19.612483623565872,40.155972604568134],[19.612545746556993,40.15593558561357],[19.61253026469731,40.15592028999204],[19.612573843933088,40.15589432097818],[19.612657012748148,40.15597649424468],[19.61255131049064,40.15603948137853]]]},"properties":{"OBJECTID":75504,"SIP":117.264730217,"drejtoria":"VLORE","Shape_Leng":45.8999540147,"Shape_Area":117.264730217}},
{"type":"Feature","geometry":{"type":"Polygon","coordinates":[[[19.637450835068567,40.143536953756],[19.63740881569559,40.14348068003407],[19.63747704935279,40.1434506717697],[19.637493389699557,40.14347255628146],[19.63769503597779,40.14338387547445],[19.637730635741978,40.143431551811894],[19.637526953518933,40.143521127653955],[19.637517031726997,40.143507841329814],[19.637450835068567,40.143536953756]]]},"properties":{"OBJECTID":75505,"SIP":169.360498406,"drejtoria":"VLORE","Shape_Leng":70.8000692383,"Shape_Area":169.360498406}},
{"type":"Feature","geometry":{"type":"Polygon","coordinates":[[[19.630844458613137,40.15394198039445],[19.63084634369044,40.153889456070175],[19.630976840550282,40.153866675545395],[19.63097944439157,40.1538754596012],[19.631025232619777,40.15386746669724],[19.631051274736308,40.15395530278081],[19.6310684450402,40.15395230576793],[19.631072872087195,40.15396723758418],[19.63111980560571,40.15395904466912],[19.631127618388522,40.15398539594055],[19.631036613239164,40.15400128135726],[19.631038957653736,40.154009186657134],[19.630985728804454,40.154018478985776],[19.6309832546766,40.154010134307576],[19.630933459191375,40.154018826663034],[19.630907418379294,40.15393099056989],[19.630844458613137,40.15394198039445]]]},"properties":{"OBJECTID":75506,"SIP":224.491010925,"drejtoria":"VLORE","Shape_Leng":76.833237784,"Shape_Area":224.491010925}},
{"type":"Feature","geometry":{"type":"Polygon","coordinates":[[[19.626923479736803,40.14561884347091],[19.626977385102347,40.145578044338535],[19.627056100302475,40.14563929485336],[19.62700219495166,40.14568009312125],[19.626923479736803,40.14561884347091]]]},"properties":{"OBJECTID":75507,"SIP":61.5975324933,"drejtoria":"VLORE","Shape_Leng":32.0000074357,"Shape_Area":61.5975324933}},
{"type":"Feature","geometry":{"type":"Polygon","coordinates":[[[19.637488729575455,40.143289468069035],[19.63744034232674,40.143221478703886],[19.637471247316014,40.1432085250882],[19.637519634587072,40.14327651444094],[19.637488729575455,40.143289468069035]]]},"properties":{"OBJECTID":75508,"SIP":25.8004454178,"drejtoria":"VLORE","Shape_Leng":23.2001055565,"Shape_Area":25.8004454178}},
{"type":"Feature","geometry":{"type":"Polygon","coordinates":[[[19.637655481949977,40.14323721777988],[19.637626059282265,40.143198246665996],[19.637659574041823,40.143183343498684],[19.637688996722726,40.143222314604365],[19.637655481949977,40.14323721777988]]]},"properties":{"OBJECTID":75509,"SIP":16.4997886782,"drejtoria":"VLORE","Shape_Leng":16.5998968785,"Shape_Area":16.4997886782}},
{"type":"Feature","geometry":{"type":"Polygon","coordinates":[[[19.6375453225777,40.14335169983422],[19.637527111957805,40.14331848774567],[19.637581206300414,40.143301018625166],[19.63759941696047,40.14333422980497],[19.6375453225777,40.14335169983422]]]},"properties":{"OBJECTID":75510,"SIP":19.9999865523,"drejtoria":"VLORE","Shape_Leng":17.9999916596,"Shape_Area":19.9999865523}},
{"type":"Feature","geometry":{"type":"Polygon","coordinates":[[[19.637613481979834,40.14332968803127],[19.637595271314023,40.143296476853585],[19.63764936564043,40.143279006799894],[19.63766757631042,40.14331221887023],[19.637613481979834,40.14332968803127]]]},"properties":{"OBJECTID":75511,"SIP":19.9999865411,"drejtoria":"VLORE","Shape_Leng":17.999991655,"Shape_Area":19.9999865411}},
{"type":"Feature","geometry":{"type":"Polygon","coordinates":[[[19.637681641320892,40.1433076770881],[19.63766343064515,40.143274465019836],[19.637717524919385,40.143256995834356],[19.63773573563528,40.143290206993846],[19.637681641320892,40.1433076770881]]]},"properties":{"OBJECTID":75512,"SIP":19.9999865447,"drejtoria":"VLORE","Shape_Leng":17.9999916564,"Shape_Area":19.9999865447}},
{"type":"Feature","geometry":{"type":"Polygon","coordinates":[[[19.626994147764172,40.14554371562079],[19.62705097729146,40.14550070335152],[19.62713134189457,40.14556323555485],[19.627074511171816,40.145606248749864],[19.626994147764172,40.14554371562079]]]},"properties":{"OBJECTID":75514,"SIP":66.30007461,"drejtoria":"VLORE","Shape_Leng":33.1000235501,"Shape_Area":66.30007461}},
{"type":"Feature","geometry":{"type":"Polygon","coordinates":[[[19.62525278979397,40.153510763766555],[19.62531709743484,40.153474471053514],[19.625385262125157,40.15354558669975],[19.625320953295688,40.15358187853508],[19.62525278979397,40.153510763766555]]]},"properties":{"OBJECTID":75515,"SIP":66.6395937812,"drejtoria":"VLORE","Shape_Leng":33.1999008698,"Shape_Area":66.6395937812}},
{"type":"Feature","geometry":{"type":"Polygon","coordinates":[[[19.634206484295397,40.14517741942527],[19.63417438279574,40.14514524117443],[19.634215392348594,40.14512114711797],[19.63422894921944,40.14513473696464],[19.634269026233017,40.14511119045503],[19.634280539810202,40.14512369852001],[19.63431875177269,40.14510124712627],[19.634350862548484,40.14513343355515],[19.634312649404276,40.1451558849454],[19.634300518382563,40.14514372546141],[19.634260441360112,40.14516727198165],[19.63424688447661,40.14515368213853],[19.634206484295397,40.14517741942527]]]},"properties":{"OBJECTID":75516,"SIP":57.4749205254,"drejtoria":"VLORE","Shape_Leng":41.7335748429,"Shape_Area":57.4749205254}},
{"type":"Feature","geometry":{"type":"Polygon","coordinates":[[[19.63467829891008,40.14505096613102],[19.634639888447218,40.1450739576537],[19.634628699337608,40.14506294806679],[19.6345912144291,40.145085386516016],[19.634580024151994,40.14507437691066],[19.63454207703738,40.14509709097799],[19.634530886748436,40.145086082268726],[19.634492476217115,40.1451090737412],[19.63445998996015,40.145077109952965],[19.634498400483807,40.145054118491046],[19.63450959074428,40.14506512810403],[19.63454753786936,40.1450424131464],[19.634558728136028,40.145053422754785],[19.634596213019027,40.14503098521653],[19.6346074021182,40.14504199480648],[19.634645812573403,40.14501900329434],[19.63467829891008,40.14505096613102]]]},"properties":{"OBJECTID":75517,"SIP":74.024902924,"drejtoria":"VLORE","Shape_Leng":51.1998059639,"Shape_Area":74.024902924}},
{"type":"Feature","geometry":{"type":"Polygon","coordinates":[[[19.634421799335072,40.145117960109914],[19.634411140468078,40.1451072054085],[19.634372367323422,40.14512983580189],[19.634335061911838,40.14509219433418],[19.63437383389113,40.14506956303842],[19.634384492746424,40.14508031774317],[19.634423732683434,40.14505741446863],[19.63446103928192,40.145095056823045],[19.634421799335072,40.145117960109914]]]},"properties":{"OBJECTID":75518,"SIP":43.8375985358,"drejtoria":"VLORE","Shape_Leng":30.1998945906,"Shape_Area":43.8375985358}},
{"type":"Feature","geometry":{"type":"Polygon","coordinates":[[[19.606463597701257,40.15798224768688],[19.60650021799122,40.15795827832332],[19.60655050554955,40.15800351020664],[19.606513885270466,40.15802747868513],[19.606463597701257,40.15798224768688]]]},"properties":{"OBJECTID":75530,"SIP":27.0597981203,"drejtoria":"VLORE","Shape_Leng":21.3999515359,"Shape_Area":27.0597981203}},
{"type":"Feature","geometry":{"type":"Polygon","coordinates":[[[19.606756064472474,40.15766392300126],[19.606846834661766,40.157606793121985],[19.606887785977577,40.15764509802411],[19.606797015769747,40.15770222793485],[19.606756064472474,40.15766392300126]]]},"properties":{"OBJECTID":75531,"SIP":54.9995749616,"drejtoria":"VLORE","Shape_Leng":30.9999335415,"Shape_Area":54.9995749616}},
{"type":"Feature","geometry":{"type":"Polygon","coordinates":[[[19.606615490387494,40.15795821982419],[19.606569731712277,40.15791832181383],[19.60660630807887,40.15789362575372],[19.606652066741333,40.15793352465059],[19.606615490387494,40.15795821982419]]]},"properties":{"OBJECTID":75532,"SIP":24.4845626842,"drejtoria":"VLORE","Shape_Leng":20.0998220241,"Shape_Area":24.4845626842}},
{"type":"Feature","geometry":{"type":"Polygon","coordinates":[[[19.6066565009914,40.15791011921676],[19.606610742341605,40.157870220321726],[19.606647318667388,40.15784552424779],[19.606693077322845,40.15788542312861],[19.6066565009914,40.15791011921676]]]},"properties":{"OBJECTID":75533,"SIP":24.4849146195,"drejtoria":"VLORE","Shape_Leng":20.0999632814,"Shape_Area":24.4849146195}},
{"type":"Feature","geometry":{"type":"Polygon","coordinates":[[[19.60672654215861,40.15788323936641],[19.60668078348461,40.15784334049851],[19.606717359752523,40.157818645302356],[19.6067631184506,40.157858543255365],[19.60672654215861,40.15788323936641]]]},"properties":{"OBJECTID":75534,"SIP":24.4845626777,"drejtoria":"VLORE","Shape_Leng":20.0998220215,"Shape_Area":24.4845626777}},
{"type":"Feature","geometry":{"type":"Polygon","coordinates":[[[19.606769755254106,40.157833650794224],[19.606723996586773,40.157793751943196],[19.606760572830712,40.15776905583178],[19.606806332677582,40.15780895468272],[19.606769755254106,40.157833650794224]]]},"properties":{"OBJECTID":75535,"SIP":24.4852725079,"drejtoria":"VLORE","Shape_Leng":20.1001045408,"Shape_Area":24.4852725079}},
{"type":"Feature","geometry":{"type":"Polygon","coordinates":[[[19.60698896443346,40.157577537313465],[19.607047394667372,40.15753987600157],[19.60709081581892,40.15757953488812],[19.60703238557373,40.15761719622153],[19.60698896443346,40.157577537313465]]]},"properties":{"OBJECTID":75536,"SIP":37.374824918,"drejtoria":"VLORE","Shape_Leng":24.4999448376,"Shape_Area":37.374824918}},
{"type":"Feature","geometry":{"type":"Polygon","coordinates":[[[19.6069463140065,40.157742079889495],[19.60690093507902,40.15770192531396],[19.606975442415703,40.157652354671555],[19.607020821374164,40.15769250831769],[19.6069463140065,40.157742079889495]]]},"properties":{"OBJECTID":75537,"SIP":49.5602986771,"drejtoria":"VLORE","Shape_Leng":28.6000555214,"Shape_Area":49.5602986771}},
{"type":"Feature","geometry":{"type":"Polygon","coordinates":[[[19.60694368036697,40.15779820464105],[19.606980490689747,40.15777371398126],[19.60699395090041,40.1577856238137],[19.607018343486406,40.15776939552304],[19.60705026233729,40.15779763842806],[19.606989059401005,40.15783835829998],[19.60694368036697,40.15779820464105]]]},"properties":{"OBJECTID":75538,"SIP":35.8976336983,"drejtoria":"VLORE","Shape_Leng":25.6000042405,"Shape_Area":35.8976336983}},
{"type":"Feature","geometry":{"type":"Polygon","coordinates":[[[19.60689370761448,40.157901798086485],[19.606848328596534,40.15786164439084],[19.60692283616689,40.15781207288653],[19.60696821519741,40.15785222655351],[19.60689370761448,40.157901798086485]]]},"properties":{"OBJECTID":75539,"SIP":49.5601824473,"drejtoria":"VLORE","Shape_Leng":28.6000476949,"Shape_Area":49.5601824473}},
{"type":"Feature","geometry":{"type":"Polygon","coordinates":[[[19.606796761632577,40.15796647717951],[19.60675131951333,40.15792636683152],[19.60682574647106,40.1578767250507],[19.606871189776573,40.157916835384114],[19.606796761632577,40.15796647717951]]]},"properties":{"OBJECTID":75540,"SIP":49.5592995054,"drejtoria":"VLORE","Shape_Leng":28.5998152407,"Shape_Area":49.5592995054}},
{"type":"Feature","geometry":{"type":"Polygon","coordinates":[[[19.606700230112462,40.15803103324858],[19.60665485112684,40.1579908794784],[19.606729358978367,40.15794130810449],[19.60677473797656,40.15798146184597],[19.606700230112462,40.15803103324858]]]},"properties":{"OBJECTID":75541,"SIP":49.5601824568,"drejtoria":"VLORE","Shape_Leng":28.6000476976,"Shape_Area":49.5601824568}},
{"type":"Feature","geometry":{"type":"Polygon","coordinates":[[[19.60704568080239,40.157649471843875],[19.607114659422965,40.15760056342465],[19.60717840191984,40.15765348943266],[19.60710942328925,40.1577023978893],[19.60704568080239,40.157649471843875]]]},"properties":{"OBJECTID":75542,"SIP":63.9998049717,"drejtoria":"VLORE","Shape_Leng":31.9999512429,"Shape_Area":63.9998049717}},
{"type":"Feature","geometry":{"type":"Polygon","coordinates":[[[19.632070980737357,40.155144065362734],[19.632046782637353,40.155054999037766],[19.632106544437267,40.15504543926696],[19.63212666987301,40.15511951402785],[19.632142759965806,40.15511694013595],[19.632146832708887,40.15513193168838],[19.632070980737357,40.155144065362734]]]},"properties":{"OBJECTID":75546,"SIP":54.8999048418,"drejtoria":"VLORE","Shape_Leng":33.3999781458,"Shape_Area":54.8999048418}},
{"type":"Feature","geometry":{"type":"Polygon","coordinates":[[[19.625690294307418,40.155649511379714],[19.625666920164225,40.155643495998085],[19.6256609477716,40.155657161301804],[19.62561531145072,40.15564541850086],[19.625609339065804,40.15565908290101],[19.625574834408315,40.155650204699675],[19.625580806817432,40.15563653940068],[19.62557078949059,40.15563396188786],[19.625611103158633,40.1555417231399],[19.62572463545281,40.15557093789536],[19.625690294307418,40.155649511379714]]]},"properties":{"OBJECTID":75547,"SIP":111.760340161,"drejtoria":"VLORE","Shape_Leng":45.2001155829,"Shape_Area":111.760340161}},
{"type":"Feature","geometry":{"type":"Polygon","coordinates":[[[19.62215490900791,40.1557136454387],[19.62217105291828,40.15568514263806],[19.622158131875022,40.15568083385586],[19.622194162511153,40.155617219562295],[19.62220708237103,40.1556215283264],[19.62222322623687,40.15559302551735],[19.622342739143168,40.15563287884783],[19.62227442327381,40.1557534979551],[19.62215490900791,40.1557136454387]]]},"properties":{"OBJECTID":75548,"SIP":171.299805981,"drejtoria":"VLORE","Shape_Leng":53.8000414756,"Shape_Area":171.299805981}},
{"type":"Feature","geometry":{"type":"Polygon","coordinates":[[[19.624417928523116,40.1581253504911],[19.6244013795507,40.158107851850964],[19.62441800828887,40.15809859346977],[19.62440283886326,40.15808255448168],[19.624544422185892,40.15800372676601],[19.62458303496293,40.15804455535643],[19.62444145161563,40.15812338221744],[19.624434557263434,40.158116092107576],[19.624417928523116,40.1581253504911]]]},"properties":{"OBJECTID":75550,"SIP":87.6399284951,"drejtoria":"VLORE","Shape_Leng":44.5000219399,"Shape_Area":87.6399284951}},
{"type":"Feature","geometry":{"type":"Polygon","coordinates":[[[19.640597814195356,40.14193832726376],[19.640682095297585,40.14201339270627],[19.6406429714267,40.14203926530711],[19.64055869031921,40.141964200737334],[19.640597814195356,40.14193832726376]]]},"properties":{"OBJECTID":75552,"SIP":48.3997152569,"drejtoria":"VLORE","Shape_Leng":30.799899436,"Shape_Area":48.3997152569}},
{"type":"Feature","geometry":{"type":"Polygon","coordinates":[[[19.621077223873193,40.15507494393811],[19.621080054701096,40.155093282377486],[19.6210105719064,40.15509959809707],[19.621010019677097,40.15509601940476],[19.62091978495898,40.155104221244386],[19.620911015313197,40.155047417006436],[19.620951236952813,40.15504376184198],[19.620941086697403,40.15497801222502],[19.621060583476382,40.15496715076343],[19.621062930499978,40.15498235817855],[19.62106351394101,40.15498230476673],[19.62106524028074,40.15499348672302],[19.621099048834598,40.15499041368817],[19.62110229383614,40.155011436371495],[19.621119781540205,40.15500984733856],[19.6211291036283,40.155070228454335],[19.621077223873193,40.15507494393811]]]},"properties":{"OBJECTID":75555,"SIP":201.74907441,"drejtoria":"VLORE","Shape_Leng":64.5002947902,"Shape_Area":201.74907441}},
{"type":"Feature","geometry":{"type":"Polygon","coordinates":[[[19.6382756791309,40.14316066925006],[19.638280948212877,40.14316769528997],[19.638221943484155,40.143193756664516],[19.638157541537065,40.143107874461904],[19.638216546214238,40.14308181311897],[19.6382756791309,40.14316066925006]]]},"properties":{"OBJECTID":75564,"SIP":63.7997957788,"drejtoria":"VLORE","Shape_Leng":33.5999706265,"Shape_Area":63.7997957788}},
{"type":"Feature","geometry":{"type":"Polygon","coordinates":[[[19.621539329358452,40.15717128151436],[19.621495923029553,40.15719741993675],[19.62140966940318,40.157113093699195],[19.621566672700226,40.15701854945287],[19.62160581285569,40.15705681501112],[19.621591035855754,40.15706571395122],[19.621588499372564,40.1570632332719],[19.621489679356714,40.15712274022279],[19.621539329358452,40.15717128151436]]]},"properties":{"OBJECTID":83677,"SIP":118.604785721,"drejtoria":"Vlore","Shape_Leng":58.5000951554,"Shape_Area":118.604785721}},
{"type":"Feature","geometry":{"type":"Polygon","coordinates":[[[19.621591035855754,40.15706571395122],[19.621638149403758,40.15711177452201],[19.621539329358452,40.15717128151436],[19.621489679356714,40.15712274022279],[19.621588499372564,40.1570632332719],[19.621591035855754,40.15706571395122]]]},"properties":{"OBJECTID":83697,"SIP":73.2952890407,"drejtoria":"Vlore","Shape_Leng":35.100099973,"Shape_Area":73.2952890407}},
{"type":"Feature","geometry":{"type":"Polygon","coordinates":[[[19.637902280638585,40.143152298566335],[19.637968514448882,40.14311348076291],[19.638014819651183,40.143160016267096],[19.637997095059166,40.14317040431781],[19.638001369175395,40.143174699706],[19.637952859935403,40.143203129486345],[19.637902280638585,40.143152298566335]]]},"properties":{"OBJECTID":83714,"SIP":49.2703188884,"drejtoria":"Vlore","Shape_Leng":28.4000661208,"Shape_Area":49.2703188884}},
{"type":"Feature","geometry":{"type":"Polygon","coordinates":[[[19.635656363229582,40.14957853112088],[19.635582518004437,40.14963651034134],[19.635481776347884,40.14956095446253],[19.63555562274699,40.1495029753195],[19.635656363229582,40.14957853112088]]]},"properties":{"OBJECTID":83717,"SIP":107.999880739,"drejtoria":"Vlore","Shape_Leng":41.9999744187,"Shape_Area":107.999880739}},
{"type":"Feature","geometry":{"type":"Polygon","coordinates":[[[19.642493430295943,40.140490720139084],[19.64243270725734,40.14044242993737],[19.642543344680394,40.14036048256716],[19.642604067745552,40.140408771810876],[19.642493430295943,40.140490720139084]]]},"properties":{"OBJECTID":84312,"SIP":97.5949731401,"drejtoria":"VLORE","Shape_Leng":41.1000017335,"Shape_Area":97.5949731401}},
{"type":"Feature","geometry":{"type":"Polygon","coordinates":[[[19.634508521732744,40.14623354222408],[19.634499845017107,40.146191274422335],[19.634523035279237,40.146188471307966],[19.63450851308359,40.14611772965423],[19.634703893144472,40.14609410911197],[19.634726818597926,40.14620578285238],[19.634665363089255,40.14621321231419],[19.63466271471923,40.146200309727384],[19.63459430305982,40.14620858055605],[19.63459722522269,40.14622281792385],[19.634508521732744,40.14623354222408]]]},"properties":{"OBJECTID":86193,"SIP":213.259968366,"drejtoria":"VLORE","Shape_Leng":66.0000616247,"Shape_Area":213.259968366}},
{"type":"Feature","geometry":{"type":"Polygon","coordinates":[[[19.6213170130626,40.15704056516046],[19.621343932979354,40.15707207529129],[19.621341828279245,40.1570742538565],[19.621339631900177,40.15707637907703],[19.62133734508889,40.15707844736414],[19.621334972577298,40.15708045697227],[19.62133251440183,40.15708240610005],[19.621329975312612,40.15708429210136],[19.621327356519952,40.15708611318871],[19.621324661563666,40.15708786850338],[19.62132189288259,40.15708955356986],[19.6213136645553,40.157093552925346],[19.621305274792853,40.157097348553606],[19.621296731867012,40.157100937850345],[19.621288042912152,40.15710431639598],[19.62127921973988,40.157107480727475],[19.62127026944814,40.15711042822658],[19.621261200345167,40.15711315448767],[19.621252024187935,40.15711565874981],[19.62124274691875,40.15711793748012],[19.621218543989624,40.15708799573831],[19.621247417849666,40.15707329439234],[19.621221694695222,40.157037418261325],[19.621239811721633,40.15702819427736],[19.621270839634295,40.15706407321879],[19.6213170130626,40.15704056516046]]]},"properties":{"OBJECTID":86198,"SIP":54.6483987525,"drejtoria":"VLORE","Shape_Leng":37.1195541891,"Shape_Area":54.6483987525}},
{"type":"Feature","geometry":{"type":"Polygon","coordinates":[[[19.62177103896156,40.15679524211572],[19.62180117664058,40.1568328833127],[19.621765543384498,40.156864891017996],[19.621750632456777,40.15688070648329],[19.621736862925182,40.15687154785658],[19.62170349063011,40.15683192576878],[19.621675579820703,40.15678949208387],[19.621693809592546,40.15678089910721],[19.62172355695971,40.15681757530585],[19.62177103896156,40.15679524211572]]]},"properties":{"OBJECTID":86199,"SIP":51.6825214846,"drejtoria":"VLORE","Shape_Leng":35.1719416624,"Shape_Area":51.6825214846}},
{"type":"Feature","geometry":{"type":"Polygon","coordinates":[[[19.62231297701039,40.15615239390468],[19.622316116707474,40.15614594290245],[19.62231895977487,40.15613941269363],[19.622321503755728,40.15613280865451],[19.622323744910126,40.15612614155152],[19.622325680762973,40.15611941766161],[19.622327309940278,40.15611264687847],[19.622328628793127,40.156105835465084],[19.62232963592929,40.15609899421582],[19.62233033241348,40.15609212854883],[19.622330714505793,40.15608524923055],[19.62233078321631,40.1560783643812],[19.622330538399492,40.156071481206375],[19.62232997987339,40.15606460871299],[19.62242742257679,40.15604577340434],[19.622427675164673,40.15605099448966],[19.62242769756872,40.1560562182415],[19.622427488706048,40.15606144014236],[19.622427048704015,40.15606665388741],[19.622426380037705,40.156071853199684],[19.62242548166065,40.15607703176035],[19.62242435485586,40.156082184179226],[19.62242300209842,40.15608730417935],[19.622421423497507,40.15609238635656],[19.622419621528195,40.15609742443393],[19.622417597473518,40.1561024130212],[19.62241535615626,40.1561073458694],[19.622412896511772,40.156112217560384],[19.622410224518468,40.15611702275979],[19.622407341477608,40.15612175517669],[19.622404251001726,40.15612641034955],[19.62240095672158,40.15613098291605],[19.62239746228612,40.15613546661321],[19.622393772463543,40.15613985789411],[19.622389890921028,40.15614414959509],[19.622385822426768,40.15614833816922],[19.62238157059333,40.15615241915491],[19.622377141399202,40.156156387217784],[19.62237253963079,40.15616023791025],[19.622367770092733,40.15616396588398],[19.6223628387089,40.15616756850673],[19.622357751439594,40.156171041344805],[19.622352514263284,40.15617437906393],[19.62231297701039,40.15615239390468]]]},"properties":{"OBJECTID":86201,"SIP":86.9791105408,"drejtoria":"VLORE","Shape_Leng":38.8947562677,"Shape_Area":86.9791105408}},
{"type":"Feature","geometry":{"type":"Polygon","coordinates":[[[19.622266323597337,40.15662372985335],[19.62226440657006,40.15662551336716],[19.622262687163946,40.156626872200704],[19.622260706440333,40.15662843783678],[19.62225913569826,40.15662947050768],[19.62225630597101,40.156631331449],[19.622255206449648,40.156632054408675],[19.622252905601016,40.1566333090241],[19.622251162166112,40.15663417207021],[19.622248526859174,40.15663530198313],[19.622247017515754,40.15663591105525],[19.62224546909857,40.15663647822043],[19.622243630919968,40.15663703292811],[19.62224179154927,40.15663758852247],[19.622239890037726,40.15663802355605],[19.622238717503837,40.15663829248819],[19.62223707053015,40.15663856568414],[19.622235423556454,40.15663883888003],[19.62223355527895,40.15663902385565],[19.622232371735638,40.156639140402675],[19.62223122700253,40.15663925380789],[19.622221172603574,40.15663967109485],[19.622213866883882,40.15664020397683],[19.622210215090938,40.156640737100126],[19.622206202419676,40.156641581247484],[19.62216891919365,40.156594916268915],[19.62229696465227,40.15653220963203],[19.62231343863411,40.156535191294026],[19.62231644717302,40.15653604332179],[19.622314482525308,40.15653995061907],[19.622305467901487,40.15655787869054],[19.6222951516717,40.15657839490596],[19.622283344400838,40.15660087988617],[19.622280546154624,40.15660594664574],[19.62227776820522,40.156610357783244],[19.622272852740625,40.15661688855342],[19.622268239468863,40.15662194542484],[19.622266323597337,40.15662372985335]]]},"properties":{"OBJECTID":86202,"SIP":75.882538913,"drejtoria":"VLORE","Shape_Leng":37.0974000149,"Shape_Area":75.882538913}},
{"type":"Feature","geometry":{"type":"Polygon","coordinates":[[[19.62274854995711,40.15618425244062],[19.622729071700416,40.15623756279376],[19.622716412250615,40.15627137655518],[19.62270849303553,40.15629262673933],[19.622699271685715,40.15628848545619],[19.622652272068912,40.15635008018964],[19.62262987218205,40.15637650139406],[19.622612488725142,40.15636844223025],[19.6225494405475,40.156449166028416],[19.622510194625725,40.1564993194862],[19.62247563972323,40.15648339914061],[19.62248223554003,40.1564748838274],[19.62243214113374,40.15645203975042],[19.62244075752867,40.15644091601914],[19.622413105477285,40.156428304856945],[19.62240992915632,40.15642686614364],[19.62244435061155,40.15638286889998],[19.62252925411101,40.15642189129411],[19.622541893664252,40.15640597482604],[19.622486964455916,40.15638120025238],[19.622495284120287,40.1563700594725],[19.62246526281507,40.15635627957801],[19.62249916308636,40.15631279504077],[19.622541101700378,40.15633204471178],[19.622555547404907,40.1563133803297],[19.622533232162017,40.156303309299226],[19.622566394063025,40.15626004568873],[19.622597421776756,40.156274048344294],[19.622604484917,40.15626483316998],[19.62264099505339,40.15628149026117],[19.62265824987762,40.15625884392402],[19.6226218270033,40.15625094203394],[19.622626621178753,40.15623774396068],[19.62259191148984,40.15623001109406],[19.62260984413008,40.15618155090147],[19.622656601542584,40.156191784782266],[19.622660457966777,40.15618141432319],[19.62263219123802,40.15617522750786],[19.622637514803372,40.1561623267267],[19.622603942276733,40.156154798386204],[19.62262238635046,40.15610595418105],[19.62269425998727,40.15612128241459],[19.622700828152087,40.15610315042902],[19.622757164507547,40.156115165814356],[19.622733133643838,40.15618093657232],[19.62274854995711,40.15618425244062]]]},"properties":{"OBJECTID":86203,"SIP":453.051212681,"drejtoria":"VLORE","Shape_Leng":168.039158881,"Shape_Area":453.051212681}},
{"type":"Feature","geometry":{"type":"Polygon","coordinates":[[[19.62278440961907,40.156065456900734],[19.622786466199674,40.156084715828115],[19.62255628613096,40.15610113345754],[19.62255172096963,40.1560899267569],[19.622539031202624,40.15605877270315],[19.622528457860906,40.15602276539348],[19.62252206984498,40.156004965753816],[19.622520657701806,40.15599077310806],[19.622520933209934,40.155968658105934],[19.6225214075977,40.15596668084396],[19.622521961606914,40.15596471443936],[19.62252259399092,40.15596276248097],[19.622523303539456,40.155960826756186],[19.622524090234307,40.1559589081657],[19.622524954020875,40.1559570094116],[19.622525892533243,40.15595513136668],[19.62254598973448,40.15592923864505],[19.6225708191328,40.15590797074554],[19.622587531579853,40.155893218958795],[19.62260507243911,40.15587773737721],[19.622643960733573,40.15587349818894],[19.622645071405746,40.155876638467035],[19.62264982108758,40.15588446623839],[19.62265486058362,40.15589218754632],[19.62266018653619,40.155899794242586],[19.622665795551235,40.155907279980426],[19.62266748847201,40.15591019384921],[19.622669301999043,40.15591306590907],[19.622671231509738,40.155915892501355],[19.62267327825078,40.15591867003726],[19.62267543756317,40.15592139665949],[19.622677708327675,40.15592406965201],[19.62268008944326,40.155926685398086],[19.622682576232744,40.155929242941134],[19.622686312569,40.15593277482067],[19.622690185700037,40.15593621913726],[19.622694191003237,40.15593957223224],[19.622698327359387,40.155942831389574],[19.622702588972025,40.15594599293663],[19.622723808392855,40.15596177168673],[19.622731321249056,40.15596760257308],[19.622738559971772,40.1559736356056],[19.622745512968084,40.15597986343911],[19.62275217102917,40.15598627695501],[19.62275501114293,40.15598924591178],[19.62275771592756,40.155992288034234],[19.62276028430021,40.15599539880493],[19.622762712775707,40.15599857638063],[19.62276499795989,40.15600181441456],[19.622767136367603,40.15600511106342],[19.622769128071614,40.156008462724486],[19.62277096848571,40.15601186393769],[19.622772655334952,40.156015311072345],[19.62277418867395,40.15601880142642],[19.6227759570652,40.156023500897255],[19.622777533263793,40.156028240424575],[19.62277891736068,40.15603301550491],[19.62278010709912,40.15603782160686],[19.622781100240562,40.15604265329831],[19.622782241078184,40.15604906604477],[19.622783509392786,40.15605724699529],[19.62278440961907,40.156065456900734]]]},"properties":{"OBJECTID":86204,"SIP":390.773038395,"drejtoria":"VLORE","Shape_Leng":77.8800091743,"Shape_Area":390.773038395}},
{"type":"Feature","geometry":{"type":"Polygon","coordinates":[[[19.621693809592546,40.15678089910721],[19.62167023691836,40.156751837043565],[19.621732297259545,40.156722584557755],[19.621700956045945,40.15668343980739],[19.621752896187846,40.15665895787224],[19.621849074325432,40.15675845983634],[19.62177103896156,40.15679524211572],[19.62172355695971,40.15681757530585],[19.621693809592546,40.15678089910721]]]},"properties":{"OBJECTID":86205,"SIP":132.472174092,"drejtoria":"VLORE","Shape_Leng":51.3890919821,"Shape_Area":132.472174092}},
{"type":"Feature","geometry":{"type":"Polygon","coordinates":[[[19.621328070229147,40.15690298442826],[19.621444982829498,40.15683184967297],[19.621437828142263,40.15682357879637],[19.62149476102351,40.156794739262054],[19.621521914791547,40.15682629718277],[19.62153951683685,40.15681733549079],[19.621549914924465,40.156829360338136],[19.621604696339595,40.156801469017815],[19.621660497195187,40.1568659944889],[19.621534305031304,40.15693024231664],[19.621550218282927,40.15694864461721],[19.621512694870223,40.15696716381533],[19.621500573014306,40.15695282201655],[19.6214540082148,40.156976529094734],[19.621466346467187,40.156990795095744],[19.621433853628822,40.157006964231414],[19.621328070229147,40.15690298442826]]]},"properties":{"OBJECTID":86206,"SIP":325.668803198,"drejtoria":"VLORE","Shape_Leng":87.0707171122,"Shape_Area":325.668803198}},
{"type":"Feature","geometry":{"type":"Polygon","coordinates":[[[19.621239811721633,40.15702819427736],[19.62121495908217,40.156999551118254],[19.621275597599638,40.15696857472019],[19.62124265111195,40.15693031884922],[19.621294046521236,40.15690457386393],[19.621394874611475,40.157000850456875],[19.6213170130626,40.15704056516046],[19.621270839634295,40.15706407321879],[19.621239811721633,40.15702819427736]]]},"properties":{"OBJECTID":86207,"SIP":133.478208859,"drejtoria":"VLORE","Shape_Leng":51.5183873333,"Shape_Area":133.478208859}},
{"type":"Feature","geometry":{"type":"Polygon","coordinates":[[[19.634542501623514,40.144608541140784],[19.63453326739112,40.14455859637405],[19.634480377808746,40.14456435467256],[19.634491930589395,40.14462684138507],[19.634441376292838,40.14463234612274],[19.634419773938312,40.144515497741715],[19.634419713315882,40.144515124949194],[19.63441966917876,40.14451474964837],[19.634419642646495,40.14451437455521],[19.634419631407862,40.144513997840576],[19.63441963777409,40.1445136213336],[19.634419661727144,40.144513245934974],[19.63441970093774,40.144512870716305],[19.634419757717115,40.14451249750666],[19.63441983090967,40.14451212539154],[19.634419920497336,40.14451175527162],[19.634420026462106,40.14451138804761],[19.634420148803958,40.144511023719495],[19.63442028752289,40.14451066228729],[19.63442044258284,40.144510305552394],[19.63442061282818,40.144509952600245],[19.63442079824088,40.14450960433156],[19.634420999994585,40.144509260760195],[19.634421216879577,40.144508923673705],[19.63442144774022,40.144508592157514],[19.634421693750177,40.14450826622549],[19.63442195487338,40.14450794767906],[19.634422228780533,40.14450763558978],[19.634422517782898,40.14450733178679],[19.634422819551183,40.14450703534167],[19.6344231340854,40.14450674625443],[19.634423461349456,40.14450646632648],[19.634423801361404,40.144506194657104],[19.63442415292954,40.144505932133185],[19.634424516035832,40.1445056796554],[19.634424889524656,40.1445054363092],[19.63442527455163,40.14450520300915],[19.634425668769442,40.14450497972754],[19.634426073333724,40.14450476737896],[19.6344557212329,40.14450153412613],[19.63452023458418,40.144494510204645],[19.63453417963469,40.14449299176175],[19.634533850267402,40.14449120767115],[19.634561062698214,40.144488244771516],[19.6345757553122,40.1445139400413],[19.634575974153577,40.14451391559473],[19.634592464011895,40.144603105956],[19.634542501623514,40.144608541140784]]]},"properties":{"OBJECTID":86211,"SIP":148.695443645,"drejtoria":"VLORE","Shape_Leng":65.2641067962,"Shape_Area":148.695443645}},
{"type":"Feature","geometry":{"type":"Polygon","coordinates":[[[19.634491930589395,40.14462684138507],[19.634480377808746,40.14456435467256],[19.63453326739112,40.14455859637405],[19.634542501623514,40.144608541140784],[19.634544974872117,40.144621919152435],[19.634496737109775,40.144627171951285],[19.634492085223265,40.14462767835612],[19.634491930589395,40.14462684138507]]]},"properties":{"OBJECTID":86212,"SIP":32.3120648359,"drejtoria":"VLORE","Shape_Leng":23.3019843943,"Shape_Area":32.3120648359}},
{"type":"Feature","geometry":{"type":"Polygon","coordinates":[[[19.63431826952751,40.144678101066305],[19.634267732119415,40.144683697820255],[19.63424618971213,40.1445691456452],[19.63424614324707,40.14456777300504],[19.634399288294777,40.14455080978925],[19.634423301955806,40.144678499383815],[19.634373357522662,40.14468403110476],[19.634361751808378,40.14462231674134],[19.634308880150044,40.14462817337214],[19.63431826952751,40.144678101066305]]]},"properties":{"OBJECTID":86213,"SIP":151.794834963,"drejtoria":"VLORE","Shape_Leng":66.2268898692,"Shape_Area":151.794834963}},
{"type":"Feature","geometry":{"type":"Polygon","coordinates":[[[19.63431826952751,40.144678101066305],[19.634308880150044,40.14462817337214],[19.634361751808378,40.14462231674134],[19.634373357522662,40.14468403110476],[19.63437365560915,40.14468561842756],[19.634320783920472,40.14469147416221],[19.63431826952751,40.144678101066305]]]},"properties":{"OBJECTID":86214,"SIP":32.3118997569,"drejtoria":"VLORE","Shape_Leng":23.3019202902,"Shape_Area":32.3118997569}}
]}