{"type":"FeatureCollection", "features": [
{"type":"Feature","geometry":{"type":"Polygon","coordinates":[[[19.62578015755558,40.154093237105705],[19.625626942766274,40.15390617691204],[19.62587904666201,40.15385134154112],[19.625934431642712,40.153924113327285],[19.62597683838442,40.15390469318841],[19.6260312772295,40.1539655447157],[19.62599135365087,40.15399877981084],[19.62578015755558,40.154093237105705]]]},"properties":{"AREA":0,"STRING":"200/237"}},
{"type":"Feature","geometry":{"type":"Polygon","coordinates":[[[19.633931045642743,40.14588290914343],[19.63390685747925,40.14582934826377],[19.63410199329069,40.14576172463805],[19.63416191524839,40.14589317067809],[19.633958349207706,40.14594336848235],[19.633931045642743,40.14588290914343]]]},"properties":{"AREA":0,"STRING":"77/31"}},
{"type":"Feature","geometry":{"type":"Polygon","coordinates":[[[19.631135780420557,40.156647362318495],[19.631209331181395,40.15680095844777],[19.63103571119511,40.15678919087391],[19.630972247293826,40.156778931744505],[19.63094186423128,40.156764483245226],[19.63092078223383,40.15674217215883],[19.630912988286976,40.15669963795779],[19.630912573019916,40.156686063311106],[19.631061236267684,40.15666680652195],[19.631135780420557,40.156647362318495]]]},"properties":{"AREA":0,"STRING":"200/126"}},
{"type":"Feature","geometry":{"type":"Polygon","coordinates":[[[19.63449669956223,40.14619081297765],[19.63445097079316,40.14609779996351],[19.63472094330759,40.14606511631986],[19.634747201113775,40.146206507951106],[19.634727648025585,40.14622572258381],[19.634508176197507,40.14624502244491],[19.63449669956223,40.14619081297765]]]},"properties":{"AREA":0,"STRING":"74/35"}},
{"type":"Feature","geometry":{"type":"Polygon","coordinates":[[[19.660291720415568,40.12850991376035],[19.660317770240994,40.12835246344064],[19.66064836430167,40.128389161276836],[19.660644709552646,40.128426553391314],[19.660609809100084,40.12854070519442],[19.660516530669973,40.12853163015113],[19.660402048155895,40.12852048199984],[19.660291720415568,40.12850991376035]]]},"properties":{"AREA":0,"STRING":"202/55"}},
{"type":"Feature","geometry":{"type":"Polygon","coordinates":[[[19.637855431852145,40.14312863589571],[19.63796388885649,40.143070439143905],[19.638038994880244,40.14315781704321],[19.638017143627756,40.143171900196954],[19.638024414919762,40.14317776311481],[19.63796643171846,40.14322493519844],[19.637941027647283,40.14321779433235],[19.637911355189697,40.143199009580336],[19.637855431852145,40.14312863589571]]]},"properties":{"AREA":0,"STRING":"200/227"}},
{"type":"Feature","geometry":{"type":"Polygon","coordinates":[[[19.633633556427338,40.149488235301824],[19.63365596359561,40.14950846149939],[19.633650218576758,40.14951365116643],[19.63364470583794,40.14951898712896],[19.63363943170108,40.149524463267824],[19.63363440221449,40.14953007330308],[19.633629623145918,40.149535810801325],[19.63362509997596,40.14954166918291],[19.633620837891733,40.149547641729576],[19.633616841780974,40.14955372159215],[19.6336131162264,40.14955990179839],[19.63360966550047,40.14956617526097],[19.63360649356047,40.14957253478562],[19.63360360404399,40.149578973079386],[19.633601000264747,40.149585482758965],[19.63359868520878,40.149592056359204],[19.63359666153103,40.14959868634163],[19.63359493155229,40.14960536510312],[19.633593497256562,40.14961208498461],[19.633592360288745,40.14961883827987],[19.63359152195278,40.14962561724436],[19.633590983210148,40.14963241410408],[19.63352375649215,40.14963220136207],[19.633522347270343,40.14962361990047],[19.633520560089657,40.14961507998977],[19.633518397001055,40.149606591429716],[19.633515860486874,40.1495981639611],[19.633512953457945,40.1495898072546],[19.633509679250285,40.149581530899674],[19.63350604162123,40.149573344393644],[19.633502044745168,40.14956525713064],[19.633497693208707,40.149557278390965],[19.633492992005436,40.149549417330356],[19.63348794653019,40.14954168296951],[19.63348256257286,40.14953408418374],[19.633476846311723,40.14952662969279],[19.6334708043064,40.1495193280508],[19.633464443490286,40.14951218763651],[19.633457771162618,40.149505216643675],[19.63347971437315,40.14948486907074],[19.63348905273793,40.14948700396103],[19.633498482258446,40.149488888193375],[19.633507991512843,40.14949051948542],[19.633517568982683,40.14949189586121],[19.633527203066887,40.14949301565353],[19.633536882095818,40.149493877506025],[19.63354659434538,40.14949448037472],[19.633556328051238,40.14949482352937],[19.63356607142308,40.149494906554324],[19.633575812658865,40.149494729349],[19.633585539959157,40.14949429212806],[19.633595241541386,40.149493595421106],[19.63360490565415,40.149492640072026],[19.63361452059142,40.149491427238054],[19.63362407470674,40.149489958388244],[19.633633556427338,40.149488235301824]]]},"properties":{"AREA":0,"STRING":"75/117-ND1"}},
{"type":"Feature","geometry":{"type":"Polygon","coordinates":[[[19.632094594219684,40.15541734299864],[19.631942160788988,40.155451115948566],[19.631887204653328,40.15529001699416],[19.632056391803932,40.15526758655302],[19.632094594219684,40.15541734299864]]]},"properties":{"AREA":0,"STRING":"65/122"}},
{"type":"Feature","geometry":{"type":"Polygon","coordinates":[[[19.634992513089855,40.145280842916875],[19.635014041493122,40.14527753866497],[19.63503727906095,40.145376136573645],[19.635013967723754,40.14538015417585],[19.635024704583124,40.145419753305625],[19.63492429819503,40.14543578646494],[19.634871760675658,40.14529937632418],[19.634992513089855,40.145280842916875]]]},"properties":{"AREA":0,"STRING":"200/548"}},
{"type":"Feature","geometry":{"type":"Polygon","coordinates":[[[19.62201156764249,40.153394161781904],[19.62194944261198,40.15333917992908],[19.621847667760132,40.15322506584954],[19.621812372619793,40.153205278416934],[19.621994210848584,40.153103087727764],[19.622047783622,40.15311985808064],[19.622212086469798,40.153287781937244],[19.62201156764249,40.153394161781904]]]},"properties":{"AREA":0,"STRING":"200/217"}},
{"type":"Feature","geometry":{"type":"Polygon","coordinates":[[[19.625255789854346,40.15671595525365],[19.62515421540026,40.15668185990665],[19.625194783497303,40.15661557610523],[19.625327446257607,40.1566814635578],[19.625338404238843,40.15669298612105],[19.625345417037337,40.156689094074146],[19.62556316469698,40.15684409574844],[19.625426079346067,40.156930029359295],[19.625339441376337,40.1568306801637],[19.625255789854346,40.15671595525365]]]},"properties":{"AREA":0,"STRING":"200/190"}},
{"type":"Feature","geometry":{"type":"Polygon","coordinates":[[[19.63931282235356,40.142370411694145],[19.639398874101456,40.14233501120186],[19.639474374198397,40.1424417197515],[19.63938619645859,40.14246738567035],[19.63931282235356,40.142370411694145]]]},"properties":{"AREA":0,"STRING":"200/198"}},
{"type":"Feature","geometry":{"type":"Polygon","coordinates":[[[19.62417437173616,40.155093655568834],[19.623979084976824,40.15498587456098],[19.62410408573522,40.15486430582936],[19.624195257160437,40.154892432757926],[19.624303693625016,40.154962755077236],[19.62417437173616,40.155093655568834]]]},"properties":{"AREA":0,"STRING":"200/175"}},
{"type":"Feature","geometry":{"type":"Polygon","coordinates":[[[19.62313338460908,40.155261126987085],[19.623088948126473,40.15539069215666],[19.622964120384587,40.15536548618962],[19.623028127426206,40.15523662021497],[19.623054510721925,40.155229816340736],[19.623119667582596,40.155143035702565],[19.623197365044028,40.15516855118495],[19.62313338460908,40.155261126987085]]]},"properties":{"AREA":0,"STRING":"200/153"}},
{"type":"Feature","geometry":{"type":"Polygon","coordinates":[[[19.63401443331891,40.15500239380892],[19.63409923009799,40.15482669792276],[19.634318714803463,40.1548808740718],[19.634244174481818,40.155057009272326],[19.63401443331891,40.15500239380892]]]},"properties":{"AREA":0,"STRING":"200/202"}},
{"type":"Feature","geometry":{"type":"Polygon","coordinates":[[[19.634283351361105,40.14707968973737],[19.634288758724193,40.146894654844814],[19.634551873112322,40.14688622680929],[19.634554994426978,40.14708679692869],[19.634283351361105,40.14707968973737]]]},"properties":{"AREA":0,"STRING":"74/82"}},
{"type":"Feature","geometry":{"type":"Polygon","coordinates":[[[19.63276790709916,40.157631539622884],[19.632697237002812,40.157571196618065],[19.63265549389245,40.157471552503175],[19.632644672329725,40.157401989821096],[19.632825770761908,40.157365916216484],[19.632962405086058,40.157589719263335],[19.63276790709916,40.157631539622884]]]},"properties":{"AREA":0,"STRING":"200/1195"}},
{"type":"Feature","geometry":{"type":"Polygon","coordinates":[[[19.640843532448905,40.141348923936924],[19.64087687703294,40.141381338296114],[19.640849688686288,40.14139664270487],[19.640933308450432,40.1414766820777],[19.640778711449855,40.14156799797257],[19.64062430354413,40.141417713383134],[19.640821843702746,40.14132784022718],[19.640843532448905,40.141348923936924]]]},"properties":{"AREA":0,"STRING":"200/162"}},
{"type":"Feature","geometry":{"type":"Polygon","coordinates":[[[19.62539209370548,40.15340449514677],[19.625521822573802,40.153540386647414],[19.62545929610094,40.1535763007698],[19.625327146774673,40.153444723229164],[19.62539209370548,40.15340449514677]]]},"properties":{"AREA":0,"STRING":"200/220"}},
{"type":"Feature","geometry":{"type":"Polygon","coordinates":[[[19.630981521669533,40.15291847791017],[19.630920311336872,40.15277929000059],[19.630884657711217,40.15278616671585],[19.630845809703903,40.15266757214732],[19.630981803047742,40.15262988920677],[19.631035587442767,40.152752033021535],[19.631070905981304,40.1528585067163],[19.63109459674238,40.15291382872485],[19.630990968040564,40.152939958227556],[19.630981521669533,40.15291847791017]]]},"properties":{"AREA":0,"STRING":"200/158"}},
{"type":"Feature","geometry":{"type":"Polygon","coordinates":[[[19.63935192703334,40.142964845429105],[19.639248023423246,40.14284010697517],[19.639368681097803,40.1427472673452],[19.639482885333038,40.142695282355845],[19.63961136602187,40.142866219675476],[19.63935192703334,40.142964845429105]]]},"properties":{"AREA":0,"STRING":"200/134"}},
{"type":"Feature","geometry":{"type":"Polygon","coordinates":[[[19.631098638424344,40.15760888905641],[19.631054547716523,40.15756671936152],[19.6309859042153,40.157479899726624],[19.63147902874734,40.15722009698257],[19.631609156244625,40.15736627065729],[19.63112432209031,40.15763345366448],[19.631098638424344,40.15760888905641]]]},"properties":{"AREA":0,"STRING":"200/156"}},
{"type":"Feature","geometry":{"type":"Polygon","coordinates":[[[19.62953857681584,40.15731725923504],[19.629448849935816,40.157210774311366],[19.629625456443286,40.15711842933567],[19.629676140534773,40.157173213220354],[19.629701129599855,40.157245556400326],[19.62953857681584,40.15731725923504]]]},"properties":{"AREA":0,"STRING":"200/208"}},
{"type":"Feature","geometry":{"type":"Polygon","coordinates":[[[19.638579680707977,40.14313117550578],[19.638588337371456,40.143141498156105],[19.638508573748453,40.14317718079658],[19.638490073553136,40.14322744318173],[19.638502716115163,40.143241093358505],[19.638381884606478,40.14330700642652],[19.638216488338568,40.14333646652779],[19.638187148859494,40.14329590405206],[19.63814811732415,40.14322382150257],[19.63821283888334,40.14319960491305],[19.638137891037726,40.14308846738006],[19.638075889733752,40.14300244823181],[19.638028302485186,40.14293542490267],[19.638000163975093,40.14289946525733],[19.63822717132414,40.142772043313535],[19.638517179279454,40.14309696722131],[19.638541089613582,40.1430851574561],[19.638579680707977,40.14313117550578]]]},"properties":{"AREA":0,"STRING":"200/205"}},
{"type":"Feature","geometry":{"type":"Polygon","coordinates":[[[19.626954294486335,40.15371039688799],[19.627029209568768,40.15376912779158],[19.626817501336316,40.15397667502264],[19.62662309855338,40.1538727546284],[19.62671269420216,40.15380457256151],[19.62680090916296,40.153756341209096],[19.626882767481106,40.153729231469626],[19.626954294486335,40.15371039688799]]]},"properties":{"AREA":0,"STRING":"200/147"}},
{"type":"Feature","geometry":{"type":"Polygon","coordinates":[[[19.637336403982292,40.14340797353903],[19.637296095505693,40.14331916317199],[19.637442429541174,40.143262773157055],[19.63750254239424,40.14334028475313],[19.637336403982292,40.14340797353903]]]},"properties":{"AREA":0,"STRING":"200/166"}},
{"type":"Feature","geometry":{"type":"Polygon","coordinates":[[[19.623864225673387,40.15421909941967],[19.623921049910813,40.1540472624216],[19.624195260417373,40.154095819801704],[19.624140433825026,40.154285050363384],[19.623864225673387,40.15421909941967]]]},"properties":{"AREA":0,"STRING":"200/144"}},
{"type":"Feature","geometry":{"type":"Polygon","coordinates":[[[19.640843532448905,40.141348923936924],[19.640923803458428,40.14130575069715],[19.64094176541679,40.14130580639179],[19.6410569928569,40.14142712541126],[19.640942313823043,40.14148566201275],[19.640933308450432,40.1414766820777],[19.640849688686288,40.14139664270487],[19.64087687703294,40.141381338296114],[19.640843532448905,40.141348923936924]]]},"properties":{"AREA":0,"STRING":"200/164"}},
{"type":"Feature","geometry":{"type":"Polygon","coordinates":[[[19.638654335989774,40.14297730417967],[19.63872288779661,40.14305174190493],[19.63865178482423,40.14309150549866],[19.63858119723333,40.14301993082277],[19.638654335989774,40.14297730417967]]]},"properties":{"AREA":0,"STRING":"200/149"}},
{"type":"Feature","geometry":{"type":"Polygon","coordinates":[[[19.600856263931696,40.15975613389155],[19.600739790298643,40.159588308051],[19.600725893817565,40.15953827047054],[19.600835729139124,40.15952826414509],[19.60095884535745,40.159660424902626],[19.60092141940931,40.15968733366459],[19.600934348359374,40.15970714288267],[19.600913936363323,40.15971498556094],[19.600923845427367,40.15973016782914],[19.600856263931696,40.15975613389155]]]},"properties":{"AREA":0,"STRING":"300/142"}},
{"type":"Feature","geometry":{"type":"Polygon","coordinates":[[[19.62641829445304,40.15361945313023],[19.62641521888149,40.15352750626419],[19.62637425170847,40.15343787412436],[19.626560325007194,40.153374927480726],[19.626633670762537,40.15351000392166],[19.626631544919455,40.15353868557984],[19.626665795725263,40.15360035865289],[19.62645288348862,40.153672734196],[19.62641829445304,40.15361945313023]]]},"properties":{"AREA":0,"STRING":"200/122"}},
{"type":"Feature","geometry":{"type":"Polygon","coordinates":[[[19.61050020677035,40.15716896097168],[19.610818378093633,40.15702343196689],[19.611013964902035,40.15727511206391],[19.61073212332382,40.15738469810141],[19.610698618245586,40.15735991268773],[19.610648820745606,40.15737880304427],[19.61050020677035,40.15716896097168]]]},"properties":{"AREA":0,"STRING":"200/173"}},
{"type":"Feature","geometry":{"type":"Polygon","coordinates":[[[19.625428669782792,40.15420768052426],[19.62550495221535,40.154287889196574],[19.625373985874838,40.15436833311202],[19.625219960180335,40.15444353657286],[19.62507393788643,40.15439000163396],[19.62509202001432,40.15432679438265],[19.62519316552381,40.15431691684521],[19.625247346806688,40.15430076537131],[19.625295746616175,40.15424990133244],[19.62530092549358,40.154232911669034],[19.625310599886593,40.15421025136375],[19.6253876427459,40.15416454173615],[19.625428669782792,40.15420768052426]]]},"properties":{"AREA":0,"STRING":"200/136"}},
{"type":"Feature","geometry":{"type":"Polygon","coordinates":[[[19.61054326411565,40.15760638053463],[19.61048993161733,40.15748981985911],[19.61083064048632,40.15737230112827],[19.610892435130296,40.15747616336288],[19.610735730577336,40.157524837579814],[19.610749111896478,40.15754981939487],[19.61054326411565,40.15760638053463]]]},"properties":{"AREA":0,"STRING":"200/170"}},
{"type":"Feature","geometry":{"type":"Polygon","coordinates":[[[19.611507730230457,40.15506593058391],[19.611607643710524,40.15514649938263],[19.61164479980951,40.155160952057784],[19.611656830770073,40.15515195845193],[19.61177395386311,40.15527389820091],[19.611868962169115,40.15535524850537],[19.61171473266755,40.15544589238185],[19.611144425526142,40.155033958581186],[19.611332016583887,40.15490914502644],[19.611409113871026,40.154967722927715],[19.611507730230457,40.15506593058391]]]},"properties":{"AREA":0,"STRING":"200/290"}},
{"type":"Feature","geometry":{"type":"Polygon","coordinates":[[[19.609335323972797,40.15668297675296],[19.60944639592624,40.15662039329187],[19.609468696450755,40.15664369467771],[19.609409285135307,40.15667694143615],[19.60941222985478,40.156680018317765],[19.60936056919785,40.15670935504275],[19.609335323972797,40.15668297675296]]]},"properties":{"AREA":0,"STRING":"200/207"}},
{"type":"Feature","geometry":{"type":"Polygon","coordinates":[[[19.612441021467983,40.1571327480205],[19.612308124015275,40.15707899101273],[19.612448611285,40.15681660051032],[19.612578547944484,40.15688145385124],[19.612441021467983,40.1571327480205]]]},"properties":{"AREA":0,"STRING":"200/212"}},
{"type":"Feature","geometry":{"type":"Polygon","coordinates":[[[19.61050020677035,40.15716896097168],[19.61050050622268,40.15711655129445],[19.610481656948373,40.15708564271034],[19.610445871843247,40.15705197145462],[19.61039995208421,40.15706372228693],[19.610364580861695,40.157080919982484],[19.610309242106595,40.15708506258245],[19.610197522295717,40.15691517987696],[19.61023287750057,40.15691037332399],[19.61028516989263,40.156890041110486],[19.610401622281902,40.15684601981622],[19.61057112418304,40.1567523683727],[19.610818378093633,40.15702343196689],[19.61050020677035,40.15716896097168]]]},"properties":{"AREA":0,"STRING":"200/174"}},
{"type":"Feature","geometry":{"type":"Polygon","coordinates":[[[19.62539209370548,40.15340449514677],[19.62546343099899,40.15335834375837],[19.625583744612364,40.153503155475384],[19.625521822573802,40.153540386647414],[19.62539209370548,40.15340449514677]]]},"properties":{"AREA":0,"STRING":"200/219"}},
{"type":"Feature","geometry":{"type":"Polygon","coordinates":[[[19.620730134519157,40.15717122040271],[19.62054751017913,40.1572878289987],[19.620510084554144,40.15728770634712],[19.620337771124863,40.1572033815372],[19.62034368858163,40.15716636228898],[19.620406957900048,40.15712740386302],[19.620492422409338,40.15709911486272],[19.62054688523651,40.15707280788791],[19.62056842346016,40.15705876870581],[19.62058284771664,40.157037650626265],[19.620730134519157,40.15717122040271]]]},"properties":{"AREA":0,"STRING":"63/45"}},
{"type":"Feature","geometry":{"type":"Polygon","coordinates":[[[19.622188213283493,40.1575461840664],[19.622381173666284,40.15740860131609],[19.622413690834538,40.15739892221131],[19.62253871324951,40.157491406241995],[19.62251019301586,40.157571258283966],[19.622382883463196,40.15768915651577],[19.622188213283493,40.1575461840664]]]},"properties":{"AREA":0,"STRING":"200/186"}},
{"type":"Feature","geometry":{"type":"Polygon","coordinates":[[[19.609195456803935,40.156529709760264],[19.609174905022478,40.15650798783132],[19.60928517745975,40.15644656315136],[19.60930534124784,40.15646787495964],[19.609195456803935,40.156529709760264]]]},"properties":{"AREA":0,"STRING":""}},
{"type":"Feature","geometry":{"type":"Polygon","coordinates":[[[19.63750254239424,40.14334028475313],[19.63753151631136,40.14337764465199],[19.63735368736411,40.14344605338209],[19.637336403982292,40.14340797353903],[19.63750254239424,40.14334028475313]]]},"properties":{"AREA":0,"STRING":""}}
]}