{"type":"FeatureCollection", "features": [
{"type":"Feature","geometry":{"type":"Polygon","coordinates":[[[20.049755829306445,41.14212675577262],[20.049755748321598,41.14201960329719],[20.049896300872582,41.142019542504805],[20.049896410067465,41.14216361305924],[20.049807075623505,41.14216365171852],[20.049807047692337,41.142126733639245],[20.049755829306445,41.14212675577262]]]},"properties":{"Zk_Numer":1885,"Zk_Emer":"GURABARDH","Nr_Pas":"34/6-ND","Vol":2,"Faqe":167,"Pronaret":"EDA HIDRI SKENDER, MAJLIND HIDRI QANI","Kufizimet":"KUFIZOHET DERI NE MIRATIMIN E VKM-SE SE TRUALLIT, KUFIZOHET DERI NE PAGESEN ETAKSAVE KJO NDERTESE NDODHET MBI PASURINE ME NR 34/6","Siperfaqe":171.2}},
{"type":"Feature","geometry":{"type":"Polygon","coordinates":[[[20.055349218068454,41.13899138846571],[20.055415718818097,41.13902307959717],[20.05535997609082,41.139089881306724],[20.055247126302607,41.139036102340185],[20.055311253063447,41.138959245850046],[20.05535760202866,41.138981333627854],[20.055349218068454,41.13899138846571]]]},"properties":{"Zk_Numer":1885,"Zk_Emer":"GURABARDH","Nr_Pas":"20/20-ND","Vol":2,"Faqe":72,"Pronaret":"ORTIDO FILJA PETRIT","Kufizimet":"KUFIZOHET DERI NE MIRATIMIN E VKM-SE SE TRUALLIT, KUFIZOHET DERI NE PAGESEN ETAKSAVE KJO NDERTESE NDODHET MBI PASURINE ME NR 20/20","Siperfaqe":104.3}},
{"type":"Feature","geometry":{"type":"Polygon","coordinates":[[[20.063628394324653,41.13639641978056],[20.063650729633597,41.13635821542429],[20.06376451969705,41.1363962391375],[20.063787120698844,41.13635758024349],[20.06386417468452,41.13638332827681],[20.06384157375039,41.13642198722378],[20.063799440831204,41.13640790827344],[20.0637645197424,41.13639623915264],[20.06374122940363,41.13643395330068],[20.063628394324653,41.13639641978056]]]},"properties":{"Zk_Numer":1885,"Zk_Emer":"GURABARDH","Nr_Pas":"","Vol":0,"Faqe":0,"Pronaret":"","Kufizimet":"","Siperfaqe":81.3}},
{"type":"Feature","geometry":{"type":"Polygon","coordinates":[[[20.063692597515423,41.1364648446945],[20.063605421670403,41.136435714259584],[20.063628394324653,41.13639641978056],[20.06374122940363,41.13643395330068],[20.0637645197424,41.13639623915264],[20.063799440831204,41.13640790827344],[20.06375413300899,41.13648540716644],[20.063692597515423,41.1364648446945]]]},"properties":{"Zk_Numer":1885,"Zk_Emer":"GURABARDH","Nr_Pas":"","Vol":0,"Faqe":0,"Pronaret":"","Kufizimet":"","Siperfaqe":80.3}},
{"type":"Feature","geometry":{"type":"Polygon","coordinates":[[[20.063692597515423,41.1364648446945],[20.063671657778468,41.136500661926206],[20.06358448189525,41.13647153147564],[20.063605421670403,41.136435714259584],[20.063692597515423,41.1364648446945]]]},"properties":{"Zk_Numer":1885,"Zk_Emer":"GURABARDH","Nr_Pas":"","Vol":0,"Faqe":0,"Pronaret":"","Kufizimet":"","Siperfaqe":34.8}},
{"type":"Feature","geometry":{"type":"Polygon","coordinates":[[[20.05027880791347,41.14158514758939],[20.050311813880754,41.14148736849549],[20.050494166456758,41.14152254557892],[20.05047537936364,41.14157820221855],[20.050445371940608,41.141572413599604],[20.0504311533018,41.1416145361017],[20.05027880791347,41.14158514758939]]]},"properties":{"Zk_Numer":1885,"Zk_Emer":"GURABARDH","Nr_Pas":"","Vol":0,"Faqe":0,"Pronaret":"","Kufizimet":"","Siperfaqe":164.5}},
{"type":"Feature","geometry":{"type":"Polygon","coordinates":[[[20.04978302321823,41.14167359857074],[20.049739832593115,41.14160938778429],[20.04985662354165,41.14156449323656],[20.04989981425114,41.14162870397968],[20.04978302321823,41.14167359857074]]]},"properties":{"Zk_Numer":1885,"Zk_Emer":"GURABARDH","Nr_Pas":"","Vol":0,"Faqe":0,"Pronaret":"","Kufizimet":"","Siperfaqe":88}},
{"type":"Feature","geometry":{"type":"Polygon","coordinates":[[[20.055715450532094,41.13995190444901],[20.055774431999748,41.14003569178627],[20.05564824196854,41.14008645924992],[20.055589260615857,41.14000267184873],[20.055715450532094,41.13995190444901]]]},"properties":{"Zk_Numer":1885,"Zk_Emer":"GURABARDH","Nr_Pas":"","Vol":0,"Faqe":0,"Pronaret":"","Kufizimet":"","Siperfaqe":126.5}},
{"type":"Feature","geometry":{"type":"Polygon","coordinates":[[[20.05545835237021,41.1399175302566],[20.055384445214468,41.13982163848332],[20.05549427853016,41.13977325850579],[20.055568185791405,41.139869150209364],[20.05545835237021,41.1399175302566]]]},"properties":{"Zk_Numer":1885,"Zk_Emer":"GURABARDH","Nr_Pas":"","Vol":0,"Faqe":0,"Pronaret":"","Kufizimet":"","Siperfaqe":131.5}},
{"type":"Feature","geometry":{"type":"Polygon","coordinates":[[[20.054736101194756,41.139390779495905],[20.054829409080632,41.13940393875093],[20.05481180104831,41.139475294781484],[20.054718493064794,41.13946213551242],[20.054736101194756,41.139390779495905]]]},"properties":{"Zk_Numer":1885,"Zk_Emer":"GURABARDH","Nr_Pas":"","Vol":0,"Faqe":0,"Pronaret":"","Kufizimet":"","Siperfaqe":64.2}},
{"type":"Feature","geometry":{"type":"Polygon","coordinates":[[[20.05042433452877,41.143814818396706],[20.050367459870156,41.14376435073272],[20.050417667416983,41.1437320091715],[20.050439314160315,41.14375111901971],[20.05047693024877,41.143726888298815],[20.050512158179476,41.14375824607868],[20.05042433452877,41.143814818396706]]]},"properties":{"Zk_Numer":1885,"Zk_Emer":"GURABARDH","Nr_Pas":"","Vol":0,"Faqe":0,"Pronaret":"","Kufizimet":"","Siperfaqe":59.8}},
{"type":"Feature","geometry":{"type":"Polygon","coordinates":[[[20.050611984139874,41.1437652818333],[20.05054911967289,41.1437062305113],[20.050648198901584,41.14364595610234],[20.050711063399778,41.14370500737089],[20.050611984139874,41.1437652818333]]]},"properties":{"Zk_Numer":1885,"Zk_Emer":"GURABARDH","Nr_Pas":"","Vol":0,"Faqe":0,"Pronaret":"","Kufizimet":"","Siperfaqe":89.9}},
{"type":"Feature","geometry":{"type":"Polygon","coordinates":[[[20.049674230183335,41.14358796728906],[20.049741948454464,41.14363113507822],[20.049666276135746,41.14369897081074],[20.04959855784437,41.14365580297759],[20.049674230183335,41.14358796728906]]]},"properties":{"Zk_Numer":1885,"Zk_Emer":"GURABARDH","Nr_Pas":"","Vol":0,"Faqe":0,"Pronaret":"","Kufizimet":"","Siperfaqe":73.3}},
{"type":"Feature","geometry":{"type":"Polygon","coordinates":[[[20.04965395406337,41.14347409760132],[20.04973419751126,41.14345171196459],[20.04977986747264,41.143545262732914],[20.04969962392631,41.143567648401124],[20.04965395406337,41.14347409760132]]]},"properties":{"Zk_Numer":1885,"Zk_Emer":"GURABARDH","Nr_Pas":"","Vol":0,"Faqe":0,"Pronaret":"","Kufizimet":"","Siperfaqe":79.5}},
{"type":"Feature","geometry":{"type":"Polygon","coordinates":[[[20.060512428597068,41.14291789686287],[20.060573249855388,41.14293353520999],[20.06058597220543,41.14290525924113],[20.060670720477997,41.14292704962936],[20.06063959186206,41.142996234466054],[20.060494022218908,41.14295880569855],[20.060512428597068,41.14291789686287]]]},"properties":{"Zk_Numer":1885,"Zk_Emer":"GURABARDH","Nr_Pas":"","Vol":0,"Faqe":0,"Pronaret":"","Kufizimet":"","Siperfaqe":86.9}},
{"type":"Feature","geometry":{"type":"Polygon","coordinates":[[[20.060425618886924,41.14290216551422],[20.06045012080287,41.14283096762771],[20.06051216868615,41.14284317001976],[20.060487666832802,41.142914367919275],[20.060425618886924,41.14290216551422]]]},"properties":{"Zk_Numer":1885,"Zk_Emer":"GURABARDH","Nr_Pas":"","Vol":0,"Faqe":0,"Pronaret":"","Kufizimet":"","Siperfaqe":44}},
{"type":"Feature","geometry":{"type":"Polygon","coordinates":[[[20.058453166550507,41.142136910824874],[20.058584938785547,41.142183737430976],[20.058542913513815,41.14225132037926],[20.05841114117328,41.142204493725714],[20.058453166550507,41.142136910824874]]]},"properties":{"Zk_Numer":1885,"Zk_Emer":"GURABARDH","Nr_Pas":"","Vol":0,"Faqe":0,"Pronaret":"","Kufizimet":"","Siperfaqe":101.4}},
{"type":"Feature","geometry":{"type":"Polygon","coordinates":[[[20.056191706421238,41.13969420057134],[20.05610973168068,41.1397595262777],[20.055997397186566,41.13967896288662],[20.056079371938456,41.139613637259274],[20.056191706421238,41.13969420057134]]]},"properties":{"Zk_Numer":1885,"Zk_Emer":"GURABARDH","Nr_Pas":"","Vol":0,"Faqe":0,"Pronaret":"","Kufizimet":"","Siperfaqe":130}},
{"type":"Feature","geometry":{"type":"Polygon","coordinates":[[[20.05745483603722,41.14019763584824],[20.05756992351747,41.14024970036465],[20.05751973537692,41.14031310315161],[20.05740464782541,41.140261038585685],[20.05745483603722,41.14019763584824]]]},"properties":{"Zk_Numer":1885,"Zk_Emer":"GURABARDH","Nr_Pas":"","Vol":0,"Faqe":0,"Pronaret":"","Kufizimet":"","Siperfaqe":92.4}},
{"type":"Feature","geometry":{"type":"Polygon","coordinates":[[[20.056773720779354,41.13988397380638],[20.056852274178546,41.13991951146469],[20.056873677657627,41.13992919441003],[20.056824040438233,41.139991900388324],[20.056802636946045,41.139982217433875],[20.056774607171846,41.14001762696352],[20.05669605369739,41.139982089252904],[20.056773720779354,41.13988397380638]]]},"properties":{"Zk_Numer":1885,"Zk_Emer":"GURABARDH","Nr_Pas":"","Vol":0,"Faqe":0,"Pronaret":"","Kufizimet":"","Siperfaqe":114.6}},
{"type":"Feature","geometry":{"type":"Polygon","coordinates":[[[20.063699064351233,41.137189695845784],[20.063551893137326,41.13717987752693],[20.063561846703386,41.137094602391635],[20.063709017728144,41.137104420698044],[20.063699064351233,41.137189695845784]]]},"properties":{"Zk_Numer":1885,"Zk_Emer":"GURABARDH","Nr_Pas":"","Vol":0,"Faqe":0,"Pronaret":"","Kufizimet":"","Siperfaqe":117.9}},
{"type":"Feature","geometry":{"type":"Polygon","coordinates":[[[20.06344234862948,41.13710235942724],[20.063413388000864,41.13718021974378],[20.06326281628357,41.13714820876641],[20.06329177707625,41.13707034848718],[20.06344234862948,41.13710235942724]]]},"properties":{"Zk_Numer":1885,"Zk_Emer":"GURABARDH","Nr_Pas":"","Vol":0,"Faqe":0,"Pronaret":"","Kufizimet":"","Siperfaqe":118}},
{"type":"Feature","geometry":{"type":"Polygon","coordinates":[[[20.0634404723229,41.13754107895202],[20.06358039828692,41.137514407516385],[20.063595385650043,41.1375593474519],[20.063455459596636,41.137586018905594],[20.0634404723229,41.13754107895202]]]},"properties":{"Zk_Numer":1885,"Zk_Emer":"GURABARDH","Nr_Pas":"","Vol":0,"Faqe":0,"Pronaret":"","Kufizimet":"","Siperfaqe":62.4}},
{"type":"Feature","geometry":{"type":"Polygon","coordinates":[[[20.063414961774797,41.137395385297516],[20.06347388724714,41.137383472361336],[20.063501386667774,41.13746121612365],[20.063442461130865,41.137473129073776],[20.063414961774797,41.137395385297516]]]},"properties":{"Zk_Numer":1885,"Zk_Emer":"GURABARDH","Nr_Pas":"","Vol":0,"Faqe":0,"Pronaret":"","Kufizimet":"","Siperfaqe":45.8}},
{"type":"Feature","geometry":{"type":"Polygon","coordinates":[[[20.063323745144704,41.13735668175597],[20.06339330805954,41.13738494040906],[20.06333187617149,41.13747137327793],[20.063262313191615,41.13744311458822],[20.063323745144704,41.13735668175597]]]},"properties":{"Zk_Numer":1885,"Zk_Emer":"GURABARDH","Nr_Pas":"","Vol":0,"Faqe":0,"Pronaret":"","Kufizimet":"","Siperfaqe":72.2}},
{"type":"Feature","geometry":{"type":"Polygon","coordinates":[[[20.063957550665066,41.13717291280796],[20.063973888238916,41.13724700167937],[20.06385555020252,41.13726191650949],[20.063839212758086,41.13718782762138],[20.063957550665066,41.13717291280796]]]},"properties":{"Zk_Numer":1885,"Zk_Emer":"GURABARDH","Nr_Pas":"","Vol":0,"Faqe":0,"Pronaret":"","Kufizimet":"","Siperfaqe":84}},
{"type":"Feature","geometry":{"type":"Polygon","coordinates":[[[20.064043788440845,41.13732481315801],[20.064049840025966,41.137407831195624],[20.06390702741591,41.13741378118085],[20.063900976010288,41.13733076313567],[20.064043788440845,41.13732481315801]]]},"properties":{"Zk_Numer":1885,"Zk_Emer":"GURABARDH","Nr_Pas":"","Vol":0,"Faqe":0,"Pronaret":"","Kufizimet":"","Siperfaqe":110.9}},
{"type":"Feature","geometry":{"type":"Polygon","coordinates":[[[20.06341534185448,41.13852621200967],[20.06330347981873,41.13856013482192],[20.063246551804067,41.13845284418749],[20.063358413687002,41.138418921430016],[20.06341534185448,41.13852621200967]]]},"properties":{"Zk_Numer":1885,"Zk_Emer":"GURABARDH","Nr_Pas":"","Vol":0,"Faqe":0,"Pronaret":"","Kufizimet":"","Siperfaqe":129.9}},
{"type":"Feature","geometry":{"type":"Polygon","coordinates":[[[20.06348510967782,41.13869513718973],[20.063397069937785,41.13873701903342],[20.063313029979884,41.13863605165741],[20.063401069638534,41.13859416987726],[20.06348510967782,41.13869513718973]]]},"properties":{"Zk_Numer":1885,"Zk_Emer":"GURABARDH","Nr_Pas":"","Vol":0,"Faqe":0,"Pronaret":"","Kufizimet":"","Siperfaqe":115.7}},
{"type":"Feature","geometry":{"type":"Polygon","coordinates":[[[20.062688453786354,41.13772643931655],[20.062679732467316,41.137810006870176],[20.06256026993887,41.137802881067564],[20.06256899140861,41.13771931352279],[20.062688453786354,41.13772643931655]]]},"properties":{"Zk_Numer":1885,"Zk_Emer":"GURABARDH","Nr_Pas":"","Vol":0,"Faqe":0,"Pronaret":"","Kufizimet":"","Siperfaqe":93.7}},
{"type":"Feature","geometry":{"type":"Polygon","coordinates":[[[20.062484911928966,41.137668830722596],[20.062557620071345,41.13767316775161],[20.062544074001067,41.137802963529104],[20.06247136571623,41.13779862649172],[20.062484911928966,41.137668830722596]]]},"properties":{"Zk_Numer":1885,"Zk_Emer":"GURABARDH","Nr_Pas":"","Vol":0,"Faqe":0,"Pronaret":"","Kufizimet":"","Siperfaqe":88.5}},
{"type":"Feature","geometry":{"type":"Polygon","coordinates":[[[20.06237724905492,41.13776369135197],[20.06237730916835,41.13782714443654],[20.062229057178925,41.1378272246148],[20.062228997208365,41.137763771530054],[20.06237724905492,41.13776369135197]]]},"properties":{"Zk_Numer":1885,"Zk_Emer":"GURABARDH","Nr_Pas":"","Vol":0,"Faqe":0,"Pronaret":"","Kufizimet":"","Siperfaqe":87.7}},
{"type":"Feature","geometry":{"type":"Polygon","coordinates":[[[20.06235525534949,41.137684838566216],[20.06246366353209,41.13769576632836],[20.06244996656178,41.1377734288835],[20.062399853241146,41.137768377373455],[20.0624065950863,41.137730150938495],[20.06234830013196,41.13772427467709],[20.06235525534949,41.137684838566216]]]},"properties":{"Zk_Numer":1885,"Zk_Emer":"GURABARDH","Nr_Pas":"","Vol":0,"Faqe":0,"Pronaret":"","Kufizimet":"","Siperfaqe":58.8}},
{"type":"Feature","geometry":{"type":"Polygon","coordinates":[[[20.059888304890478,41.138549738903045],[20.059819071749626,41.13860105474946],[20.059775402641357,41.138567381860554],[20.059844635780898,41.138516066040104],[20.059888304890478,41.138549738903045]]]},"properties":{"Zk_Numer":1885,"Zk_Emer":"GURABARDH","Nr_Pas":"","Vol":0,"Faqe":0,"Pronaret":"","Kufizimet":"","Siperfaqe":42.6}},
{"type":"Feature","geometry":{"type":"Polygon","coordinates":[[[20.060352999227735,41.13844851095321],[20.060474023117717,41.13852070885737],[20.060440479561017,41.13855284545919],[20.06031945564866,41.13848064752019],[20.060352999227735,41.13844851095321]]]},"properties":{"Zk_Numer":1885,"Zk_Emer":"GURABARDH","Nr_Pas":"","Vol":0,"Faqe":0,"Pronaret":"","Kufizimet":"","Siperfaqe":58.8}},
{"type":"Feature","geometry":{"type":"Polygon","coordinates":[[[20.060526911988955,41.13905936511974],[20.060525824829792,41.1391538973152],[20.060369504797862,41.13915286975152],[20.060370592181457,41.139058337557366],[20.060526911988955,41.13905936511974]]]},"properties":{"Zk_Numer":1885,"Zk_Emer":"GURABARDH","Nr_Pas":"","Vol":0,"Faqe":0,"Pronaret":"","Kufizimet":"","Siperfaqe":137.8}},
{"type":"Feature","geometry":{"type":"Polygon","coordinates":[[[20.060571669354943,41.1390414784716],[20.060715524824207,41.13905701799921],[20.06070202740753,41.13912843110847],[20.060558171785377,41.1391128915643],[20.060571669354943,41.1390414784716]]]},"properties":{"Zk_Numer":1885,"Zk_Emer":"GURABARDH","Nr_Pas":"","Vol":0,"Faqe":0,"Pronaret":"","Kufizimet":"","Siperfaqe":97.7}},
{"type":"Feature","geometry":{"type":"Polygon","coordinates":[[[20.0548737362688,41.13941772927692],[20.054938904279844,41.13945344694454],[20.054884177532884,41.13951051358259],[20.054819009494977,41.1394747958844],[20.0548737362688,41.13941772927692]]]},"properties":{"Zk_Numer":1885,"Zk_Emer":"GURABARDH","Nr_Pas":"","Vol":0,"Faqe":0,"Pronaret":"","Kufizimet":"","Siperfaqe":52.9}},
{"type":"Feature","geometry":{"type":"Polygon","coordinates":[[[20.060676713906314,41.14294830583227],[20.060771717768635,41.14297522590748],[20.060726718567203,41.14306597750206],[20.060631714592226,41.14303905739024],[20.060676713906314,41.14294830583227]]]},"properties":{"Zk_Numer":1885,"Zk_Emer":"GURABARDH","Nr_Pas":"","Vol":0,"Faqe":0,"Pronaret":"","Kufizimet":"","Siperfaqe":91.7}},
{"type":"Feature","geometry":{"type":"Polygon","coordinates":[[[20.06960169871209,41.14013852069371],[20.06966327381942,41.140085352902915],[20.06976699953066,41.14015400670737],[20.069705424443043,41.14020717455296],[20.06960169871209,41.14013852069371]]]},"properties":{"Zk_Numer":1885,"Zk_Emer":"GURABARDH","Nr_Pas":"","Vol":0,"Faqe":0,"Pronaret":"","Kufizimet":"","Siperfaqe":90.8}},
{"type":"Feature","geometry":{"type":"Polygon","coordinates":[[[20.06959004894856,41.139992111250095],[20.069596493442642,41.13988663189623],[20.069709418975705,41.13989057494562],[20.06970297466217,41.13999605430559],[20.06959004894856,41.139992111250095]]]},"properties":{"Zk_Numer":1885,"Zk_Emer":"GURABARDH","Nr_Pas":"","Vol":0,"Faqe":0,"Pronaret":"","Kufizimet":"","Siperfaqe":111.3}},
{"type":"Feature","geometry":{"type":"Polygon","coordinates":[[[20.06987665751833,41.1400444625556],[20.069883598347886,41.13993085146354],[20.069975375515718,41.139934055847135],[20.06996843484421,41.14004766694454],[20.06987665751833,41.1400444625556]]]},"properties":{"Zk_Numer":1885,"Zk_Emer":"GURABARDH","Nr_Pas":"","Vol":0,"Faqe":0,"Pronaret":"","Kufizimet":"","Siperfaqe":97.4}},
{"type":"Feature","geometry":{"type":"Polygon","coordinates":[[[20.069994868701308,41.14068838385803],[20.07010389734341,41.140605863214894],[20.070159844058374,41.140648107432256],[20.07005081541659,41.140730628127756],[20.069918801624887,41.14083069522244],[20.069878453656816,41.14080022922424],[20.069935650542096,41.140756788770105],[20.069864022302948,41.14070270355271],[20.06993883921001,41.140646077003844],[20.069994868701308,41.14068838385803]]]},"properties":{"Zk_Numer":1885,"Zk_Emer":"GURABARDH","Nr_Pas":"","Vol":0,"Faqe":0,"Pronaret":"","Kufizimet":"","Siperfaqe":236.7}},
{"type":"Feature","geometry":{"type":"Polygon","coordinates":[[[20.06371669105427,41.1362293782691],[20.06381394129298,41.136255725620984],[20.06378626960399,41.13631410557861],[20.06368901929007,41.13628775820369],[20.06371669105427,41.1362293782691]]]},"properties":{"Zk_Numer":1885,"Zk_Emer":"GURABARDH","Nr_Pas":"","Vol":0,"Faqe":0,"Pronaret":"","Kufizimet":"","Siperfaqe":59.7}},
{"type":"Feature","geometry":{"type":"Polygon","coordinates":[[[20.060830232121674,41.142922042450785],[20.060920518836422,41.14294762576145],[20.060911446592456,41.142965922224114],[20.060956714646824,41.14297874917942],[20.06090553433683,41.14308196709043],[20.060824438692844,41.143058988167375],[20.060867348196876,41.14297245064596],[20.060812888928908,41.14295701925664],[20.060830232121674,41.142922042450785]]]},"properties":{"Zk_Numer":1885,"Zk_Emer":"GURABARDH","Nr_Pas":"","Vol":0,"Faqe":0,"Pronaret":"","Kufizimet":"","Siperfaqe":116.2}},
{"type":"Feature","geometry":{"type":"Polygon","coordinates":[[[20.050244549176952,41.14380392371925],[20.05022143995981,41.143818930038826],[20.05014147112988,41.143748557109845],[20.050240577374073,41.14368429102594],[20.050320487328044,41.143754612051524],[20.050244549176952,41.14380392371925]]]},"properties":{"Zk_Numer":1885,"Zk_Emer":"GURABARDH","Nr_Pas":"","Vol":0,"Faqe":0,"Pronaret":"","Kufizimet":"","Siperfaqe":112.9}},
{"type":"Feature","geometry":{"type":"Polygon","coordinates":[[[20.050320487328044,41.143754612051524],[20.050330106891746,41.14374836542324],[20.050420628529952,41.1438280245065],[20.050335070788154,41.14388358286899],[20.050244549176952,41.14380392371925],[20.050320487328044,41.143754612051524]]]},"properties":{"Zk_Numer":1885,"Zk_Emer":"GURABARDH","Nr_Pas":"","Vol":0,"Faqe":0,"Pronaret":"","Kufizimet":"","Siperfaqe":110.4}}
]}