{"type":"FeatureCollection", "features": [
{"type":"Feature","geometry":{"type":"Polygon","coordinates":[[[20.568210915017215,40.73377773036429],[20.568201133352673,40.733932434047034],[20.568129006020488,40.733929795159206],[20.568134977492228,40.73383535396109],[20.568105417153426,40.73383427243788],[20.56810917066833,40.73377490939895],[20.568210915017215,40.73377773036429]]]},"properties":{"Zk_Numer":null,"Zk_Emer":"","Nr_Pas":"","Vol":null,"Faqe":null,"Pronaret":"","Kufizimet":"","Siperfaqe":121.23}},
{"type":"Feature","geometry":{"type":"Polygon","coordinates":[[[20.567449954215206,40.73441413190314],[20.56734773732094,40.73442118180325],[20.56732108389221,40.7344076496081],[20.567270479702554,40.73441241438977],[20.56725099877884,40.734261795391255],[20.567254601258433,40.73425373074858],[20.567266814203588,40.73424531543719],[20.567318936555708,40.73424161858596],[20.56733342907173,40.734247936843516],[20.567337807758864,40.73425594325129],[20.56737485603685,40.73425363131242],[20.56738714769141,40.73436900600154],[20.567443304571096,40.73436554418651],[20.567449954215206,40.73441413190314]]]},"properties":{"Zk_Numer":null,"Zk_Emer":"","Nr_Pas":"","Vol":null,"Faqe":null,"Pronaret":"","Kufizimet":"","Siperfaqe":218.13}},
{"type":"Feature","geometry":{"type":"Polygon","coordinates":[[[20.567619814609394,40.734509795872356],[20.567618483831726,40.734445834866754],[20.567682727254915,40.73444393126925],[20.567685999741624,40.734507834740185],[20.567619814609394,40.734509795872356]]]},"properties":{"Zk_Numer":null,"Zk_Emer":"","Nr_Pas":"","Vol":null,"Faqe":null,"Pronaret":"","Kufizimet":"","Siperfaqe":39.15}},
{"type":"Feature","geometry":{"type":"Polygon","coordinates":[[[20.568119321763458,40.734121181798535],[20.568048714193225,40.73414672071883],[20.568035910735816,40.73412774042073],[20.56801311515998,40.73413652320388],[20.567998690619547,40.734114135718194],[20.567989183821403,40.734117798538335],[20.56797262234079,40.7340916174296],[20.568075205358465,40.73405158292673],[20.568119321763458,40.734121181798535]]]},"properties":{"Zk_Numer":null,"Zk_Emer":"","Nr_Pas":"","Vol":null,"Faqe":null,"Pronaret":"","Kufizimet":"","Siperfaqe":72.38}},
{"type":"Feature","geometry":{"type":"Polygon","coordinates":[[[20.568213542967303,40.734173394574256],[20.56822225836536,40.73411392554596],[20.568617192222284,40.73414496847145],[20.568609200713684,40.734197393463226],[20.5685693673089,40.73419509364935],[20.568564243655334,40.73423194936658],[20.568296797032083,40.73421043547371],[20.568301042163323,40.7341805979332],[20.568213542967303,40.734173394574256]]]},"properties":{"Zk_Numer":null,"Zk_Emer":"","Nr_Pas":"","Vol":null,"Faqe":null,"Pronaret":"","Kufizimet":"","Siperfaqe":297.53}},
{"type":"Feature","geometry":{"type":"Polygon","coordinates":[[[20.568768280297537,40.73419113145204],[20.568651651321478,40.73419641022069],[20.56864780895675,40.73414590408171],[20.568764980398893,40.73414170938079],[20.568768280297537,40.73419113145204]]]},"properties":{"Zk_Numer":null,"Zk_Emer":"","Nr_Pas":"","Vol":null,"Faqe":null,"Pronaret":"","Kufizimet":"","Siperfaqe":54.95}},
{"type":"Feature","geometry":{"type":"Polygon","coordinates":[[[20.568545177899274,40.73432641343559],[20.56847561491464,40.73432214651633],[20.56848191804948,40.7342701125092],[20.568551928772212,40.73427455110698],[20.568545177899274,40.73432641343559]]]},"properties":{"Zk_Numer":null,"Zk_Emer":"","Nr_Pas":"","Vol":null,"Faqe":null,"Pronaret":"","Kufizimet":"","Siperfaqe":34.27}},
{"type":"Feature","geometry":{"type":"Polygon","coordinates":[[[20.5684708165211,40.7343674108751],[20.56847561491464,40.73432214651633],[20.568545177899274,40.73432641343559],[20.56854037955264,40.73437167779692],[20.5684708165211,40.7343674108751]]]},"properties":{"Zk_Numer":null,"Zk_Emer":"","Nr_Pas":"","Vol":null,"Faqe":null,"Pronaret":"","Kufizimet":"","Siperfaqe":29.73}},
{"type":"Feature","geometry":{"type":"Polygon","coordinates":[[[20.56854037955264,40.73437167779692],[20.568540285179054,40.734372568053026],[20.56853421628424,40.73442981782244],[20.568469977228,40.7344292669466],[20.5684708165211,40.7343674108751],[20.56854037955264,40.73437167779692]]]},"properties":{"Zk_Numer":null,"Zk_Emer":"","Nr_Pas":"","Vol":null,"Faqe":null,"Pronaret":"","Kufizimet":"","Siperfaqe":37.73}},
{"type":"Feature","geometry":{"type":"Polygon","coordinates":[[[20.568979975309517,40.73397146252009],[20.56910103811423,40.73389462544949],[20.569232007196124,40.73401417822692],[20.5691119885033,40.73409302583312],[20.568979975309517,40.73397146252009]]]},"properties":{"Zk_Numer":null,"Zk_Emer":"","Nr_Pas":"","Vol":null,"Faqe":null,"Pronaret":"","Kufizimet":"","Siperfaqe":232.34}},
{"type":"Feature","geometry":{"type":"Polygon","coordinates":[[[20.567903048817268,40.73396685094362],[20.567841345406038,40.73397549256637],[20.567824814081735,40.73390749513334],[20.56788718800306,40.73389905189381],[20.567903048817268,40.73396685094362]]]},"properties":{"Zk_Numer":null,"Zk_Emer":"","Nr_Pas":"","Vol":null,"Faqe":null,"Pronaret":"","Kufizimet":"","Siperfaqe":40.81}},
{"type":"Feature","geometry":{"type":"Polygon","coordinates":[[[20.56577765808159,40.73355792201184],[20.565795936756537,40.73361013103107],[20.56574446101839,40.733620559249296],[20.565752991059266,40.73364492346093],[20.56565404317229,40.733664968756955],[20.565627234598548,40.73358839549437],[20.56577765808159,40.73355792201184]]]},"properties":{"Zk_Numer":null,"Zk_Emer":"","Nr_Pas":"","Vol":null,"Faqe":null,"Pronaret":"","Kufizimet":"","Siperfaqe":103.11}},
{"type":"Feature","geometry":{"type":"Polygon","coordinates":[[[20.56590634851032,40.73326264758447],[20.56600780250924,40.73324917631371],[20.566026733249654,40.73333167355151],[20.56592527912962,40.73334514483952],[20.56590634851032,40.73326264758447]]]},"properties":{"Zk_Numer":null,"Zk_Emer":"","Nr_Pas":"","Vol":null,"Faqe":null,"Pronaret":"","Kufizimet":"","Siperfaqe":80.91}},
{"type":"Feature","geometry":{"type":"Polygon","coordinates":[[[20.565584944842204,40.732938665778676],[20.56548769468749,40.732892224782155],[20.565571403692072,40.732790791838674],[20.565638576402026,40.73282286960152],[20.56561025385612,40.73285718904146],[20.5656403312193,40.732871552213226],[20.565584944842204,40.732938665778676]]]},"properties":{"Zk_Numer":null,"Zk_Emer":"","Nr_Pas":"","Vol":null,"Faqe":null,"Pronaret":"","Kufizimet":"","Siperfaqe":115.5}},
{"type":"Feature","geometry":{"type":"Polygon","coordinates":[[[20.56634755182564,40.73283558831935],[20.566279123089014,40.732727728065655],[20.56634468849728,40.732703658309084],[20.566386877666382,40.73277015859706],[20.5664135302779,40.732760374122826],[20.566439769938274,40.732801734043505],[20.56634755182564,40.73283558831935]]]},"properties":{"Zk_Numer":null,"Zk_Emer":"","Nr_Pas":"","Vol":null,"Faqe":null,"Pronaret":"","Kufizimet":"","Siperfaqe":94.54}},
{"type":"Feature","geometry":{"type":"Polygon","coordinates":[[[20.56602322449943,40.73284513426984],[20.56604298206504,40.732767330350946],[20.56614526231167,40.73278235974379],[20.566135383592048,40.73282126171202],[20.566115624893413,40.73281835831208],[20.566105746151415,40.73285726027769],[20.56602322449943,40.73284513426984]]]},"properties":{"Zk_Numer":null,"Zk_Emer":"","Nr_Pas":"","Vol":null,"Faqe":null,"Pronaret":"","Kufizimet":"","Siperfaqe":69.96}},
{"type":"Feature","geometry":{"type":"Polygon","coordinates":[[[20.566768661653438,40.732019241854175],[20.566768510906417,40.732070884190804],[20.56671228398353,40.73207116026773],[20.566712589588878,40.73210717872373],[20.566667608025757,40.73210739956583],[20.56666685935306,40.73201915434754],[20.566768661653438,40.732019241854175]]]},"properties":{"Zk_Numer":null,"Zk_Emer":"","Nr_Pas":"","Vol":null,"Faqe":null,"Pronaret":"","Kufizimet":"","Siperfaqe":64.65}},
{"type":"Feature","geometry":{"type":"Polygon","coordinates":[[[20.566581168561704,40.733640263606965],[20.566697170187194,40.73363919305977],[20.56669853453051,40.73372473235543],[20.566635795567553,40.733725040369585],[20.566636024753933,40.733752054204196],[20.56658275580082,40.733752315699135],[20.566581168561704,40.733640263606965]]]},"properties":{"Zk_Numer":null,"Zk_Emer":"","Nr_Pas":"","Vol":null,"Faqe":null,"Pronaret":"","Kufizimet":"","Siperfaqe":106.4}},
{"type":"Feature","geometry":{"type":"Polygon","coordinates":[[[20.566796643981988,40.7340465862088],[20.566866876543575,40.734038527673036],[20.56688011893116,40.73410530821067],[20.56678647542059,40.73411605292678],[20.566779412859155,40.73408043663436],[20.566759513619512,40.73408271987549],[20.56675404014775,40.7340551172474],[20.566773939379377,40.73405283400724],[20.56676881903153,40.73402701219441],[20.56679222988166,40.73402432602623],[20.566796643981988,40.7340465862088]]]},"properties":{"Zk_Numer":null,"Zk_Emer":"","Nr_Pas":"","Vol":null,"Faqe":null,"Pronaret":"","Kufizimet":"","Siperfaqe":70.27}},
{"type":"Feature","geometry":{"type":"Polygon","coordinates":[[[20.566224940313145,40.733909488138906],[20.566601783172807,40.73384621840526],[20.56662984870129,40.7339429431635],[20.5664899774715,40.733966426892955],[20.566493804569266,40.73397961663678],[20.566380520338097,40.73399863639686],[20.566376693261525,40.73398544664918],[20.56625300532454,40.73400621299116],[20.566224940313145,40.733909488138906]]]},"properties":{"Zk_Numer":null,"Zk_Emer":"","Nr_Pas":"","Vol":null,"Faqe":null,"Pronaret":"","Kufizimet":"","Siperfaqe":373.28}},
{"type":"Feature","geometry":{"type":"Polygon","coordinates":[[[20.56698345531185,40.7334545520437],[20.56717485083094,40.73334479156845],[20.567253238667764,40.733423885741345],[20.567012199711343,40.733562115452216],[20.56690878889955,40.733457772402865],[20.56695843220958,40.73342930334058],[20.56698345531185,40.7334545520437]]]},"properties":{"Zk_Numer":null,"Zk_Emer":"","Nr_Pas":"","Vol":null,"Faqe":null,"Pronaret":"","Kufizimet":"","Siperfaqe":298.92}},
{"type":"Feature","geometry":{"type":"Polygon","coordinates":[[[20.56637132066186,40.733601488917365],[20.566387931576532,40.73348329908312],[20.56647268039191,40.73349019122983],[20.566462487428478,40.73356271681727],[20.56649191413606,40.733565109911545],[20.566485496353287,40.73361077417092],[20.56637132066186,40.733601488917365]]]},"properties":{"Zk_Numer":null,"Zk_Emer":"","Nr_Pas":"","Vol":null,"Faqe":null,"Pronaret":"","Kufizimet":"","Siperfaqe":107.78}},
{"type":"Feature","geometry":{"type":"Polygon","coordinates":[[[20.56739810169492,40.73394292091716],[20.5674547579681,40.73390743032247],[20.56743293482457,40.733887271904734],[20.56751426387794,40.73383632569545],[20.567550384962736,40.73386969132481],[20.56751931544663,40.73388915393799],[20.567540386093345,40.733908617221985],[20.567433470257377,40.733975591464365],[20.56739810169492,40.73394292091716]]]},"properties":{"Zk_Numer":null,"Zk_Emer":"","Nr_Pas":"","Vol":null,"Faqe":null,"Pronaret":"","Kufizimet":"","Siperfaqe":87.26}},
{"type":"Feature","geometry":{"type":"Polygon","coordinates":[[[20.567523441591057,40.73435018164021],[20.56752395610103,40.734312363516494],[20.567679024155957,40.734313584130206],[20.56767797081499,40.73439102124061],[20.567629438008343,40.73439063923881],[20.56762997695595,40.73435102025226],[20.567523441591057,40.73435018164021]]]},"properties":{"Zk_Numer":null,"Zk_Emer":"","Nr_Pas":"","Vol":null,"Faqe":null,"Pronaret":"","Kufizimet":"","Siperfaqe":73.06}},
{"type":"Feature","geometry":{"type":"Polygon","coordinates":[[[20.567936217600124,40.734640597742306],[20.56790270327438,40.73438523039472],[20.56809117284437,40.73437091815148],[20.56812468788231,40.734626285440214],[20.567936217600124,40.734640597742306]]]},"properties":{"Zk_Numer":null,"Zk_Emer":"","Nr_Pas":"","Vol":null,"Faqe":null,"Pronaret":"","Kufizimet":"","Siperfaqe":455.97}},
{"type":"Feature","geometry":{"type":"Polygon","coordinates":[[[20.566664881466366,40.73330564463267],[20.566738171970776,40.73326752749369],[20.566792289527978,40.73332773874381],[20.566875352037165,40.73328453922495],[20.566821234440983,40.73322432801358],[20.566894524766333,40.73318621077593],[20.566942629322025,40.73323973182362],[20.566903541142647,40.733260061039005],[20.5669496413988,40.73331135203881],[20.566798174417613,40.733390127684395],[20.56675207422202,40.73333883662436],[20.566712985926234,40.733359165775624],[20.566664881466366,40.73330564463267]]]},"properties":{"Zk_Numer":null,"Zk_Emer":"","Nr_Pas":"","Vol":null,"Faqe":null,"Pronaret":"","Kufizimet":"","Siperfaqe":207.29}},
{"type":"Feature","geometry":{"type":"Polygon","coordinates":[[[20.56675062615701,40.73441539170416],[20.56690909307062,40.734370103449784],[20.566932408297642,40.73441730861668],[20.56677394128857,40.734462596903334],[20.56675062615701,40.73441539170416]]]},"properties":{"Zk_Numer":null,"Zk_Emer":"","Nr_Pas":"","Vol":null,"Faqe":null,"Pronaret":"","Kufizimet":"","Siperfaqe":80.08}},
{"type":"Feature","geometry":{"type":"Polygon","coordinates":[[[20.56744474364858,40.73472274404284],[20.56747416726452,40.734693856083155],[20.567557272509216,40.734742834084145],[20.567527848908128,40.73477172206468],[20.56744474364858,40.73472274404284]]]},"properties":{"Zk_Numer":null,"Zk_Emer":"","Nr_Pas":"","Vol":null,"Faqe":null,"Pronaret":"","Kufizimet":"","Siperfaqe":36.04}},
{"type":"Feature","geometry":{"type":"Polygon","coordinates":[[[20.56484535437958,40.7342044994826],[20.564900324006114,40.73415053343469],[20.565002971238204,40.734211032638896],[20.564948001645938,40.73426499873491],[20.56484535437958,40.7342044994826]]]},"properties":{"Zk_Numer":null,"Zk_Emer":"","Nr_Pas":"","Vol":null,"Faqe":null,"Pronaret":"","Kufizimet":"","Siperfaqe":83.16}},
{"type":"Feature","geometry":{"type":"Polygon","coordinates":[[[20.565025285740205,40.7347235267364],[20.56506524200728,40.73462925048117],[20.565134696442644,40.73464628290341],[20.565094740263977,40.73474055918184],[20.565025285740205,40.7347235267364]]]},"properties":{"Zk_Numer":null,"Zk_Emer":"","Nr_Pas":"","Vol":null,"Faqe":null,"Pronaret":"","Kufizimet":"","Siperfaqe":67.81}},
{"type":"Feature","geometry":{"type":"Polygon","coordinates":[[[20.565676144661687,40.73499198228699],[20.565673352829705,40.73491724042675],[20.565861686086496,40.73491316981589],[20.56586447812898,40.73498791167024],[20.565676144661687,40.73499198228699]]]},"properties":{"Zk_Numer":null,"Zk_Emer":"","Nr_Pas":"","Vol":null,"Faqe":null,"Pronaret":"","Kufizimet":"","Siperfaqe":132.15}},
{"type":"Feature","geometry":{"type":"Polygon","coordinates":[[[20.56647142471943,40.73506247430109],[20.566465480599337,40.734983556006775],[20.566861949445716,40.73496627670915],[20.56686789403231,40.73504519498017],[20.56647142471943,40.73506247430109]]]},"properties":{"Zk_Numer":null,"Zk_Emer":"","Nr_Pas":"","Vol":null,"Faqe":null,"Pronaret":"","Kufizimet":"","Siperfaqe":294.46}},
{"type":"Feature","geometry":{"type":"Polygon","coordinates":[[[20.56595883502298,40.73423377557318],[20.565952895518368,40.73423892249678],[20.565915419105675,40.73421389824516],[20.565921011241922,40.7342090523387],[20.565789697382932,40.73412136945065],[20.565841214093822,40.73407672729969],[20.565972527931333,40.73416441012993],[20.56599538510578,40.73414460303195],[20.56603286150895,40.73416962725798],[20.56595883502298,40.73423377557318]]]},"properties":{"Zk_Numer":null,"Zk_Emer":"","Nr_Pas":"","Vol":null,"Faqe":null,"Pronaret":"","Kufizimet":"","Siperfaqe":140.5}},
{"type":"Feature","geometry":{"type":"Polygon","coordinates":[[[20.566741115514006,40.73387339941102],[20.566725066243503,40.733821978141364],[20.566976421780723,40.73377658301106],[20.566992471233043,40.73382800424496],[20.566741115514006,40.73387339941102]]]},"properties":{"Zk_Numer":null,"Zk_Emer":"","Nr_Pas":"","Vol":null,"Faqe":null,"Pronaret":"","Kufizimet":"","Siperfaqe":128.08}},
{"type":"Feature","geometry":{"type":"Polygon","coordinates":[[[20.567230635982778,40.73371288515718],[20.567318433196323,40.73364829611165],[20.567370800062044,40.73368948550954],[20.567283002845905,40.733754074594465],[20.567230635982778,40.73371288515718]]]},"properties":{"Zk_Numer":null,"Zk_Emer":"","Nr_Pas":"","Vol":null,"Faqe":null,"Pronaret":"","Kufizimet":"","Siperfaqe":65.65}},
{"type":"Feature","geometry":{"type":"Polygon","coordinates":[[[20.56708055187319,40.733814714315386],[20.567142595420272,40.73376907150051],[20.567210903284764,40.73382279946432],[20.567148859735298,40.73386844231551],[20.56708055187319,40.733814714315386]]]},"properties":{"Zk_Numer":null,"Zk_Emer":"","Nr_Pas":"","Vol":null,"Faqe":null,"Pronaret":"","Kufizimet":"","Siperfaqe":60.52}},
{"type":"Feature","geometry":{"type":"Polygon","coordinates":[[[20.56726442929351,40.733997607470364],[20.56734622545263,40.73393743338535],[20.567412734181282,40.73398974585115],[20.567330938019097,40.73404991998277],[20.56726442929351,40.733997607470364]]]},"properties":{"Zk_Numer":null,"Zk_Emer":"","Nr_Pas":"","Vol":null,"Faqe":null,"Pronaret":"","Kufizimet":"","Siperfaqe":77.68}},
{"type":"Feature","geometry":{"type":"Polygon","coordinates":[[[20.566523839079053,40.73311489892089],[20.566634621898633,40.73305907153359],[20.566681885936795,40.73311334286951],[20.566571103067744,40.73316917030199],[20.566523839079053,40.73311489892089]]]},"properties":{"Zk_Numer":null,"Zk_Emer":"","Nr_Pas":"","Vol":null,"Faqe":null,"Pronaret":"","Kufizimet":"","Siperfaqe":81.15}},
{"type":"Feature","geometry":{"type":"Polygon","coordinates":[[[20.568406326927402,40.73380172537962],[20.568274349969254,40.733797186835965],[20.56827926852401,40.733714427228584],[20.568352116791786,40.733716932420435],[20.56834965756087,40.733758312225525],[20.56840878612449,40.733760345573856],[20.568406326927402,40.73380172537962]]]},"properties":{"Zk_Numer":null,"Zk_Emer":"","Nr_Pas":"","Vol":null,"Faqe":null,"Pronaret":"","Kufizimet":"","Siperfaqe":79.67}},
{"type":"Feature","geometry":{"type":"Polygon","coordinates":[[[20.568741939033963,40.73401491575047],[20.568783432484437,40.733925789243614],[20.568883861247734,40.73395284337996],[20.568872796369796,40.73397661045928],[20.56889622976682,40.73398292308059],[20.56886580133253,40.734048282549],[20.568741939033963,40.73401491575047]]]},"properties":{"Zk_Numer":null,"Zk_Emer":"","Nr_Pas":"","Vol":null,"Faqe":null,"Pronaret":"","Kufizimet":"","Siperfaqe":110.66}},
{"type":"Feature","geometry":{"type":"Polygon","coordinates":[[[20.570073943529504,40.73468768407376],[20.5701655699421,40.73476057932217],[20.57010824292479,40.73480227341141],[20.570016616516508,40.73472937811802],[20.570073943529504,40.73468768407376]]]},"properties":{"Zk_Numer":null,"Zk_Emer":"","Nr_Pas":"","Vol":null,"Faqe":null,"Pronaret":"","Kufizimet":"","Siperfaqe":75.04}},
{"type":"Feature","geometry":{"type":"Polygon","coordinates":[[[20.570861395505702,40.73684097150245],[20.570899876062278,40.73680676015259],[20.571003322448355,40.73687408135961],[20.570964841906783,40.736908292743465],[20.570861395505702,40.73684097150245]]]},"properties":{"Zk_Numer":null,"Zk_Emer":"","Nr_Pas":"","Vol":null,"Faqe":null,"Pronaret":"","Kufizimet":"","Siperfaqe":57.5}},
{"type":"Feature","geometry":{"type":"Polygon","coordinates":[[[20.571191263719975,40.736924720170485],[20.571265500506783,40.736869126175066],[20.571219820618932,40.736833833728376],[20.571289839292714,40.736781398466604],[20.5714185736472,40.736880858873306],[20.571348554972015,40.73693329421228],[20.571323638615677,40.73691404380757],[20.5712494018282,40.73696963783996],[20.571191263719975,40.736924720170485]]]},"properties":{"Zk_Numer":null,"Zk_Emer":"","Nr_Pas":"","Vol":null,"Faqe":null,"Pronaret":"","Kufizimet":"","Siperfaqe":190.24}},
{"type":"Feature","geometry":{"type":"Polygon","coordinates":[[[20.571708486696618,40.737172504206214],[20.571784824751873,40.73706775843324],[20.57209544198563,40.73719873395833],[20.572020826178566,40.737301117241536],[20.571708486696618,40.737172504206214]]]},"properties":{"Zk_Numer":null,"Zk_Emer":"","Nr_Pas":"","Vol":null,"Faqe":null,"Pronaret":"","Kufizimet":"","Siperfaqe":394.48}},
{"type":"Feature","geometry":{"type":"Polygon","coordinates":[[[20.57103303395462,40.73660388337248],[20.571099147776707,40.73654859321321],[20.571274300034432,40.73666977246316],[20.571208186239712,40.73672506272143],[20.57103303395462,40.73660388337248]]]},"properties":{"Zk_Numer":null,"Zk_Emer":"","Nr_Pas":"","Vol":null,"Faqe":null,"Pronaret":"","Kufizimet":"","Siperfaqe":165.99}},
{"type":"Feature","geometry":{"type":"Polygon","coordinates":[[[20.568302696097305,40.73438707947074],[20.568278304390788,40.73435684263986],[20.56833590886746,40.73432995448287],[20.568360300589962,40.7343601913016],[20.568302696097305,40.73438707947074]]]},"properties":{"Zk_Numer":null,"Zk_Emer":"","Nr_Pas":"","Vol":null,"Faqe":null,"Pronaret":"","Kufizimet":"","Siperfaqe":22.49}},
{"type":"Feature","geometry":{"type":"Polygon","coordinates":[[[20.56840876186283,40.734440596890174],[20.56853957077754,40.73444062903653],[20.56853955398882,40.73448025013784],[20.568563229824367,40.734480255940255],[20.568563210762537,40.73452527991861],[20.56847442631912,40.734525258134894],[20.56847444544081,40.734480234156166],[20.56840874499651,40.73448021799198],[20.56840876186283,40.734440596890174]]]},"properties":{"Zk_Numer":null,"Zk_Emer":"","Nr_Pas":"","Vol":null,"Faqe":null,"Pronaret":"","Kufizimet":"","Siperfaqe":86.12}},
{"type":"Feature","geometry":{"type":"Polygon","coordinates":[[[20.568642905060084,40.73439515015488],[20.568645496789518,40.734315932475305],[20.56874135401396,40.73431774707854],[20.56873876239821,40.734396964759476],[20.568642905060084,40.73439515015488]]]},"properties":{"Zk_Numer":null,"Zk_Emer":"","Nr_Pas":"","Vol":null,"Faqe":null,"Pronaret":"","Kufizimet":"","Siperfaqe":71.28}},
{"type":"Feature","geometry":{"type":"Polygon","coordinates":[[[20.572671443721767,40.737466580219674],[20.57271804617537,40.73740297808118],[20.572848620412802,40.73745833243429],[20.572802018046158,40.73752193462432],[20.572671443721767,40.737466580219674]]]},"properties":{"Zk_Numer":null,"Zk_Emer":"","Nr_Pas":"","Vol":null,"Faqe":null,"Pronaret":"","Kufizimet":"","Siperfaqe":102.1}},
{"type":"Feature","geometry":{"type":"Polygon","coordinates":[[[20.572829190516206,40.73753632542127],[20.572869187163157,40.73748173859584],[20.572966824112743,40.73752312964509],[20.5729268275216,40.73757771650359],[20.572829190516206,40.73753632542127]]]},"properties":{"Zk_Numer":null,"Zk_Emer":"","Nr_Pas":"","Vol":null,"Faqe":null,"Pronaret":"","Kufizimet":"","Siperfaqe":65.52}},
{"type":"Feature","geometry":{"type":"Polygon","coordinates":[[[20.56704053689855,40.734011063787655],[20.567055879989653,40.73407146680612],[20.566964015910276,40.734083054505966],[20.566968188727703,40.734102196249985],[20.5669057876756,40.73411006745105],[20.56688576959289,40.73403007338776],[20.56704053689855,40.734011063787655]]]},"properties":{"Zk_Numer":null,"Zk_Emer":"","Nr_Pas":"","Vol":null,"Faqe":null,"Pronaret":"","Kufizimet":"","Siperfaqe":102.43}},
{"type":"Feature","geometry":{"type":"Polygon","coordinates":[[[20.565623735902822,40.733192978679085],[20.56564711906357,40.733155781969955],[20.565753247145174,40.7331943868719],[20.565729864030516,40.73323158360198],[20.56566611498867,40.73320839441473],[20.56565377311656,40.73322802722072],[20.565611394021,40.73321261148065],[20.565623735902822,40.733192978679085]]]},"properties":{"Zk_Numer":null,"Zk_Emer":"","Nr_Pas":"","Vol":null,"Faqe":null,"Pronaret":"","Kufizimet":"","Siperfaqe":55.09}},
{"type":"Feature","geometry":{"type":"Polygon","coordinates":[[[20.565687237033014,40.732980180830396],[20.56577097168532,40.73287558382194],[20.565830623487827,40.73290321672432],[20.565812152644256,40.73292628960842],[20.5658627050689,40.732949707305735],[20.56580359831985,40.733023540540295],[20.56576821159387,40.733007148136785],[20.565762054630756,40.73301483909512],[20.565687237033014,40.732980180830396]]]},"properties":{"Zk_Numer":null,"Zk_Emer":"","Nr_Pas":"","Vol":null,"Faqe":null,"Pronaret":"","Kufizimet":"","Siperfaqe":129.73}},
{"type":"Feature","geometry":{"type":"Polygon","coordinates":[[[20.565900186400537,40.73303277128603],[20.565901679935802,40.732996918125615],[20.566014724303873,40.732999642987714],[20.566013230829263,40.733035496149164],[20.565990778733347,40.73303495496469],[20.5659884694786,40.7330903916731],[20.565883262197172,40.73308785570301],[20.565885571539205,40.733032418996096],[20.565900186400537,40.73303277128603]]]},"properties":{"Zk_Numer":null,"Zk_Emer":"","Nr_Pas":"","Vol":null,"Faqe":null,"Pronaret":"","Kufizimet":"","Siperfaqe":92.82}},
{"type":"Feature","geometry":{"type":"Polygon","coordinates":[[[20.565653903067624,40.73264033780306],[20.565750374627022,40.73267472648525],[20.565712199887745,40.7327366964117],[20.565615728257757,40.73270230769843],[20.565653903067624,40.73264033780306]]]},"properties":{"Zk_Numer":null,"Zk_Emer":"","Nr_Pas":"","Vol":null,"Faqe":null,"Pronaret":"","Kufizimet":"","Siperfaqe":68.4}},
{"type":"Feature","geometry":{"type":"Polygon","coordinates":[[[20.56656295827158,40.73190537533902],[20.566557492038857,40.7319908198375],[20.56648418642259,40.73198810605303],[20.566485912632288,40.73196112358086],[20.5664587186257,40.731960116842835],[20.566461595657326,40.73191514605611],[20.566488789645636,40.73191615279359],[20.56648965274895,40.73190266155734],[20.56656295827158,40.73190537533902]]]},"properties":{"Zk_Numer":null,"Zk_Emer":"","Nr_Pas":"","Vol":null,"Faqe":null,"Pronaret":"","Kufizimet":"","Siperfaqe":70.4}},
{"type":"Feature","geometry":{"type":"Polygon","coordinates":[[[20.569167564821996,40.73385282434155],[20.56920580547501,40.73382333501617],[20.569270698089703,40.733872027362374],[20.56923245743795,40.733901516709],[20.569167564821996,40.73385282434155]]]},"properties":{"Zk_Numer":null,"Zk_Emer":"","Nr_Pas":"","Vol":null,"Faqe":null,"Pronaret":"","Kufizimet":"","Siperfaqe":35.42}},
{"type":"Feature","geometry":{"type":"Polygon","coordinates":[[[20.56974706649377,40.734363929690005],[20.569678582196392,40.73428348140239],[20.56973601253718,40.73425519256916],[20.569804496873942,40.73433564082283],[20.56974706649377,40.734363929690005]]]},"properties":{"Zk_Numer":null,"Zk_Emer":"","Nr_Pas":"","Vol":null,"Faqe":null,"Pronaret":"","Kufizimet":"","Siperfaqe":61.51}},
{"type":"Feature","geometry":{"type":"Polygon","coordinates":[[[20.570913963011254,40.736101813929054],[20.57078170574309,40.735904286573934],[20.5708873905895,40.73586200852628],[20.571017237749345,40.73606080592061],[20.570913963011254,40.736101813929054]]]},"properties":{"Zk_Numer":null,"Zk_Emer":"","Nr_Pas":"","Vol":null,"Faqe":null,"Pronaret":"","Kufizimet":"","Siperfaqe":245.4}},
{"type":"Feature","geometry":{"type":"Polygon","coordinates":[[[20.571099341923436,40.735883326072674],[20.570992373929226,40.735636070894905],[20.57108002687551,40.73561485840117],[20.571181286019353,40.735864305737074],[20.571099341923436,40.735883326072674]]]},"properties":{"Zk_Numer":null,"Zk_Emer":"","Nr_Pas":"","Vol":null,"Faqe":null,"Pronaret":"","Kufizimet":"","Siperfaqe":217.19}},
{"type":"Feature","geometry":{"type":"Polygon","coordinates":[[[20.57140688252581,40.73639099090202],[20.571288961022397,40.73618286418182],[20.571397590547353,40.73614813874779],[20.571511026000486,40.73635582636882],[20.57140688252581,40.73639099090202]]]},"properties":{"Zk_Numer":null,"Zk_Emer":"","Nr_Pas":"","Vol":null,"Faqe":null,"Pronaret":"","Kufizimet":"","Siperfaqe":245.4}},
{"type":"Feature","geometry":{"type":"Polygon","coordinates":[[[20.571563153451073,40.73618031585674],[20.571618646795113,40.736129393273764],[20.571756173366346,40.73621817991737],[20.57170183558754,40.73626687842383],[20.571563153451073,40.73618031585674]]]},"properties":{"Zk_Numer":null,"Zk_Emer":"","Nr_Pas":"","Vol":null,"Faqe":null,"Pronaret":"","Kufizimet":"","Siperfaqe":109.69}},
{"type":"Feature","geometry":{"type":"Polygon","coordinates":[[[20.57076458406735,40.735662925997694],[20.570629744842577,40.735714081276626],[20.570330471827575,40.73522509153417],[20.57045285013396,40.73517902901425],[20.57076458406735,40.735662925997694]]]},"properties":{"Zk_Numer":null,"Zk_Emer":"","Nr_Pas":"","Vol":null,"Faqe":null,"Pronaret":"","Kufizimet":"","Siperfaqe":726.14}},
{"type":"Feature","geometry":{"type":"Polygon","coordinates":[[[20.570832523260382,40.735395975429505],[20.570631296057353,40.735197020301804],[20.570707363847504,40.73515407296423],[20.57090384542831,40.73535368560832],[20.570832523260382,40.735395975429505]]]},"properties":{"Zk_Numer":null,"Zk_Emer":"","Nr_Pas":"","Vol":null,"Faqe":null,"Pronaret":"","Kufizimet":"","Siperfaqe":217.26}},
{"type":"Feature","geometry":{"type":"Polygon","coordinates":[[[20.57143536142381,40.73608461644036],[20.571398322445077,40.736037959741196],[20.571449141425173,40.736017546062776],[20.571482144093796,40.736064711572546],[20.57143536142381,40.73608461644036]]]},"properties":{"Zk_Numer":null,"Zk_Emer":"","Nr_Pas":"","Vol":null,"Faqe":null,"Pronaret":"","Kufizimet":"","Siperfaqe":28.1}},
{"type":"Feature","geometry":{"type":"Polygon","coordinates":[[[20.56996047275233,40.73448728830745],[20.570036897422366,40.734562993478136],[20.56998995216677,40.73459041528429],[20.570007255884985,40.73460755607732],[20.569967821836396,40.73463059038569],[20.56987409349101,40.734537744359265],[20.56996047275233,40.73448728830745]]]},"properties":{"Zk_Numer":null,"Zk_Emer":"","Nr_Pas":"","Vol":null,"Faqe":null,"Pronaret":"","Kufizimet":"","Siperfaqe":107.59}},
{"type":"Feature","geometry":{"type":"Polygon","coordinates":[[[20.566381476326743,40.734227885768476],[20.566481132125947,40.73418458245333],[20.566507787926355,40.73422007794171],[20.566408132092,40.73426338127984],[20.566381476326743,40.734227885768476]]]},"properties":{"Zk_Numer":null,"Zk_Emer":"","Nr_Pas":"","Vol":null,"Faqe":null,"Pronaret":"","Kufizimet":"","Siperfaqe":44.01}},
{"type":"Feature","geometry":{"type":"Polygon","coordinates":[[[20.56840878612449,40.733760345573856],[20.56841103147595,40.73372256401179],[20.56849381142371,40.733725410647246],[20.568489106973164,40.73380457201778],[20.568406326927402,40.73380172537962],[20.56840878612449,40.733760345573856]]]},"properties":{"Zk_Numer":null,"Zk_Emer":"","Nr_Pas":"","Vol":null,"Faqe":null,"Pronaret":"","Kufizimet":"","Siperfaqe":61.6}},
{"type":"Feature","geometry":{"type":"Polygon","coordinates":[[[20.5682468259488,40.73342392662936],[20.56827123331157,40.7333266294371],[20.568352628665846,40.73333844435391],[20.56832822141773,40.73343574156241],[20.5682468259488,40.73342392662936]]]},"properties":{"Zk_Numer":null,"Zk_Emer":"","Nr_Pas":"","Vol":null,"Faqe":null,"Pronaret":"","Kufizimet":"","Siperfaqe":77}},
{"type":"Feature","geometry":{"type":"Polygon","coordinates":[[[20.568091057218442,40.73322903277631],[20.568100746813666,40.73318005793232],[20.568311452344695,40.73320418023524],[20.568301762900884,40.733253155095724],[20.568091057218442,40.73322903277631]]]},"properties":{"Zk_Numer":null,"Zk_Emer":"","Nr_Pas":"","Vol":null,"Faqe":null,"Pronaret":"","Kufizimet":"","Siperfaqe":98.99}},
{"type":"Feature","geometry":{"type":"Polygon","coordinates":[[[20.566819016860872,40.73202663583546],[20.56702765521051,40.73202570791046],[20.567028347432416,40.732115754383834],[20.566819708801532,40.732116682311954],[20.566819016860872,40.73202663583546]]]},"properties":{"Zk_Numer":null,"Zk_Emer":"","Nr_Pas":"","Vol":null,"Faqe":null,"Pronaret":"","Kufizimet":"","Siperfaqe":176.25}},
{"type":"Feature","geometry":{"type":"Polygon","coordinates":[[[20.566821450292473,40.733036585357695],[20.566974182830535,40.732992496984004],[20.566994342302586,40.73303290818345],[20.56694011117944,40.73304856278351],[20.566947670977353,40.73306371698585],[20.566885692507523,40.733081607930394],[20.566878132721552,40.733066453723936],[20.566841609686023,40.733076996584046],[20.566821450292473,40.733036585357695]]]},"properties":{"Zk_Numer":null,"Zk_Emer":"","Nr_Pas":"","Vol":null,"Faqe":null,"Pronaret":"","Kufizimet":"","Siperfaqe":76.32}},
{"type":"Feature","geometry":{"type":"Polygon","coordinates":[[[20.56909181662029,40.733712263470366],[20.569071273509014,40.73373318570285],[20.5690930874656,40.73374557936288],[20.569059793435446,40.73377948780708],[20.569037979473816,40.73376709414087],[20.56902664532648,40.733778637436735],[20.568978275262644,40.73375115580939],[20.569001651945083,40.733727347770085],[20.568927674289196,40.733685317020665],[20.568968760560438,40.73364347260237],[20.569013336816404,40.733668798813376],[20.56902679609681,40.73365509115084],[20.569056197472843,40.73367179566001],[20.569043446578352,40.733684781869854],[20.56909181662029,40.733712263470366]]]},"properties":{"Zk_Numer":null,"Zk_Emer":"","Nr_Pas":"","Vol":null,"Faqe":null,"Pronaret":"","Kufizimet":"","Siperfaqe":108.85}},
{"type":"Feature","geometry":{"type":"Polygon","coordinates":[[[20.569654959132432,40.734089800156184],[20.569744683410587,40.734200288137345],[20.56969431636434,40.734223936992],[20.569667579657413,40.73419098775491],[20.569643403469737,40.73420233919179],[20.569630967804496,40.7341870139604],[20.569639026533512,40.73418323014954],[20.569619129479257,40.73415870977775],[20.569635246930943,40.7341511421571],[20.56960602315383,40.734115127858516],[20.569654959132432,40.734089800156184]]]},"properties":{"Zk_Numer":null,"Zk_Emer":"","Nr_Pas":"","Vol":null,"Faqe":null,"Pronaret":"","Kufizimet":"","Siperfaqe":81.44}},
{"type":"Feature","geometry":{"type":"Polygon","coordinates":[[[20.57199724385655,40.73651578885359],[20.571980906809966,40.73653557467207],[20.57192399041091,40.73651064443062],[20.57199754197393,40.736412546065935],[20.572057663459482,40.7364380997645],[20.572026059138544,40.73648037580917],[20.57202372020744,40.736483504516734],[20.57202071400536,40.73648736410119],[20.57199724385655,40.73651578885359]]]},"properties":{"Zk_Numer":null,"Zk_Emer":"","Nr_Pas":"","Vol":null,"Faqe":null,"Pronaret":"","Kufizimet":"","Siperfaqe":72.34}},
{"type":"Feature","geometry":{"type":"Polygon","coordinates":[[[20.572057663459482,40.7364380997645],[20.572413386227627,40.73659859165885],[20.5723345921609,40.73668953253641],[20.57224915854599,40.73665133941758],[20.572264597457245,40.736632884624015],[20.57199724385655,40.73651578885359],[20.57202071400536,40.73648736410119],[20.57202372020744,40.736483504516734],[20.572026059138544,40.73648037580917],[20.572057663459482,40.7364380997645]]]},"properties":{"Zk_Numer":null,"Zk_Emer":"","Nr_Pas":"","Vol":null,"Faqe":null,"Pronaret":"","Kufizimet":"","Siperfaqe":360.23}},
{"type":"Feature","geometry":{"type":"Polygon","coordinates":[[[20.56603286150895,40.73416962725798],[20.5661946666838,40.73427766953271],[20.566120640235866,40.73434181795025],[20.56595883502298,40.73423377557318],[20.56603286150895,40.73416962725798]]]},"properties":{"Zk_Numer":null,"Zk_Emer":"","Nr_Pas":"","Vol":null,"Faqe":null,"Pronaret":"","Kufizimet":"","Siperfaqe":172.39}},
{"type":"Feature","geometry":{"type":"Polygon","coordinates":[[[20.56677394128857,40.734462596903334],[20.56661879855192,40.73450693487636],[20.566595483513822,40.73445972964557],[20.56675062615701,40.73441539170416],[20.56677394128857,40.734462596903334]]]},"properties":{"Zk_Numer":null,"Zk_Emer":"","Nr_Pas":"","Vol":null,"Faqe":null,"Pronaret":"","Kufizimet":"","Siperfaqe":78.4}},
{"type":"Feature","geometry":{"type":"Polygon","coordinates":[[[20.569337946038274,40.73401030259414],[20.56931219763536,40.73398116737394],[20.569290580795947,40.733992215885685],[20.569232482752263,40.733926441906405],[20.569304211290245,40.73388978095608],[20.569388024908545,40.73398472131394],[20.569337946038274,40.73401030259414]]]},"properties":{"Zk_Numer":null,"Zk_Emer":"","Nr_Pas":"","Vol":null,"Faqe":null,"Pronaret":"","Kufizimet":"","Siperfaqe":84.1}},
{"type":"Feature","geometry":{"type":"Polygon","coordinates":[[[20.572940152527732,40.73758678488675],[20.57298430395044,40.73752986074403],[20.573103947289987,40.73758355062116],[20.573059795934828,40.737640474808664],[20.572940152527732,40.73758678488675]]]},"properties":{"Zk_Numer":null,"Zk_Emer":"","Nr_Pas":"","Vol":null,"Faqe":null,"Pronaret":"","Kufizimet":"","Siperfaqe":86.12}},
{"type":"Feature","geometry":{"type":"Polygon","coordinates":[[[20.568079773856443,40.73384545243611],[20.568075744886603,40.733910199108244],[20.56798160416173,40.73390825811711],[20.567983848379843,40.73384527626803],[20.56793651453905,40.73384430031069],[20.56793940132444,40.73376328688617],[20.568035252237042,40.73376526317802],[20.56803242971616,40.73384447630578],[20.568079773856443,40.73384545243611]]]},"properties":{"Zk_Numer":null,"Zk_Emer":"","Nr_Pas":"","Vol":null,"Faqe":null,"Pronaret":"","Kufizimet":"","Siperfaqe":129.85}},
{"type":"Feature","geometry":{"type":"Polygon","coordinates":[[[20.566923841227332,40.73451116436898],[20.566882578262643,40.73445738822707],[20.567029487508645,40.73439392553407],[20.567070079219544,40.73445132357983],[20.566923841227332,40.73451116436898]]]},"properties":{"Zk_Numer":2494,"Zk_Emer":"LOZHAN I RI","Nr_Pas":"118/10-ND","Vol":1,"Faqe":70,"Pronaret":"TEFIK B 118/7, HEKURAN B AGOLLI","Kufizimet":"NDERTESA POZICIONOHET MBI PASURINE NR.118/6 NE VOL 1 FQ 79","Siperfaqe":100.1}}
]}