{"type":"FeatureCollection", "features": [
{"type":"Feature","geometry":{"type":"Polygon","coordinates":[[[19.80857975759483,41.05926506783768],[19.808690548846922,41.05924603652564],[19.80872095440433,41.05934746017605],[19.808610166283117,41.05936649104098],[19.80857975759483,41.05926506783768]]]},"properties":{"Zk_Numer":1361,"Zk_Emer":"CAUSHAJ","Nr_Pas":"170/1-ND","Vol":1,"Faqe":190,"Pronaret":"EQEREM HARIZI LATIF","Kufizimet":"PASURIA KUFIZOHET PER MUNGESE TE MARREDHENIES ME TRUALLIN. KJO PASURI NDODHET MBI PASURINE NR 143/4 NE VOL.1, FQ.29.","Siperfaqe":110.3}},
{"type":"Feature","geometry":{"type":"Polygon","coordinates":[[[19.808572313931474,41.05451657081775],[19.80857434336114,41.054409558080884],[19.808718347564643,41.054411120433045],[19.808716318368266,41.05451813317293],[19.808572313931474,41.05451657081775]]]},"properties":{"Zk_Numer":1361,"Zk_Emer":"CAUSHAJ","Nr_Pas":"116/7-ND","Vol":1,"Faqe":1,"Pronaret":"BLERIM MYFTARI BAJRAM, KIMETE MYFTARI FETAH","Kufizimet":"PASURIA KUFIZOHET PER MUNGESE TE MARREDHENIES ME TRUALLIN. KJO PASURI NDODHET MBI PASURINE NR.149/2 NE VOL.1, FQ.15.","Siperfaqe":143.9}},
{"type":"Feature","geometry":{"type":"Polygon","coordinates":[[[19.80511337251541,41.0575306686362],[19.80507572752155,41.0574444919939],[19.805177942715694,41.05741890863819],[19.805215587828634,41.05750508524777],[19.80511337251541,41.0575306686362]]]},"properties":{"Zk_Numer":1361,"Zk_Emer":"CAUSHAJ","Nr_Pas":"238/1-ND","Vol":1,"Faqe":222,"Pronaret":"LUTFIJE HARIZI DEMIR, VIKTOR HARIZI RAMAZAN","Kufizimet":"PASURIA KUFIZOHET PER MUNGESE TE MADHEDHENIES ME TRUALLIN. KJO PASURI NDODHET MBI PASURINE NR.238/1 NE VOL.1, FQ.6.","Siperfaqe":91.2}},
{"type":"Feature","geometry":{"type":"Polygon","coordinates":[[[19.809100991013825,41.05534642631317],[19.80910432800633,41.05524290513912],[19.809157841980287,41.05524389355654],[19.80915450507161,41.05534741473232],[19.809100991013825,41.05534642631317]]]},"properties":{"Zk_Numer":1361,"Zk_Emer":"CAUSHAJ","Nr_Pas":"338-ND","Vol":1,"Faqe":10,"Pronaret":"EDMOND HARIZI SHAIP","Kufizimet":"PASURIA KUFIZOHET PER MUNGESE TE MARREDHENIES ME TRUALLIN. KJO PASURI NDODHET MBI PASURINE NR 176/42 NE VOL.2, FQ.106.","Siperfaqe":51.7}},
{"type":"Feature","geometry":{"type":"Polygon","coordinates":[[[19.809103494752858,41.05514859524637],[19.809086388299377,41.05504313389741],[19.809210359997117,41.05503161138721],[19.809227466645744,41.0551370727184],[19.809103494752858,41.05514859524637]]]},"properties":{"Zk_Numer":1361,"Zk_Emer":"CAUSHAJ","Nr_Pas":"339-ND","Vol":1,"Faqe":11,"Pronaret":"ASTRIT HARIZI SHAIP","Kufizimet":"PASURIA KUFIZOHET PER MUNGESE TE MARREDHENIES ME TRUALLIN. KJO PASURI NDODHET MBI PASURINE NR 176/42 NE VOL.2, FQ.106.","Siperfaqe":123.9}},
{"type":"Feature","geometry":{"type":"Polygon","coordinates":[[[19.809331256306542,41.05548084576339],[19.80931818449026,41.05547827259281],[19.80930740653816,41.05550964540548],[19.80920091437581,41.05548868249387],[19.80922935629588,41.055405893150756],[19.809335848333948,41.05542685603611],[19.809325369785945,41.05545735738368],[19.809338441598374,41.05545993055346],[19.809331256306542,41.05548084576339]]]},"properties":{"Zk_Numer":1361,"Zk_Emer":"CAUSHAJ","Nr_Pas":"216-ND","Vol":2,"Faqe":32,"Pronaret":"SELMAN MYFTARI MESUT","Kufizimet":"PASURIA KUFIZOHET PER MUNGESE TE MARREDHENIES ME TRUALLIN. PASURIA NDODHET MBI PASURINE NR 176/41 NE VOL.2, FQ.106.","Siperfaqe":90.6}},
{"type":"Feature","geometry":{"type":"Polygon","coordinates":[[[19.809246600469443,41.055581157099994],[19.809223995909623,41.05565711406532],[19.80908763954866,41.05563386241092],[19.809110244257166,41.05555790547236],[19.809246600469443,41.055581157099994]]]},"properties":{"Zk_Numer":1361,"Zk_Emer":"CAUSHAJ","Nr_Pas":"217-ND","Vol":1,"Faqe":33,"Pronaret":"GENTJANA MYFTARI XHAFERR, SAMI MYFTARI MESUT","Kufizimet":"PASURIA KUFIZOHET PER MUNGESE TE MARREDHENIES ME TRUALLIN. PASURIA NDODHET MBI PASURINE NR 176/41 NE VOL.2, FQ.106.","Siperfaqe":101.6}},
{"type":"Feature","geometry":{"type":"Polygon","coordinates":[[[19.808582539537873,41.06160374787111],[19.8085776635116,41.061548944484855],[19.808563536571093,41.0615496707034],[19.808558101023173,41.061488578402496],[19.808689738701652,41.06148186242039],[19.808700050494295,41.061597758096966],[19.808582539537873,41.06160374787111]]]},"properties":{"Zk_Numer":1361,"Zk_Emer":"CAUSHAJ","Nr_Pas":"75/2-ND","Vol":2,"Faqe":7,"Pronaret":"MYRTEZA XHEPI HAJDAR","Kufizimet":"PASURIA KUFIZOHET PER MUNGESE TE MARREDHENIES ME TRUALLIN. KJO PASURI NDODHET MBI PASURINE NR 143/18  NE VOL.1, FQ.48.","Siperfaqe":135.8}},
{"type":"Feature","geometry":{"type":"Polygon","coordinates":[[[19.808589638379477,41.06180680246317],[19.80858761702557,41.061720372703924],[19.808725597132277,41.061718523939504],[19.808727618666783,41.061804953696736],[19.808589638379477,41.06180680246317]]]},"properties":{"Zk_Numer":1361,"Zk_Emer":"CAUSHAJ","Nr_Pas":"75/1-ND","Vol":2,"Faqe":8,"Pronaret":"SHPETIM XHEPI HAJDAR","Kufizimet":"PASURIA KUFIZOHET PER MUNGESE TE MARREDHENIES ME TRUALLIN. KJO PASURI NDODHET MBI PASURINE 143/19 NE VOL.1, FQ.50.","Siperfaqe":111.3}},
{"type":"Feature","geometry":{"type":"Polygon","coordinates":[[[19.805138197572006,41.05443872528648],[19.80512998888083,41.05435747162259],[19.80524925160193,41.054350567568285],[19.805257460439062,41.05443182122411],[19.805138197572006,41.05443872528648]]]},"properties":{"Zk_Numer":1361,"Zk_Emer":"CAUSHAJ","Nr_Pas":"222/1-ND","Vol":2,"Faqe":35,"Pronaret":"ALTIN SHYLE MYFTAR, LLAVDIJE SHYLE XHAFERR","Kufizimet":"PASURIA KUFIZOHET PER MUNGESE TE MARREDHENIES ME TRUALLIN. KJO PASURI NDODHET MBI PASURINE NR.150/10 NE VOL.2, FQ.54.","Siperfaqe":91}},
{"type":"Feature","geometry":{"type":"Polygon","coordinates":[[[19.805114345240607,41.05378990567822],[19.804995915298047,41.053819933492115],[19.804957882505512,41.05373397872521],[19.805076312310916,41.05370395094965],[19.805114345240607,41.05378990567822]]]},"properties":{"Zk_Numer":1361,"Zk_Emer":"CAUSHAJ","Nr_Pas":"397-ND","Vol":1,"Faqe":12,"Pronaret":"ARBEN HARIZI RAMAZAN","Kufizimet":"PASURIA KUFIZOHET PER MUNGESE TE MARREDHENIES ME TRUALLIN. KJO NDERTESE NDODHET MBI PASURINE NR.397 NE VOL.1, FQ.4.","Siperfaqe":105.7}},
{"type":"Feature","geometry":{"type":"Polygon","coordinates":[[[19.80863487848784,41.05434176269739],[19.808647968139248,41.054237781276996],[19.808766385250955,41.05424632308219],[19.80875329578421,41.054350304516284],[19.80863487848784,41.05434176269739]]]},"properties":{"Zk_Numer":1361,"Zk_Emer":"CAUSHAJ","Nr_Pas":"116/9-ND","Vol":2,"Faqe":37,"Pronaret":"SHAQIR HARIZI MUSTAFA, LAHE HARIZI HYSEN","Kufizimet":"PASURIA KUFIZOHET PER MUNGESE TE MARREDHENIES ME TRUALLIN. KJO PASURI NDODHET MBI PASURINE ME NR.149/1 NE VOL.1, FQ.14.","Siperfaqe":116}},
{"type":"Feature","geometry":{"type":"Polygon","coordinates":[[[19.808655820259933,41.05691276496963],[19.808689128516022,41.05691282026804],[19.80868916895338,41.056898863298706],[19.80872188241236,41.056898917600236],[19.808721517233167,41.05702498054806],[19.80865549539909,41.057024870947664],[19.808655820259933,41.05691276496963]]]},"properties":{"Zk_Numer":1361,"Zk_Emer":"CAUSHAJ","Nr_Pas":"265/1-ND","Vol":1,"Faqe":44,"Pronaret":"ORKIDA HEMA OSMAN, SHPETIM HEMA BEHXHET","Kufizimet":"PASURIA KUFIZOHET PER MUNGESE TE MARREDHENIES ME TRUALLIN. KJO PASURI NDODHET MBI PASURINE NR 148/3 NE VOL.1, FQ.21.","Siperfaqe":73.4}},
{"type":"Feature","geometry":{"type":"Polygon","coordinates":[[[19.809064058947172,41.05715152152375],[19.809080378995333,41.0570423622661],[19.809184736380296,41.05705162974654],[19.80916955840802,41.05714955758201],[19.809118958405545,41.05714506404964],[19.80911722574897,41.05715624302528],[19.809064058947172,41.05715152152375]]]},"properties":{"Zk_Numer":1361,"Zk_Emer":"CAUSHAJ","Nr_Pas":"262/1-ND","Vol":1,"Faqe":13,"Pronaret":"ILIR HEMA HASAN","Kufizimet":"PASURIA KUFIZOHET PER MUNGESE TE MARREDHENIES ME TRUALLIN. KJO PASURI NDODHET MBI PASURINE NR 176/32 NE VOL.2, FQ.97.","Siperfaqe":102.1}},
{"type":"Feature","geometry":{"type":"Polygon","coordinates":[[[19.80620151485622,41.060127493750365],[19.806093285330554,41.060089308138465],[19.806139513766112,41.06001427870339],[19.806147804774444,41.06000082225401],[19.806255620560684,41.06003888045899],[19.80620151485622,41.060127493750365]]]},"properties":{"Zk_Numer":1361,"Zk_Emer":"CAUSHAJ","Nr_Pas":"","Vol":0,"Faqe":0,"Pronaret":"","Kufizimet":"","Siperfaqe":108.6}},
{"type":"Feature","geometry":{"type":"Polygon","coordinates":[[[19.806255620560684,41.06003888045899],[19.806363436471532,41.06007693856314],[19.806308917252995,41.06016542454895],[19.80620151485622,41.060127493750365],[19.806255620560684,41.06003888045899]]]},"properties":{"Zk_Numer":1361,"Zk_Emer":"CAUSHAJ","Nr_Pas":"","Vol":0,"Faqe":0,"Pronaret":"","Kufizimet":"","Siperfaqe":108.2}},
{"type":"Feature","geometry":{"type":"Polygon","coordinates":[[[19.804808713179636,41.06134610942153],[19.804764514614778,41.061421895719164],[19.804623060251068,41.06137463431999],[19.80466725894624,41.061298848076284],[19.804808713179636,41.06134610942153]]]},"properties":{"Zk_Numer":1361,"Zk_Emer":"CAUSHAJ","Nr_Pas":"","Vol":0,"Faqe":0,"Pronaret":"","Kufizimet":"","Siperfaqe":119.6}},
{"type":"Feature","geometry":{"type":"Polygon","coordinates":[[[19.805775432647014,41.06110793431197],[19.805844233371023,41.06120683500174],[19.80579160060246,41.061227811078496],[19.805722799935683,41.061128910357795],[19.805775432647014,41.06110793431197]]]},"properties":{"Zk_Numer":1361,"Zk_Emer":"CAUSHAJ","Nr_Pas":"","Vol":0,"Faqe":0,"Pronaret":"","Kufizimet":"","Siperfaqe":62.1}},
{"type":"Feature","geometry":{"type":"Polygon","coordinates":[[[19.8053186303083,41.061046816209775],[19.805251494429655,41.06105403802436],[19.805232719200095,41.06095404463883],[19.805299854979022,41.06094682283483],[19.8053186303083,41.061046816209775]]]},"properties":{"Zk_Numer":1361,"Zk_Emer":"CAUSHAJ","Nr_Pas":"","Vol":0,"Faqe":0,"Pronaret":"","Kufizimet":"","Siperfaqe":63.9}},
{"type":"Feature","geometry":{"type":"Polygon","coordinates":[[[19.805649513426,41.060904796065266],[19.805751391471027,41.060879868563404],[19.80577251698034,41.06092933220559],[19.805611775923378,41.060968662245074],[19.80557601341891,41.060884926744734],[19.805634876297706,41.06087052423452],[19.805649513426,41.060904796065266]]]},"properties":{"Zk_Numer":1361,"Zk_Emer":"CAUSHAJ","Nr_Pas":"","Vol":0,"Faqe":0,"Pronaret":"","Kufizimet":"","Siperfaqe":102.8}},
{"type":"Feature","geometry":{"type":"Polygon","coordinates":[[[19.805661648193922,41.06060559191316],[19.805518558956365,41.06068561693705],[19.805462001661038,41.06062768045075],[19.805605090841038,41.06054765549616],[19.805661648193922,41.06060559191316]]]},"properties":{"Zk_Numer":1361,"Zk_Emer":"CAUSHAJ","Nr_Pas":"","Vol":0,"Faqe":0,"Pronaret":"","Kufizimet":"","Siperfaqe":119.6}},
{"type":"Feature","geometry":{"type":"Polygon","coordinates":[[[19.80563350798162,41.06100073603007],[19.80569367963082,41.0609864768727],[19.805732838290478,41.06108114451412],[19.8056726665633,41.06109540369152],[19.80563350798162,41.06100073603007]]]},"properties":{"Zk_Numer":1361,"Zk_Emer":"CAUSHAJ","Nr_Pas":"","Vol":0,"Faqe":0,"Pronaret":"","Kufizimet":"","Siperfaqe":58.4}},
{"type":"Feature","geometry":{"type":"Polygon","coordinates":[[[19.80532560763975,41.060730708720975],[19.805338991384474,41.060766210193265],[19.80529208773835,41.06077634037716],[19.80526107671802,41.06069408084828],[19.805380803834737,41.06066822231347],[19.805398431225214,41.060714980339355],[19.80532560763975,41.060730708720975]]]},"properties":{"Zk_Numer":1361,"Zk_Emer":"CAUSHAJ","Nr_Pas":"","Vol":0,"Faqe":0,"Pronaret":"","Kufizimet":"","Siperfaqe":73.3}},
{"type":"Feature","geometry":{"type":"Polygon","coordinates":[[[19.805894489356632,41.06079668825931],[19.8059291700859,41.06090428808007],[19.805877013084736,41.06091391899228],[19.80584233243553,41.06080631915618],[19.805894489356632,41.06079668825931]]]},"properties":{"Zk_Numer":1361,"Zk_Emer":"CAUSHAJ","Nr_Pas":"","Vol":0,"Faqe":0,"Pronaret":"","Kufizimet":"","Siperfaqe":55.5}},
{"type":"Feature","geometry":{"type":"Polygon","coordinates":[[[19.805134934875326,41.060882620561735],[19.80499478627331,41.06091799676396],[19.80496708767075,41.06085264189581],[19.80510582656139,41.060818236937564],[19.805134934875326,41.060882620561735]]]},"properties":{"Zk_Numer":1361,"Zk_Emer":"CAUSHAJ","Nr_Pas":"","Vol":0,"Faqe":0,"Pronaret":"","Kufizimet":"","Siperfaqe":93.7}},
{"type":"Feature","geometry":{"type":"Polygon","coordinates":[[[19.804902678326297,41.06067196682085],[19.804964664222343,41.060649024864375],[19.805018381347825,41.06073217357956],[19.80491899004733,41.06076895985147],[19.804884608858885,41.060715741140946],[19.80492201418068,41.06070189686491],[19.804902678326297,41.06067196682085]]]},"properties":{"Zk_Numer":1361,"Zk_Emer":"CAUSHAJ","Nr_Pas":"","Vol":0,"Faqe":0,"Pronaret":"","Kufizimet":"","Siperfaqe":82.6}},
{"type":"Feature","geometry":{"type":"Polygon","coordinates":[[[19.804767015145334,41.060972128856065],[19.804817986404572,41.0610464544019],[19.804708346372294,41.06108953010394],[19.804657375203615,41.06101520451039],[19.804767015145334,41.060972128856065]]]},"properties":{"Zk_Numer":1361,"Zk_Emer":"CAUSHAJ","Nr_Pas":"","Vol":0,"Faqe":0,"Pronaret":"","Kufizimet":"","Siperfaqe":96.6}},
{"type":"Feature","geometry":{"type":"Polygon","coordinates":[[[19.804937219234375,41.0609382560663],[19.804967583637428,41.061006527484395],[19.80489912664032,41.061023970447884],[19.804868762300174,41.06095569901209],[19.804937219234375,41.0609382560663]]]},"properties":{"Zk_Numer":1361,"Zk_Emer":"CAUSHAJ","Nr_Pas":"","Vol":0,"Faqe":0,"Pronaret":"","Kufizimet":"","Siperfaqe":48.6}},
{"type":"Feature","geometry":{"type":"Polygon","coordinates":[[[19.804065496871658,41.061545403088815],[19.804115390254996,41.06150932744452],[19.804221663528942,41.06159352932537],[19.80417177013968,41.06162960501513],[19.804065496871658,41.061545403088815]]]},"properties":{"Zk_Numer":1361,"Zk_Emer":"CAUSHAJ","Nr_Pas":"","Vol":0,"Faqe":0,"Pronaret":"","Kufizimet":"","Siperfaqe":75}},
{"type":"Feature","geometry":{"type":"Polygon","coordinates":[[[19.803892757588727,41.061519925648064],[19.803936326489122,41.06143872487453],[19.803996949469976,41.06145735962295],[19.80395338063167,41.06153856041928],[19.803892757588727,41.061519925648064]]]},"properties":{"Zk_Numer":1361,"Zk_Emer":"CAUSHAJ","Nr_Pas":"","Vol":0,"Faqe":0,"Pronaret":"","Kufizimet":"","Siperfaqe":53.5}},
{"type":"Feature","geometry":{"type":"Polygon","coordinates":[[[19.80384003260109,41.061574976614345],[19.803818675338952,41.061619917895705],[19.803706730157945,41.06158944068063],[19.803728087486263,41.06154449941992],[19.80384003260109,41.061574976614345]]]},"properties":{"Zk_Numer":1361,"Zk_Emer":"CAUSHAJ","Nr_Pas":"","Vol":0,"Faqe":0,"Pronaret":"","Kufizimet":"","Siperfaqe":53}},
{"type":"Feature","geometry":{"type":"Polygon","coordinates":[[[19.805022698839664,41.06024674493938],[19.805143166202807,41.06023740388869],[19.805155289932046,41.06032698018803],[19.805034822407073,41.06033632125088],[19.805022698839664,41.06024674493938]]]},"properties":{"Zk_Numer":1361,"Zk_Emer":"CAUSHAJ","Nr_Pas":"","Vol":0,"Faqe":0,"Pronaret":"","Kufizimet":"","Siperfaqe":101.8}},
{"type":"Feature","geometry":{"type":"Polygon","coordinates":[[[19.80529469901959,41.06029652799974],[19.80528856082227,41.06034492988489],[19.8051772812035,41.06033684483769],[19.8051834194816,41.060288442958594],[19.80529469901959,41.06029652799974]]]},"properties":{"Zk_Numer":1361,"Zk_Emer":"CAUSHAJ","Nr_Pas":"","Vol":0,"Faqe":0,"Pronaret":"","Kufizimet":"","Siperfaqe":50.7}},
{"type":"Feature","geometry":{"type":"Polygon","coordinates":[[[19.805346656301005,41.06037901604343],[19.805316145776885,41.06040665630883],[19.805270499047783,41.06037778927177],[19.805301009566918,41.06035014901434],[19.805346656301005,41.06037901604343]]]},"properties":{"Zk_Numer":1361,"Zk_Emer":"CAUSHAJ","Nr_Pas":"","Vol":0,"Faqe":0,"Pronaret":"","Kufizimet":"","Siperfaqe":20}},
{"type":"Feature","geometry":{"type":"Polygon","coordinates":[[[19.80547918753274,41.0603741613869],[19.805500943253247,41.06040103295103],[19.80536400753178,41.060464548669806],[19.80531729355318,41.060406849751054],[19.805357867107194,41.06038803031313],[19.80538282541219,41.06041885763361],[19.80547918753274,41.0603741613869]]]},"properties":{"Zk_Numer":1361,"Zk_Emer":"CAUSHAJ","Nr_Pas":"","Vol":0,"Faqe":0,"Pronaret":"","Kufizimet":"","Siperfaqe":63.3}},
{"type":"Feature","geometry":{"type":"Polygon","coordinates":[[[19.803108883958835,41.06101284392774],[19.80316039996889,41.060939770102365],[19.803249614194698,41.0609758023094],[19.80319809825496,41.06104887617436],[19.803108883958835,41.06101284392774]]]},"properties":{"Zk_Numer":1361,"Zk_Emer":"CAUSHAJ","Nr_Pas":"","Vol":0,"Faqe":0,"Pronaret":"","Kufizimet":"","Siperfaqe":78.2}},
{"type":"Feature","geometry":{"type":"Polygon","coordinates":[[[19.803631937571197,41.057141898514075],[19.80354180260357,41.057143820456695],[19.803540918296697,41.05712005796021],[19.80347076049408,41.05712155388211],[19.80346924984767,41.05708095961623],[19.80353940760718,41.057079463695146],[19.803538489805543,41.0570548011038],[19.803628624651733,41.057052879163464],[19.803631937571197,41.057141898514075]]]},"properties":{"Zk_Numer":1361,"Zk_Emer":"CAUSHAJ","Nr_Pas":"","Vol":0,"Faqe":0,"Pronaret":"","Kufizimet":"","Siperfaqe":101.6}},
{"type":"Feature","geometry":{"type":"Polygon","coordinates":[[[19.808597713714956,41.05411222249572],[19.80860181962716,41.054004212936704],[19.808741531697603,41.0540072561918],[19.80873742601368,41.054115265756245],[19.808597713714956,41.05411222249572]]]},"properties":{"Zk_Numer":1361,"Zk_Emer":"CAUSHAJ","Nr_Pas":"","Vol":0,"Faqe":0,"Pronaret":"","Kufizimet":"","Siperfaqe":141}},
{"type":"Feature","geometry":{"type":"Polygon","coordinates":[[[19.808603135624935,41.06091509287143],[19.808607801957873,41.060807096469844],[19.808752862149582,41.060810687195094],[19.80874819605364,41.060918683603006],[19.808603135624935,41.06091509287143]]]},"properties":{"Zk_Numer":1361,"Zk_Emer":"CAUSHAJ","Nr_Pas":"","Vol":0,"Faqe":0,"Pronaret":"","Kufizimet":"","Siperfaqe":146.4}},
{"type":"Feature","geometry":{"type":"Polygon","coordinates":[[[19.808268123548185,41.05840927512914],[19.808260148149934,41.05830138970772],[19.808427620943757,41.05829429632602],[19.80843559661489,41.05840218173657],[19.808268123548185,41.05840927512914]]]},"properties":{"Zk_Numer":1361,"Zk_Emer":"CAUSHAJ","Nr_Pas":"","Vol":0,"Faqe":0,"Pronaret":"","Kufizimet":"","Siperfaqe":169.2}},
{"type":"Feature","geometry":{"type":"Polygon","coordinates":[[[19.808601644006373,41.05462432301549],[19.808603010102367,41.05457231695642],[19.808673639728315,41.05457338003954],[19.80867227368791,41.054625386099566],[19.808601644006373,41.05462432301549]]]},"properties":{"Zk_Numer":1361,"Zk_Emer":"CAUSHAJ","Nr_Pas":"","Vol":0,"Faqe":0,"Pronaret":"","Kufizimet":"","Siperfaqe":34.3}},
{"type":"Feature","geometry":{"type":"Polygon","coordinates":[[[19.808214223227967,41.05606168932062],[19.808250517192654,41.0559362395035],[19.808504852155263,41.05597840046804],[19.808468558649974,41.05610385036535],[19.808214223227967,41.05606168932062]]]},"properties":{"Zk_Numer":1361,"Zk_Emer":"CAUSHAJ","Nr_Pas":"","Vol":0,"Faqe":0,"Pronaret":"","Kufizimet":"","Siperfaqe":312.2}},
{"type":"Feature","geometry":{"type":"Polygon","coordinates":[[[19.80854489250541,41.054825356296796],[19.808544421288065,41.05469802774079],[19.80869941906812,41.054697698950626],[19.80869989058433,41.054825027506666],[19.80854489250541,41.054825356296796]]]},"properties":{"Zk_Numer":1361,"Zk_Emer":"CAUSHAJ","Nr_Pas":"","Vol":0,"Faqe":0,"Pronaret":"","Kufizimet":"","Siperfaqe":184.3}},
{"type":"Feature","geometry":{"type":"Polygon","coordinates":[[[19.80835856050744,41.05796353196367],[19.8083442974975,41.05796397893375],[19.808341345005864,41.05790999807834],[19.80835560800416,41.0579095511086],[19.808355017504063,41.05789875493752],[19.808473281505115,41.05789504874603],[19.80847736992942,41.05796977650739],[19.808409026335553,41.057971918293376],[19.808408481040757,41.05796196755453],[19.80835856050744,41.05796353196367]]]},"properties":{"Zk_Numer":1361,"Zk_Emer":"CAUSHAJ","Nr_Pas":"","Vol":0,"Faqe":0,"Pronaret":"","Kufizimet":"","Siperfaqe":85.2}},
{"type":"Feature","geometry":{"type":"Polygon","coordinates":[[[19.805186197861037,41.06112546287692],[19.80512687552922,41.06115550996076],[19.805086720062096,41.06111009111572],[19.805146042371213,41.06108004405227],[19.805186197861037,41.06112546287692]]]},"properties":{"Zk_Numer":1361,"Zk_Emer":"CAUSHAJ","Nr_Pas":"","Vol":0,"Faqe":0,"Pronaret":"","Kufizimet":"","Siperfaqe":36.4}},
{"type":"Feature","geometry":{"type":"Polygon","coordinates":[[[19.8065646041757,41.06302334638408],[19.80641163139516,41.062767744486564],[19.806534705163102,41.06271909592182],[19.80669230131268,41.06298070440404],[19.8065646041757,41.06302334638408]]]},"properties":{"Zk_Numer":1361,"Zk_Emer":"CAUSHAJ","Nr_Pas":"","Vol":0,"Faqe":0,"Pronaret":"","Kufizimet":"","Siperfaqe":368.8}},
{"type":"Feature","geometry":{"type":"Polygon","coordinates":[[[19.805523631090832,41.05410064130231],[19.805587742379398,41.05419792847145],[19.80550258678168,41.05423008427415],[19.805438475587717,41.05413279705839],[19.805523631090832,41.05410064130231]]]},"properties":{"Zk_Numer":1361,"Zk_Emer":"CAUSHAJ","Nr_Pas":"","Vol":0,"Faqe":0,"Pronaret":"","Kufizimet":"","Siperfaqe":96.6}},
{"type":"Feature","geometry":{"type":"Polygon","coordinates":[[[19.80557472551667,41.05420857109369],[19.805627947732777,41.054188473692065],[19.80569205924812,41.054285760802195],[19.805638836972886,41.05430585823296],[19.80557472551667,41.05420857109369]]]},"properties":{"Zk_Numer":1361,"Zk_Emer":"CAUSHAJ","Nr_Pas":"","Vol":0,"Faqe":0,"Pronaret":"","Kufizimet":"","Siperfaqe":60.4}},
{"type":"Feature","geometry":{"type":"Polygon","coordinates":[[[19.805840542128113,41.062886073708604],[19.805906671406976,41.06282233682796],[19.806002310321137,41.06287918138517],[19.80593618107724,41.06294291832014],[19.805840542128113,41.062886073708604]]]},"properties":{"Zk_Numer":1361,"Zk_Emer":"CAUSHAJ","Nr_Pas":"","Vol":0,"Faqe":0,"Pronaret":"","Kufizimet":"","Siperfaqe":92}},
{"type":"Feature","geometry":{"type":"Polygon","coordinates":[[[19.805480969818515,41.06271167733826],[19.80557771640585,41.06262034974487],[19.805683374316512,41.062684469122566],[19.805586627780684,41.062775796803756],[19.805480969818515,41.06271167733826]]]},"properties":{"Zk_Numer":1361,"Zk_Emer":"CAUSHAJ","Nr_Pas":"","Vol":0,"Faqe":0,"Pronaret":"","Kufizimet":"","Siperfaqe":148}},
{"type":"Feature","geometry":{"type":"Polygon","coordinates":[[[19.805696824310417,41.06298143590077],[19.80579984306568,41.063056242201654],[19.80569907970666,41.063135735428126],[19.805596060942225,41.06306092903818],[19.805696824310417,41.06298143590077]]]},"properties":{"Zk_Numer":1361,"Zk_Emer":"CAUSHAJ","Nr_Pas":"","Vol":0,"Faqe":0,"Pronaret":"","Kufizimet":"","Siperfaqe":146.8}},
{"type":"Feature","geometry":{"type":"Polygon","coordinates":[[[19.806244522440668,41.063523399153766],[19.80622722162764,41.063425218949256],[19.806362078772366,41.063411605667206],[19.80637937978255,41.06350978585217],[19.806244522440668,41.063523399153766]]]},"properties":{"Zk_Numer":1361,"Zk_Emer":"CAUSHAJ","Nr_Pas":"","Vol":0,"Faqe":0,"Pronaret":"","Kufizimet":"","Siperfaqe":125.8}},
{"type":"Feature","geometry":{"type":"Polygon","coordinates":[[[19.80624427625785,41.06327597110438],[19.806282881797888,41.06331660141149],[19.80619595362086,41.06336391716451],[19.80615734810688,41.06332328682866],[19.80624427625785,41.06327597110438]]]},"properties":{"Zk_Numer":1361,"Zk_Emer":"CAUSHAJ","Nr_Pas":"","Vol":0,"Faqe":0,"Pronaret":"","Kufizimet":"","Siperfaqe":50}},
{"type":"Feature","geometry":{"type":"Polygon","coordinates":[[[19.805770012760654,41.06145015814166],[19.80571905287191,41.06150559348275],[19.805625308782528,41.06145622420775],[19.805706844618587,41.06136752772394],[19.805753718492195,41.06139221331859],[19.805723142585673,41.06142547452394],[19.805770012760654,41.06145015814166]]]},"properties":{"Zk_Numer":1361,"Zk_Emer":"CAUSHAJ","Nr_Pas":"","Vol":0,"Faqe":0,"Pronaret":"","Kufizimet":"","Siperfaqe":93.6}},
{"type":"Feature","geometry":{"type":"Polygon","coordinates":[[[19.806139513766112,41.06001427870339],[19.806025128737186,41.06008811286008],[19.805923619713248,41.05999801654592],[19.806038004698816,41.05992418248874],[19.806139513766112,41.06001427870339]]]},"properties":{"Zk_Numer":1361,"Zk_Emer":"CAUSHAJ","Nr_Pas":"","Vol":0,"Faqe":0,"Pronaret":"","Kufizimet":"","Siperfaqe":166.2}},
{"type":"Feature","geometry":{"type":"Polygon","coordinates":[[[19.806855372530297,41.06212671152397],[19.806837297846887,41.06207255391085],[19.806896551767217,41.06206122492515],[19.806914626496205,41.06211538252919],[19.806855372530297,41.06212671152397]]]},"properties":{"Zk_Numer":1361,"Zk_Emer":"CAUSHAJ","Nr_Pas":"","Vol":0,"Faqe":0,"Pronaret":"","Kufizimet":"","Siperfaqe":31.9}},
{"type":"Feature","geometry":{"type":"Polygon","coordinates":[[[19.802478526427937,41.060920043815415],[19.802492812523603,41.060867988860366],[19.802582522353816,41.06088209371076],[19.80256823632574,41.060934148676964],[19.802478526427937,41.060920043815415]]]},"properties":{"Zk_Numer":1361,"Zk_Emer":"CAUSHAJ","Nr_Pas":"","Vol":0,"Faqe":0,"Pronaret":"","Kufizimet":"","Siperfaqe":45.5}},
{"type":"Feature","geometry":{"type":"Polygon","coordinates":[[[19.80365746405571,41.06112514281545],[19.803686295749266,41.06102008046101],[19.803860600391513,41.06104748392496],[19.803831768963025,41.0611525463231],[19.80365746405571,41.06112514281545]]]},"properties":{"Zk_Numer":1361,"Zk_Emer":"CAUSHAJ","Nr_Pas":"","Vol":0,"Faqe":0,"Pronaret":"","Kufizimet":"","Siperfaqe":178.3}},
{"type":"Feature","geometry":{"type":"Polygon","coordinates":[[[19.804057105346033,41.061773222092626],[19.803967409447157,41.06169361371966],[19.80407776709479,41.06162238028933],[19.804167463030634,41.061701988577475],[19.804057105346033,41.061773222092626]]]},"properties":{"Zk_Numer":1361,"Zk_Emer":"CAUSHAJ","Nr_Pas":"","Vol":0,"Faqe":0,"Pronaret":"","Kufizimet":"","Siperfaqe":141.7}},
{"type":"Feature","geometry":{"type":"Polygon","coordinates":[[[19.803462643600316,41.06152712083195],[19.803480378459067,41.061619210444114],[19.803304978829267,41.0616385618153],[19.803287244210185,41.06154647217698],[19.803462643600316,41.06152712083195]]]},"properties":{"Zk_Numer":1361,"Zk_Emer":"CAUSHAJ","Nr_Pas":"","Vol":0,"Faqe":0,"Pronaret":"","Kufizimet":"","Siperfaqe":154}},
{"type":"Feature","geometry":{"type":"Polygon","coordinates":[[[19.803166279972068,41.06165764608307],[19.80314820191897,41.06156377209116],[19.803266076304666,41.06155076750529],[19.803284154521954,41.061644641479276],[19.803166279972068,41.06165764608307]]]},"properties":{"Zk_Numer":1361,"Zk_Emer":"CAUSHAJ","Nr_Pas":"","Vol":0,"Faqe":0,"Pronaret":"","Kufizimet":"","Siperfaqe":105.5}},
{"type":"Feature","geometry":{"type":"Polygon","coordinates":[[[19.804650100263714,41.05564981642306],[19.804648820211007,41.055642084268904],[19.80459453321423,41.05564723382781],[19.804590177910107,41.055620925483325],[19.80456381966712,41.05562342576548],[19.804555327351185,41.05557212749363],[19.804581083389944,41.05556968433521],[19.804577428753177,41.05554760834103],[19.804625558107052,41.05554304288559],[19.80462368730664,41.055531742277445],[19.804697572662842,41.055524733618135],[19.804717225993887,41.05564344897041],[19.804650100263714,41.05564981642306]]]},"properties":{"Zk_Numer":1361,"Zk_Emer":"CAUSHAJ","Nr_Pas":"","Vol":0,"Faqe":0,"Pronaret":"","Kufizimet":"","Siperfaqe":140.6}},
{"type":"Feature","geometry":{"type":"Polygon","coordinates":[[[19.804726474482774,41.0548463359201],[19.804713112193788,41.054722848112114],[19.804868292030555,41.05471322631258],[19.80488165460792,41.05483671410342],[19.804726474482774,41.0548463359201]]]},"properties":{"Zk_Numer":1361,"Zk_Emer":"CAUSHAJ","Nr_Pas":"","Vol":0,"Faqe":0,"Pronaret":"","Kufizimet":"","Siperfaqe":180.1}},
{"type":"Feature","geometry":{"type":"Polygon","coordinates":[[[19.80393833610479,41.05500551384826],[19.803964009900668,41.05494767695346],[19.804100820199032,41.0549824753735],[19.80407514650921,41.05504031229866],[19.80393833610479,41.05500551384826]]]},"properties":{"Zk_Numer":1361,"Zk_Emer":"CAUSHAJ","Nr_Pas":"","Vol":0,"Faqe":0,"Pronaret":"","Kufizimet":"","Siperfaqe":82.2}},
{"type":"Feature","geometry":{"type":"Polygon","coordinates":[[[19.8062044113611,41.06190970154442],[19.80618117673772,41.06188484477283],[19.80613137528379,41.061911513196236],[19.806046014224442,41.06182019229519],[19.80614558528952,41.0617668724924],[19.806254181051045,41.0618830500824],[19.8062044113611,41.06190970154442]]]},"properties":{"Zk_Numer":1361,"Zk_Emer":"CAUSHAJ","Nr_Pas":"","Vol":0,"Faqe":0,"Pronaret":"","Kufizimet":"","Siperfaqe":144.7}},
{"type":"Feature","geometry":{"type":"Polygon","coordinates":[[[19.80577182227386,41.05433850984579],[19.80574428145759,41.05427784631469],[19.805891066819676,41.05423966077398],[19.80591860775514,41.05430032427066],[19.80577182227386,41.05433850984579]]]},"properties":{"Zk_Numer":1361,"Zk_Emer":"CAUSHAJ","Nr_Pas":"","Vol":0,"Faqe":0,"Pronaret":"","Kufizimet":"","Siperfaqe":93}},
{"type":"Feature","geometry":{"type":"Polygon","coordinates":[[[19.80436711962596,41.057041164459285],[19.804452835084117,41.057007846642826],[19.804478375319892,41.05704549419223],[19.804527053220205,41.057026572925096],[19.804558479200804,41.057072896210094],[19.80442408573935,41.05712513533971],[19.80436711962596,41.057041164459285]]]},"properties":{"Zk_Numer":1361,"Zk_Emer":"CAUSHAJ","Nr_Pas":"","Vol":0,"Faqe":0,"Pronaret":"","Kufizimet":"","Siperfaqe":111.5}},
{"type":"Feature","geometry":{"type":"Polygon","coordinates":[[[19.8045009522071,41.05662313340414],[19.804408872082256,41.05666159423022],[19.804359445976708,41.056593792773576],[19.804451526035486,41.05655533198638],[19.804480262144995,41.05659475141862],[19.8045009522071,41.05662313340414]]]},"properties":{"Zk_Numer":1361,"Zk_Emer":"CAUSHAJ","Nr_Pas":"","Vol":0,"Faqe":0,"Pronaret":"","Kufizimet":"","Siperfaqe":76}},
{"type":"Feature","geometry":{"type":"Polygon","coordinates":[[[19.803902526040936,41.05666174902518],[19.804035397300815,41.0566212272019],[19.804079852372777,41.05670474840805],[19.80394698097171,41.05674527028169],[19.803902526040936,41.05666174902518]]]},"properties":{"Zk_Numer":1361,"Zk_Emer":"CAUSHAJ","Nr_Pas":"","Vol":0,"Faqe":0,"Pronaret":"","Kufizimet":"","Siperfaqe":120.4}},
{"type":"Feature","geometry":{"type":"Polygon","coordinates":[[[19.803779376848723,41.05720297349965],[19.803898325245324,41.057204167184835],[19.803896354410977,41.057316696638914],[19.803777405811715,41.057315502951255],[19.803779376848723,41.05720297349965]]]},"properties":{"Zk_Numer":1361,"Zk_Emer":"CAUSHAJ","Nr_Pas":"","Vol":0,"Faqe":0,"Pronaret":"","Kufizimet":"","Siperfaqe":125}},
{"type":"Feature","geometry":{"type":"Polygon","coordinates":[[[19.803522849951843,41.05722102040484],[19.803617284079852,41.05722994380881],[19.80360664252134,41.05729446942361],[19.803512208302557,41.05728554601083],[19.803522849951843,41.05722102040484]]]},"properties":{"Zk_Numer":1361,"Zk_Emer":"CAUSHAJ","Nr_Pas":"","Vol":0,"Faqe":0,"Pronaret":"","Kufizimet":"","Siperfaqe":57.8}},
{"type":"Feature","geometry":{"type":"Polygon","coordinates":[[[19.805478133595894,41.05774500546138],[19.805386057577152,41.057789701611156],[19.805302573901553,41.05769116471649],[19.80539464983887,41.05764646863246],[19.805478133595894,41.05774500546138]]]},"properties":{"Zk_Numer":1361,"Zk_Emer":"CAUSHAJ","Nr_Pas":"","Vol":0,"Faqe":0,"Pronaret":"","Kufizimet":"","Siperfaqe":119.5}},
{"type":"Feature","geometry":{"type":"Polygon","coordinates":[[[19.804932192940694,41.05696973129655],[19.805000814283233,41.056950374383625],[19.804992527942215,41.05693354314525],[19.805095426210272,41.056904517197786],[19.805155778842906,41.05702710503097],[19.8049842589725,41.05707548797468],[19.804932192940694,41.05696973129655]]]},"properties":{"Zk_Numer":1361,"Zk_Emer":"CAUSHAJ","Nr_Pas":"","Vol":0,"Faqe":0,"Pronaret":"","Kufizimet":"","Siperfaqe":211.3}},
{"type":"Feature","geometry":{"type":"Polygon","coordinates":[[[19.80456538917755,41.056590708570404],[19.80465791143437,41.05652398120835],[19.804723276373544,41.05657591167639],[19.804630754109603,41.0566426390903],[19.80456538917755,41.056590708570404]]]},"properties":{"Zk_Numer":1361,"Zk_Emer":"CAUSHAJ","Nr_Pas":"","Vol":0,"Faqe":0,"Pronaret":"","Kufizimet":"","Siperfaqe":85.6}},
{"type":"Feature","geometry":{"type":"Polygon","coordinates":[[[19.80484015829831,41.0568408102118],[19.80476789660516,41.05673159523829],[19.804875083822846,41.05669096003166],[19.80494734564933,41.05680017493902],[19.80484015829831,41.0568408102118]]]},"properties":{"Zk_Numer":1361,"Zk_Emer":"CAUSHAJ","Nr_Pas":"","Vol":0,"Faqe":0,"Pronaret":"","Kufizimet":"","Siperfaqe":136.7}},
{"type":"Feature","geometry":{"type":"Polygon","coordinates":[[[19.808995379211137,41.05790112990362],[19.808865765338247,41.0579048999895],[19.808861974013162,41.05783021762003],[19.808991587739637,41.05782644753805],[19.808995379211137,41.05790112990362]]]},"properties":{"Zk_Numer":1361,"Zk_Emer":"CAUSHAJ","Nr_Pas":"","Vol":0,"Faqe":0,"Pronaret":"","Kufizimet":"","Siperfaqe":90.5}},
{"type":"Feature","geometry":{"type":"Polygon","coordinates":[[[19.80827274280137,41.05780784225887],[19.808271531011354,41.057785349662616],[19.808403466848336,41.05778127700399],[19.80840884740135,41.05788114412494],[19.80826144563771,41.05788569418271],[19.808257277092082,41.057808319651855],[19.80827274280137,41.05780784225887]]]},"properties":{"Zk_Numer":1361,"Zk_Emer":"CAUSHAJ","Nr_Pas":"","Vol":0,"Faqe":0,"Pronaret":"","Kufizimet":"","Siperfaqe":134.4}},
{"type":"Feature","geometry":{"type":"Polygon","coordinates":[[[19.805840464067742,41.062082895520156],[19.80575509588902,41.0619905130408],[19.805844102881345,41.06194339426967],[19.80587492269868,41.061976746394706],[19.80589441110271,41.061966429548065],[19.805948959537208,41.06202545982825],[19.805840464067742,41.062082895520156]]]},"properties":{"Zk_Numer":1361,"Zk_Emer":"CAUSHAJ","Nr_Pas":"","Vol":0,"Faqe":0,"Pronaret":"","Kufizimet":"","Siperfaqe":130.3}},
{"type":"Feature","geometry":{"type":"Polygon","coordinates":[[[19.809368692507856,41.05990675531246],[19.809361276521255,41.05980155214859],[19.809404687306465,41.05979979894715],[19.809509820491787,41.05979555293754],[19.809517236714477,41.05990075609247],[19.80938240467256,41.05990620153055],[19.809368692507856,41.05990675531246]]]},"properties":{"Zk_Numer":1361,"Zk_Emer":"CAUSHAJ","Nr_Pas":"","Vol":0,"Faqe":0,"Pronaret":"","Kufizimet":"","Siperfaqe":146.3}},
{"type":"Feature","geometry":{"type":"Polygon","coordinates":[[[19.80919347051365,41.058397332035256],[19.80925277118056,41.058396117249075],[19.8092571539803,41.05851869637469],[19.809117949031066,41.05852154796732],[19.809113566489607,41.05839896883703],[19.809112547091377,41.058370456335325],[19.809192451080936,41.05836881953415],[19.80919347051365,41.058397332035256]]]},"properties":{"Zk_Numer":1361,"Zk_Emer":"CAUSHAJ","Nr_Pas":"","Vol":0,"Faqe":0,"Pronaret":"","Kufizimet":"","Siperfaqe":180.7}},
{"type":"Feature","geometry":{"type":"Polygon","coordinates":[[[19.80906529875819,41.054995490970754],[19.809023517041076,41.05486866939898],[19.80912630915976,41.054849264491075],[19.809168091062293,41.05497608602643],[19.80906529875819,41.054995490970754]]]},"properties":{"Zk_Numer":1361,"Zk_Emer":"CAUSHAJ","Nr_Pas":"","Vol":0,"Faqe":0,"Pronaret":"","Kufizimet":"","Siperfaqe":129.3}},
{"type":"Feature","geometry":{"type":"Polygon","coordinates":[[[19.809072294106606,41.0545534530613],[19.8090462906317,41.054474523322355],[19.809136664005937,41.05445746268456],[19.8091626675823,41.05453639240358],[19.809072294106606,41.0545534530613]]]},"properties":{"Zk_Numer":1361,"Zk_Emer":"CAUSHAJ","Nr_Pas":"","Vol":0,"Faqe":0,"Pronaret":"","Kufizimet":"","Siperfaqe":70.7}}
]}