{"type":"FeatureCollection", "features": [
{"type":"Feature","geometry":{"type":"Polygon","coordinates":[[[20.070267592366392,40.433829000479115],[20.07031627393412,40.433854372203186],[20.070286390750486,40.433887851231226],[20.070310731554542,40.43390053709173],[20.070287489062927,40.433926576335146],[20.07026314825384,40.433913890469796],[20.070233597053655,40.43394699749481],[20.070184915450106,40.43392162573636],[20.070267592366392,40.433829000479115]]]},"properties":{"Zk_Numer":2216,"Zk_Emer":"KONDAS","Nr_Pas":0,"Vol":0,"Faqe":0,"Pronaret":"","Kufizimet":"","Siperfaqe":71}},
{"type":"Feature","geometry":{"type":"Polygon","coordinates":[[[20.071444829537207,40.43433508266635],[20.071396666399863,40.43437826147674],[20.071437029122187,40.434404548968374],[20.0713980398764,40.43443950324202],[20.0713110358128,40.43438283904666],[20.07139818821656,40.43430470601079],[20.071444829537207,40.43433508266635]]]},"properties":{"Zk_Numer":2216,"Zk_Emer":"KONDAS","Nr_Pas":0,"Vol":0,"Faqe":0,"Pronaret":"","Kufizimet":"","Siperfaqe":82}},
{"type":"Feature","geometry":{"type":"Polygon","coordinates":[[[20.07114897885352,40.434165361734735],[20.071178098279535,40.434132574800195],[20.071232708325564,40.43416089404084],[20.0712035889139,40.43419368098896],[20.07114897885352,40.434165361734735]]]},"properties":{"Zk_Numer":2216,"Zk_Emer":"KONDAS","Nr_Pas":0,"Vol":0,"Faqe":0,"Pronaret":"","Kufizimet":"","Siperfaqe":25}},
{"type":"Feature","geometry":{"type":"Polygon","coordinates":[[[20.07124026751255,40.43405727284646],[20.07130747605449,40.43406861005862],[20.071329341852095,40.43407229852674],[20.07132600737813,40.43408384037347],[20.071316003949406,40.43411846591289],[20.071256160680555,40.43410837114138],[20.071249301160623,40.43413211436431],[20.07121051811563,40.43412557215702],[20.071217377648548,40.43410182893636],[20.071158685240484,40.43409192824525],[20.07117202324558,40.43404576087695],[20.07124026751255,40.43405727284646]]]},"properties":{"Zk_Numer":2216,"Zk_Emer":"KONDAS","Nr_Pas":0,"Vol":0,"Faqe":0,"Pronaret":"","Kufizimet":"","Siperfaqe":81}},
{"type":"Feature","geometry":{"type":"Polygon","coordinates":[[[20.07124026751255,40.43405727284646],[20.071253224371205,40.434012424536505],[20.071320432870646,40.434023761741265],[20.07130747605449,40.43406861005862],[20.07124026751255,40.43405727284646]]]},"properties":{"Zk_Numer":2216,"Zk_Emer":"KONDAS","Nr_Pas":0,"Vol":0,"Faqe":0,"Pronaret":"","Kufizimet":"","Siperfaqe":30}},
{"type":"Feature","geometry":{"type":"Polygon","coordinates":[[[20.071320432870646,40.434023761741265],[20.071253224371205,40.434012424536505],[20.07126712869467,40.43396429664471],[20.071305051634074,40.43383303127881],[20.071331520665236,40.43383749626684],[20.071339650396517,40.43380935614357],[20.07138856055259,40.43381760664557],[20.0713799227335,40.43384750553012],[20.071393962833483,40.433849873906716],[20.071381056910155,40.43389454635782],[20.071328924379866,40.43388575228939],[20.07131800003357,40.43392356557838],[20.071370132591657,40.43393235965165],[20.071352221763984,40.43399435586323],[20.071330010741356,40.43399060916042],[20.071320432870646,40.434023761741265]]]},"properties":{"Zk_Numer":2216,"Zk_Emer":"KONDAS","Nr_Pas":0,"Vol":0,"Faqe":0,"Pronaret":"","Kufizimet":"","Siperfaqe":145}},
{"type":"Feature","geometry":{"type":"Polygon","coordinates":[[[20.071475484211057,40.43372829226457],[20.07150681817206,40.433709207384815],[20.07155236267531,40.43375286846398],[20.071521028706954,40.43377195335594],[20.071475484211057,40.43372829226457]]]},"properties":{"Zk_Numer":2216,"Zk_Emer":"KONDAS","Nr_Pas":0,"Vol":0,"Faqe":0,"Pronaret":"","Kufizimet":"","Siperfaqe":21}},
{"type":"Feature","geometry":{"type":"Polygon","coordinates":[[[20.0709444831865,40.43407774834315],[20.070984927830395,40.43393563068381],[20.071042508999287,40.4339451987036],[20.071033618730535,40.43397643819494],[20.07106356095801,40.433981413556154],[20.07105642370466,40.434006493149],[20.07105078902723,40.43402629282719],[20.071027480751717,40.43402241979969],[20.071014677985698,40.4340674073066],[20.07100804401054,40.434066304968916],[20.071002034619482,40.43408731142246],[20.0709444831865,40.43407774834315]]]},"properties":{"Zk_Numer":2216,"Zk_Emer":"KONDAS","Nr_Pas":0,"Vol":0,"Faqe":0,"Pronaret":"","Kufizimet":"","Siperfaqe":97}},
{"type":"Feature","geometry":{"type":"Polygon","coordinates":[[[20.07084418292964,40.43373146332232],[20.070948770971707,40.43372539057574],[20.07095680762187,40.43380620725388],[20.070920378037933,40.43380832249349],[20.07092269972796,40.43383166953426],[20.070854541121925,40.433835627049895],[20.070852219455332,40.43381228000775],[20.07084418292964,40.43373146332232]]]},"properties":{"Zk_Numer":2216,"Zk_Emer":"KONDAS","Nr_Pas":0,"Vol":0,"Faqe":0,"Pronaret":"","Kufizimet":"","Siperfaqe":95}},
{"type":"Feature","geometry":{"type":"Polygon","coordinates":[[[20.070383168091446,40.43409180539527],[20.070405319853457,40.434060007972185],[20.07045473514675,40.43408010842249],[20.070432583401445,40.43411190585492],[20.070383168091446,40.43409180539527]]]},"properties":{"Zk_Numer":2216,"Zk_Emer":"KONDAS","Nr_Pas":0,"Vol":0,"Faqe":0,"Pronaret":"","Kufizimet":"","Siperfaqe":19}},
{"type":"Feature","geometry":{"type":"Polygon","coordinates":[[[20.07053225864076,40.43393002602519],[20.070578933275105,40.43393508318153],[20.07056528320567,40.434008642897716],[20.07051860852148,40.434003585735994],[20.07053225864076,40.43393002602519]]]},"properties":{"Zk_Numer":2216,"Zk_Emer":"KONDAS","Nr_Pas":0,"Vol":0,"Faqe":0,"Pronaret":"","Kufizimet":"","Siperfaqe":33}},
{"type":"Feature","geometry":{"type":"Polygon","coordinates":[[[20.07056528320567,40.434008642897716],[20.070556927694025,40.43405367035911],[20.07045190959573,40.43404229171124],[20.070473448611445,40.433923653981374],[20.07053225864076,40.43393002602519],[20.07051860852148,40.434003585735994],[20.07056528320567,40.434008642897716]]]},"properties":{"Zk_Numer":2216,"Zk_Emer":"KONDAS","Nr_Pas":0,"Vol":0,"Faqe":0,"Pronaret":"","Kufizimet":"","Siperfaqe":87}},
{"type":"Feature","geometry":{"type":"Polygon","coordinates":[[[20.071185159295705,40.43381348598462],[20.071176736713415,40.43372817598825],[20.071231970863398,40.43372499188423],[20.071240393515076,40.43381030187657],[20.071185159295705,40.43381348598462]]]},"properties":{"Zk_Numer":2216,"Zk_Emer":"KONDAS","Nr_Pas":0,"Vol":0,"Faqe":0,"Pronaret":"","Kufizimet":"","Siperfaqe":45}},
{"type":"Feature","geometry":{"type":"Polygon","coordinates":[[[20.07146990809412,40.4329050452845],[20.07144825393731,40.432940055742534],[20.071478088233448,40.43295083037681],[20.071462980677282,40.43297525627909],[20.07143314637276,40.43296448164099],[20.07141300293636,40.43299704950237],[20.071395377413598,40.43302554637805],[20.07134103634514,40.43300592110697],[20.071415567101106,40.43288542004797],[20.07146990809412,40.4329050452845]]]},"properties":{"Zk_Numer":2216,"Zk_Emer":"KONDAS","Nr_Pas":0,"Vol":0,"Faqe":0,"Pronaret":"","Kufizimet":"","Siperfaqe":84}},
{"type":"Feature","geometry":{"type":"Polygon","coordinates":[[[20.071513077327797,40.43422174353979],[20.071633525817578,40.4341144156828],[20.071680941844495,40.434145485644635],[20.071646418436924,40.43417624843319],[20.071668337183763,40.43419061096254],[20.071641485624856,40.434214537573666],[20.071619566875953,40.43420017503927],[20.07156049337481,40.434252813550444],[20.071513077327797,40.43422174353979]]]},"properties":{"Zk_Numer":2216,"Zk_Emer":"KONDAS","Nr_Pas":0,"Vol":0,"Faqe":0,"Pronaret":"","Kufizimet":"","Siperfaqe":92}},
{"type":"Feature","geometry":{"type":"Polygon","coordinates":[[[20.07194437781972,40.434240544949645],[20.071904169358998,40.43420701497931],[20.071945008461412,40.43417842017093],[20.07192789001859,40.434164145036696],[20.071963515589108,40.43413920062272],[20.07198063403312,40.434153475751735],[20.07202103861308,40.43412518511657],[20.07206124708299,40.43415871504673],[20.072020842499853,40.43418700569576],[20.07204034959217,40.4342032726932],[20.072015151016842,40.4342209163208],[20.071995643925487,40.434204649319156],[20.07194437781972,40.434240544949645]]]},"properties":{"Zk_Numer":2216,"Zk_Emer":"KONDAS","Nr_Pas":0,"Vol":0,"Faqe":0,"Pronaret":"","Kufizimet":"","Siperfaqe":84}},
{"type":"Feature","geometry":{"type":"Polygon","coordinates":[[[20.071849663976646,40.43295575044837],[20.071783771200327,40.432998020445055],[20.07179904955411,40.433011735313116],[20.071772127274876,40.43302924744341],[20.071756848922593,40.433015532571844],[20.07169986338864,40.43305259988606],[20.07166319537608,40.433019684168016],[20.07172780888153,40.43297765510546],[20.071700689847216,40.43295331119635],[20.071754085664196,40.43291857883099],[20.071781204703775,40.432942922727726],[20.07181261398531,40.43292249190568],[20.071849663976646,40.43295575044837]]]},"properties":{"Zk_Numer":2216,"Zk_Emer":"KONDAS","Nr_Pas":0,"Vol":0,"Faqe":0,"Pronaret":"","Kufizimet":"","Siperfaqe":107}},
{"type":"Feature","geometry":{"type":"Polygon","coordinates":[[[20.071931203527452,40.43292087369668],[20.07189660366101,40.432884425656106],[20.072034928373494,40.43280775227171],[20.072069528275193,40.43284420027131],[20.071931203527452,40.43292087369668]]]},"properties":{"Zk_Numer":2216,"Zk_Emer":"KONDAS","Nr_Pas":0,"Vol":0,"Faqe":0,"Pronaret":"","Kufizimet":"","Siperfaqe":73}},
{"type":"Feature","geometry":{"type":"Polygon","coordinates":[[[20.07204288611441,40.432490942805636],[20.07216671161397,40.43243079643271],[20.07222171448003,40.43249691667616],[20.072175963692118,40.432519139469456],[20.072171222063783,40.432513439447675],[20.072167428761695,40.43250887943011],[20.07215383610008,40.43249253936611],[20.072121512163246,40.4325082402356],[20.072075761334624,40.432530462989234],[20.07204288611441,40.432490942805636]]]},"properties":{"Zk_Numer":2216,"Zk_Emer":"KONDAS","Nr_Pas":0,"Vol":0,"Faqe":0,"Pronaret":"","Kufizimet":"","Siperfaqe":81}},
{"type":"Feature","geometry":{"type":"Polygon","coordinates":[[[20.07204288611441,40.432490942805636],[20.072075761334624,40.432530462989234],[20.072030507767966,40.432552444173325],[20.071997632563505,40.432512923977],[20.07204288611441,40.432490942805636]]]},"properties":{"Zk_Numer":2216,"Zk_Emer":"KONDAS","Nr_Pas":0,"Vol":0,"Faqe":0,"Pronaret":"","Kufizimet":"","Siperfaqe":24}},
{"type":"Feature","geometry":{"type":"Polygon","coordinates":[[[20.071719996450874,40.43268756632708],[20.071743742237814,40.4327165806319],[20.07175936447721,40.432735668987576],[20.071709404101256,40.43275954414015],[20.07170159298475,40.43274999995924],[20.071615161458283,40.43279130391627],[20.07158068873901,40.43280777773076],[20.071549131892755,40.43276921920168],[20.071719996450874,40.43268756632708]]]},"properties":{"Zk_Numer":2216,"Zk_Emer":"KONDAS","Nr_Pas":0,"Vol":0,"Faqe":0,"Pronaret":"","Kufizimet":"","Siperfaqe":93}},
{"type":"Feature","geometry":{"type":"Polygon","coordinates":[[[20.071719996450874,40.43268756632708],[20.071827910695536,40.43263599595998],[20.07183540937179,40.432645158365645],[20.071867383933753,40.432629878235396],[20.071891754654214,40.43265965604369],[20.07185978008368,40.432674936180575],[20.07186727876859,40.432684098584105],[20.071816818865837,40.43270821253536],[20.071801196616573,40.432689124187355],[20.071743742237814,40.4327165806319],[20.071719996450874,40.43268756632708]]]},"properties":{"Zk_Numer":2216,"Zk_Emer":"KONDAS","Nr_Pas":0,"Vol":0,"Faqe":0,"Pronaret":"","Kufizimet":"","Siperfaqe":66}},
{"type":"Feature","geometry":{"type":"Polygon","coordinates":[[[20.072513560367398,40.43244042965335],[20.07263134017933,40.43238061172184],[20.072663957296346,40.432418111995],[20.072546177447983,40.4324779299594],[20.072513560367398,40.43244042965335]]]},"properties":{"Zk_Numer":2216,"Zk_Emer":"KONDAS","Nr_Pas":0,"Vol":0,"Faqe":0,"Pronaret":"","Kufizimet":"","Siperfaqe":60}},
{"type":"Feature","geometry":{"type":"Polygon","coordinates":[[[20.073065029225916,40.43351301120179],[20.07310360195641,40.43342791607085],[20.07318378248956,40.433449137772385],[20.073145209848093,40.43353423292969],[20.073065029225916,40.43351301120179]]]},"properties":{"Zk_Numer":2216,"Zk_Emer":"KONDAS","Nr_Pas":0,"Vol":0,"Faqe":0,"Pronaret":"","Kufizimet":"","Siperfaqe":72}},
{"type":"Feature","geometry":{"type":"Polygon","coordinates":[[[20.07261054443142,40.4346970879915],[20.072669487924664,40.43473376645889],[20.07254790577798,40.43484672514568],[20.072489799509345,40.43480713032302],[20.07261054443142,40.4346970879915]]]},"properties":{"Zk_Numer":2216,"Zk_Emer":"KONDAS","Nr_Pas":0,"Vol":0,"Faqe":0,"Pronaret":"","Kufizimet":"","Siperfaqe":105}},
{"type":"Feature","geometry":{"type":"Polygon","coordinates":[[[20.073290369157288,40.433948867659424],[20.073314547401754,40.433935194264976],[20.073273478759265,40.43389279198335],[20.07331978625063,40.43386277424093],[20.073419032650435,40.433961952094116],[20.073368858227145,40.43399126864364],[20.073339422723482,40.433960877340205],[20.07331506397286,40.43397465281814],[20.073290369157288,40.433948867659424]]]},"properties":{"Zk_Numer":2216,"Zk_Emer":"KONDAS","Nr_Pas":0,"Vol":0,"Faqe":0,"Pronaret":"","Kufizimet":"","Siperfaqe":81}},
{"type":"Feature","geometry":{"type":"Polygon","coordinates":[[[20.07305759062521,40.43374629530023],[20.073115448053162,40.4337548343359],[20.073087577927,40.43386509533461],[20.073114192390637,40.433869023287585],[20.073103017511766,40.433913233792346],[20.073018545475872,40.43390076678199],[20.07305759062521,40.43374629530023]]]},"properties":{"Zk_Numer":2216,"Zk_Emer":"KONDAS","Nr_Pas":0,"Vol":0,"Faqe":0,"Pronaret":"","Kufizimet":"","Siperfaqe":99}},
{"type":"Feature","geometry":{"type":"Polygon","coordinates":[[[20.072725513381016,40.433748224585386],[20.072771362431524,40.43375069452389],[20.072766058059948,40.433808187139185],[20.072787806988117,40.43380935877129],[20.07278382871739,40.433852478232964],[20.07271623065688,40.43384883665802],[20.072725513381016,40.433748224585386]]]},"properties":{"Zk_Numer":2216,"Zk_Emer":"KONDAS","Nr_Pas":0,"Vol":0,"Faqe":0,"Pronaret":"","Kufizimet":"","Siperfaqe":53}},
{"type":"Feature","geometry":{"type":"Polygon","coordinates":[[[20.072712979683995,40.434200612342885],[20.072717939409525,40.43424638385036],[20.072673777302306,40.43424917792117],[20.0726757222829,40.434267127532536],[20.07262286867834,40.43427047147899],[20.072620923711703,40.43425252186673],[20.07257100642685,40.43425568001538],[20.072566046800247,40.434209908501565],[20.072712979683995,40.434200612342885]]]},"properties":{"Zk_Numer":2216,"Zk_Emer":"KONDAS","Nr_Pas":0,"Vol":0,"Faqe":0,"Pronaret":"","Kufizimet":"","Siperfaqe":73}},
{"type":"Feature","geometry":{"type":"Polygon","coordinates":[[[20.07281400291059,40.43445054398902],[20.072813912839777,40.43436704287209],[20.072917465819575,40.43436697760611],[20.07291755601849,40.43445047872285],[20.07281400291059,40.43445054398902]]]},"properties":{"Zk_Numer":2216,"Zk_Emer":"KONDAS","Nr_Pas":0,"Vol":0,"Faqe":0,"Pronaret":"","Kufizimet":"","Siperfaqe":81}},
{"type":"Feature","geometry":{"type":"Polygon","coordinates":[[[20.072197320846385,40.4344589418552],[20.072267876744515,40.43446253959757],[20.0722638746718,40.434508365811304],[20.07219331872598,40.43450476806655],[20.072197320846385,40.4344589418552]]]},"properties":{"Zk_Numer":2216,"Zk_Emer":"KONDAS","Nr_Pas":0,"Vol":0,"Faqe":0,"Pronaret":"","Kufizimet":"","Siperfaqe":31}},
{"type":"Feature","geometry":{"type":"Polygon","coordinates":[[[20.072030439099382,40.434612062735106],[20.072064450013162,40.43457865482447],[20.072043519830828,40.43456621358178],[20.072065228909754,40.43454488938207],[20.072086159089473,40.43455733062089],[20.072119446313184,40.43452463350065],[20.072167818304308,40.43455338655753],[20.072134531089894,40.43458608369152],[20.072154996179396,40.43459824844602],[20.072133287111715,40.43461957266237],[20.072112822019644,40.43460740790408],[20.072078811115357,40.43464081582878],[20.072030439099382,40.434612062735106]]]},"properties":{"Zk_Numer":2216,"Zk_Emer":"KONDAS","Nr_Pas":0,"Vol":0,"Faqe":0,"Pronaret":"","Kufizimet":"","Siperfaqe":77}},
{"type":"Feature","geometry":{"type":"Polygon","coordinates":[[[20.07240467258346,40.43471096868233],[20.072354045858344,40.434687925855926],[20.072375456707494,40.43466045967312],[20.072309642033797,40.4346305039775],[20.072339798154214,40.43459181922299],[20.072456239496564,40.43464481770576],[20.07240467258346,40.43471096868233]]]},"properties":{"Zk_Numer":2216,"Zk_Emer":"KONDAS","Nr_Pas":0,"Vol":0,"Faqe":0,"Pronaret":"","Kufizimet":"","Siperfaqe":75}},
{"type":"Feature","geometry":{"type":"Polygon","coordinates":[[[20.072237003248272,40.43431198181479],[20.072284077240173,40.43431005077108],[20.072288183867617,40.434368502461616],[20.07224110983508,40.434370433507006],[20.072237003248272,40.43431198181479]]]},"properties":{"Zk_Numer":2216,"Zk_Emer":"KONDAS","Nr_Pas":0,"Vol":0,"Faqe":0,"Pronaret":"","Kufizimet":"","Siperfaqe":26}},
{"type":"Feature","geometry":{"type":"Polygon","coordinates":[[[20.072218507706978,40.43366719393305],[20.072160602896123,40.43366604431883],[20.072161908380966,40.43362028732166],[20.072144230642436,40.43362035873592],[20.072143981425217,40.43358433716678],[20.072162397852487,40.43358426276831],[20.072163668187777,40.43354690247618],[20.072222574863453,40.4335480719813],[20.072221304560742,40.43358543227405],[20.07224828383379,40.43358596789764],[20.072246992176783,40.43362395663662],[20.07221999606287,40.43362342067869],[20.072218507706978,40.43366719393305]]]},"properties":{"Zk_Numer":2216,"Zk_Emer":"KONDAS","Nr_Pas":0,"Vol":0,"Faqe":0,"Pronaret":"","Kufizimet":"","Siperfaqe":81}},
{"type":"Feature","geometry":{"type":"Polygon","coordinates":[[[20.07271078702567,40.433319666160834],[20.07277841360575,40.43320859680552],[20.07283052772062,40.43322644175554],[20.07276545086032,40.4333374117941],[20.07271078702567,40.433319666160834]]]},"properties":{"Zk_Numer":2216,"Zk_Emer":"KONDAS","Nr_Pas":0,"Vol":0,"Faqe":0,"Pronaret":"","Kufizimet":"","Siperfaqe":67}},
{"type":"Feature","geometry":{"type":"Polygon","coordinates":[[[20.07272127818073,40.432684918341664],[20.072670084076886,40.43272666510468],[20.072631385996278,40.432698955314294],[20.072682580103088,40.432657208568216],[20.07272127818073,40.432684918341664]]]},"properties":{"Zk_Numer":2216,"Zk_Emer":"KONDAS","Nr_Pas":0,"Vol":0,"Faqe":0,"Pronaret":"","Kufizimet":"","Siperfaqe":29}},
{"type":"Feature","geometry":{"type":"Polygon","coordinates":[[[20.072186096100758,40.433182345309355],[20.07213716541534,40.43315313328759],[20.07217756790654,40.433115278252906],[20.072165558610937,40.433107794098504],[20.072202286535685,40.433073381898076],[20.072220597398033,40.43308479316367],[20.07224582461943,40.43306115650513],[20.07228723605107,40.43308696393409],[20.072251202390575,40.43312220668763],[20.072276807063442,40.43313749286018],[20.072251667755943,40.43316208036266],[20.072223816479536,40.433145452947535],[20.072186096100758,40.433182345309355]]]},"properties":{"Zk_Numer":2216,"Zk_Emer":"KONDAS","Nr_Pas":0,"Vol":0,"Faqe":0,"Pronaret":"","Kufizimet":"","Siperfaqe":86}},
{"type":"Feature","geometry":{"type":"Polygon","coordinates":[[[20.07272127818073,40.432684918341664],[20.072682580103088,40.432657208568216],[20.072733774146588,40.43261546179923],[20.072772472221263,40.43264317155575],[20.07272127818073,40.432684918341664]]]},"properties":{"Zk_Numer":2216,"Zk_Emer":"KONDAS","Nr_Pas":0,"Vol":0,"Faqe":0,"Pronaret":"","Kufizimet":"","Siperfaqe":29}},
{"type":"Feature","geometry":{"type":"Polygon","coordinates":[[[20.072619847154854,40.432715911698004],[20.072664479097607,40.432747596677906],[20.072580851500696,40.43281350528772],[20.072537123615334,40.43278110776781],[20.072619847154854,40.432715911698004]]]},"properties":{"Zk_Numer":2216,"Zk_Emer":"KONDAS","Nr_Pas":0,"Vol":0,"Faqe":0,"Pronaret":"","Kufizimet":"","Siperfaqe":52}},
{"type":"Feature","geometry":{"type":"Polygon","coordinates":[[[20.073256518521625,40.43334167417165],[20.07319521732609,40.43332861053573],[20.073227778485734,40.43324206073387],[20.07328928149572,40.43325557113552],[20.073256518521625,40.43334167417165]]]},"properties":{"Zk_Numer":2216,"Zk_Emer":"KONDAS","Nr_Pas":0,"Vol":0,"Faqe":0,"Pronaret":"","Kufizimet":"","Siperfaqe":54}},
{"type":"Feature","geometry":{"type":"Polygon","coordinates":[[[20.070889838031075,40.43443246770513],[20.070805777757165,40.43435594856444],[20.070842758072654,40.43433222850792],[20.070926818358863,40.43440874762203],[20.070889838031075,40.43443246770513]]]},"properties":{"Zk_Numer":2216,"Zk_Emer":"KONDAS","Nr_Pas":0,"Vol":0,"Faqe":0,"Pronaret":"","Kufizimet":"","Siperfaqe":45}},
{"type":"Feature","geometry":{"type":"Polygon","coordinates":[[[20.071308853413576,40.43252636042484],[20.071281108383875,40.43249583423698],[20.07144392043195,40.4324094272098],[20.071471665499654,40.432439953359015],[20.071308853413576,40.43252636042484]]]},"properties":{"Zk_Numer":2216,"Zk_Emer":"KONDAS","Nr_Pas":0,"Vol":0,"Faqe":0,"Pronaret":"","Kufizimet":"","Siperfaqe":69}},
{"type":"Feature","geometry":{"type":"Polygon","coordinates":[[[20.072425280560385,40.433771274674626],[20.07239726674741,40.433827864101524],[20.072342151377683,40.433811933132965],[20.072370165230286,40.43375534371923],[20.072425280560385,40.433771274674626]]]},"properties":{"Zk_Numer":2216,"Zk_Emer":"KONDAS","Nr_Pas":0,"Vol":0,"Faqe":0,"Pronaret":"","Kufizimet":"","Siperfaqe":34}},
{"type":"Feature","geometry":{"type":"Polygon","coordinates":[[[20.072425280560385,40.433771274674626],[20.072370165230286,40.43375534371923],[20.072400527315807,40.43369401063977],[20.07245564260295,40.433709941580894],[20.072425280560385,40.433771274674626]]]},"properties":{"Zk_Numer":2216,"Zk_Emer":"KONDAS","Nr_Pas":0,"Vol":0,"Faqe":0,"Pronaret":"","Kufizimet":"","Siperfaqe":36}},
{"type":"Feature","geometry":{"type":"Polygon","coordinates":[[[20.071444312140663,40.433221725451574],[20.071527034929723,40.43313058455144],[20.07159670985184,40.43316751017866],[20.07151398711175,40.43325865112801],[20.071444312140663,40.433221725451574]]]},"properties":{"Zk_Numer":2216,"Zk_Emer":"KONDAS","Nr_Pas":0,"Vol":0,"Faqe":0,"Pronaret":"","Kufizimet":"","Siperfaqe":89}},
{"type":"Feature","geometry":{"type":"Polygon","coordinates":[[[20.07163807400613,40.4331190052861],[20.07160537142258,40.43307265545293],[20.071647745382727,40.43305519826011],[20.07168044798688,40.433101548081424],[20.07163807400613,40.4331190052861]]]},"properties":{"Zk_Numer":2216,"Zk_Emer":"KONDAS","Nr_Pas":0,"Vol":0,"Faqe":0,"Pronaret":"","Kufizimet":"","Siperfaqe":24}},
{"type":"Feature","geometry":{"type":"Polygon","coordinates":[[[20.071723951525062,40.43420742219817],[20.071783924964805,40.434253749308695],[20.07175041034188,40.43427908217961],[20.07169043690257,40.4342327550519],[20.071723951525062,40.43420742219817]]]},"properties":{"Zk_Numer":2216,"Zk_Emer":"KONDAS","Nr_Pas":0,"Vol":0,"Faqe":0,"Pronaret":"","Kufizimet":"","Siperfaqe":29}},
{"type":"Feature","geometry":{"type":"Polygon","coordinates":[[[20.08496531974258,40.42698272196932],[20.085054579327256,40.42701106840754],[20.085033832171085,40.42704922203087],[20.084944781911663,40.42702094206631],[20.08496531974258,40.42698272196932]]]},"properties":{"Zk_Numer":2216,"Zk_Emer":"KONDAS","Nr_Pas":0,"Vol":0,"Faqe":0,"Pronaret":"","Kufizimet":"","Siperfaqe":38}},
{"type":"Feature","geometry":{"type":"Polygon","coordinates":[[[20.0852934203623,40.42686646335883],[20.08535656666275,40.426873961209594],[20.08534141537092,40.42694848304317],[20.08527826900242,40.426940985184295],[20.0852934203623,40.42686646335883]]]},"properties":{"Zk_Numer":2216,"Zk_Emer":"KONDAS","Nr_Pas":0,"Vol":0,"Faqe":0,"Pronaret":"","Kufizimet":"","Siperfaqe":45}},
{"type":"Feature","geometry":{"type":"Polygon","coordinates":[[[20.085307489908946,40.426809150022706],[20.085277758554405,40.42677683224057],[20.085396342305557,40.426713120077814],[20.08542607368869,40.42674543782979],[20.085307489908946,40.426809150022706]]]},"properties":{"Zk_Numer":2216,"Zk_Emer":"KONDAS","Nr_Pas":0,"Vol":0,"Faqe":0,"Pronaret":"","Kufizimet":"","Siperfaqe":54}},
{"type":"Feature","geometry":{"type":"Polygon","coordinates":[[[20.086612302840077,40.42652505366767],[20.086711245437424,40.426607227498216],[20.08666702030252,40.426638326398844],[20.086647072180472,40.426621759093685],[20.08662626033896,40.42663639386102],[20.0865951412893,40.42661054885244],[20.086615953129616,40.42659591409065],[20.08656807771329,40.426556152530885],[20.086612302840077,40.42652505366767]]]},"properties":{"Zk_Numer":2216,"Zk_Emer":"KONDAS","Nr_Pas":0,"Vol":0,"Faqe":0,"Pronaret":"","Kufizimet":"","Siperfaqe":73}},
{"type":"Feature","geometry":{"type":"Polygon","coordinates":[[[20.08634273116008,40.42468806482117],[20.08633819701308,40.42472979692345],[20.086281241734877,40.42472618273011],[20.086285775916853,40.424684450630004],[20.0862317565165,40.42468102271141],[20.086236632010447,40.42463614948716],[20.08629065137515,40.424639577403546],[20.086295039282128,40.42459919149926],[20.086351994453914,40.42460280568599],[20.086347606580773,40.424643191592374],[20.086383423775032,40.424645464418404],[20.086378597132,40.42468988891636],[20.08634273116008,40.42468806482117]]]},"properties":{"Zk_Numer":2216,"Zk_Emer":"KONDAS","Nr_Pas":0,"Vol":0,"Faqe":0,"Pronaret":"","Kufizimet":"","Siperfaqe":107}},
{"type":"Feature","geometry":{"type":"Polygon","coordinates":[[[20.08683652397149,40.42555896052296],[20.086700209597044,40.42561806541564],[20.086670552963326,40.42557811881023],[20.086806867283215,40.42551901395218],[20.08683652397149,40.42555896052296]]]},"properties":{"Zk_Numer":2216,"Zk_Emer":"KONDAS","Nr_Pas":0,"Vol":0,"Faqe":0,"Pronaret":"","Kufizimet":"","Siperfaqe":68}},
{"type":"Feature","geometry":{"type":"Polygon","coordinates":[[[20.086490049341155,40.42644194841256],[20.08642057891358,40.42648222804334],[20.08638567808431,40.42644707375579],[20.086436372717678,40.42641768053098],[20.08641500487414,40.426396157501735],[20.086433780650548,40.42638527111995],[20.086490049341155,40.42644194841256]]]},"properties":{"Zk_Numer":2216,"Zk_Emer":"KONDAS","Nr_Pas":0,"Vol":0,"Faqe":0,"Pronaret":"","Kufizimet":"","Siperfaqe":42}},
{"type":"Feature","geometry":{"type":"Polygon","coordinates":[[[20.086471462160542,40.426352548261065],[20.086454643942737,40.426314115548465],[20.086538461486263,40.42629269434692],[20.086523511937802,40.42625853194417],[20.086568214585835,40.42624710728424],[20.08658316415436,40.42628126968123],[20.086661393787058,40.42626127647469],[20.086678212109273,40.426299709157476],[20.086611158107363,40.426316846204564],[20.086626107713112,40.42635100859557],[20.086559053647004,40.42636814561236],[20.086544104071358,40.426333983212764],[20.086471462160542,40.426352548261065]]]},"properties":{"Zk_Numer":2216,"Zk_Emer":"KONDAS","Nr_Pas":0,"Vol":0,"Faqe":0,"Pronaret":"","Kufizimet":"","Siperfaqe":123}},
{"type":"Feature","geometry":{"type":"Polygon","coordinates":[[[20.086688298713096,40.42545980877576],[20.086629207032477,40.42546127658079],[20.086627314871166,40.425416786676514],[20.086686406512904,40.425415318872474],[20.086688298713096,40.42545980877576]]]},"properties":{"Zk_Numer":2216,"Zk_Emer":"KONDAS","Nr_Pas":0,"Vol":0,"Faqe":0,"Pronaret":"","Kufizimet":"","Siperfaqe":25}},
{"type":"Feature","geometry":{"type":"Polygon","coordinates":[[[20.08659588731858,40.42527212667863],[20.086522401555122,40.425167867278276],[20.086572199163058,40.42514736791146],[20.08659846403008,40.42518463172196],[20.086621287932527,40.42517523616651],[20.086643920455277,40.425207346461875],[20.08662109654514,40.42521674202175],[20.086645684980983,40.425251627280474],[20.08659588731858,40.42527212667863]]]},"properties":{"Zk_Numer":2216,"Zk_Emer":"KONDAS","Nr_Pas":0,"Vol":0,"Faqe":0,"Pronaret":"","Kufizimet":"","Siperfaqe":72}},
{"type":"Feature","geometry":{"type":"Polygon","coordinates":[[[20.086585498147134,40.42527540346828],[20.08653613148951,40.425296502956776],[20.08651082327144,40.42526191963593],[20.086488196884318,40.42527159022286],[20.0864649018502,40.42523975783838],[20.086487528230005,40.42523008725596],[20.086460494505783,40.425193145969374],[20.086509861111594,40.42517204651284],[20.086585498147134,40.42527540346828]]]},"properties":{"Zk_Numer":2216,"Zk_Emer":"KONDAS","Nr_Pas":0,"Vol":0,"Faqe":0,"Pronaret":"","Kufizimet":"","Siperfaqe":72}},
{"type":"Feature","geometry":{"type":"Polygon","coordinates":[[[20.086567946447115,40.42716736886776],[20.08648920232696,40.427213207342795],[20.086467780187107,40.42719171571428],[20.086492153375342,40.42717752762508],[20.08647787195419,40.42716319987344],[20.086504119989275,40.42714792039021],[20.08648626821845,40.427130010702136],[20.086522827957754,40.42710872856038],[20.08658993429102,40.42706966458161],[20.086626225648846,40.42710607361246],[20.086643489666358,40.42712339358986],[20.086567946447115,40.42716736886776]]]},"properties":{"Zk_Numer":2216,"Zk_Emer":"KONDAS","Nr_Pas":0,"Vol":0,"Faqe":0,"Pronaret":"","Kufizimet":"","Siperfaqe":105}},
{"type":"Feature","geometry":{"type":"Polygon","coordinates":[[[20.086567946447115,40.42716736886776],[20.086643489666365,40.427123393589866],[20.086727309220166,40.427074600360505],[20.086763012869667,40.42711041965964],[20.086603650061306,40.42720318821555],[20.086567946447115,40.42716736886776]]]},"properties":{"Zk_Numer":2216,"Zk_Emer":"KONDAS","Nr_Pas":0,"Vol":0,"Faqe":0,"Pronaret":"","Kufizimet":"","Siperfaqe":85}},
{"type":"Feature","geometry":{"type":"Polygon","coordinates":[[[20.087181436640027,40.427235165958884],[20.08706568606562,40.42721827458595],[20.087076737720388,40.4271740461165],[20.087082263542356,40.42715193188124],[20.08712856372134,40.427158688437814],[20.087123037913983,40.42718080267524],[20.0871924882217,40.42719093747859],[20.087181436640027,40.427235165958884]]]},"properties":{"Zk_Numer":2216,"Zk_Emer":"KONDAS","Nr_Pas":0,"Vol":0,"Faqe":0,"Pronaret":"","Kufizimet":"","Siperfaqe":60}},
{"type":"Feature","geometry":{"type":"Polygon","coordinates":[[[20.08691245562537,40.42701818878734],[20.086958165538416,40.42708630055089],[20.086912028871097,40.427104382867725],[20.086925472970663,40.42712441574106],[20.08687723914514,40.42714331996724],[20.086863795056093,40.427123287088335],[20.086818085213082,40.427055175287855],[20.08691245562537,40.42701818878734]]]},"properties":{"Zk_Numer":2216,"Zk_Emer":"KONDAS","Nr_Pas":0,"Vol":0,"Faqe":0,"Pronaret":"","Kufizimet":"","Siperfaqe":88}},
{"type":"Feature","geometry":{"type":"Polygon","coordinates":[[[20.086428177306246,40.42549165918917],[20.086365297483123,40.42537509889597],[20.086417590409773,40.42535862315629],[20.086437801781834,40.42539608895978],[20.08645632219574,40.425390253793076],[20.086486863880115,40.42544686877296],[20.086468343453333,40.42545270394449],[20.086480470307716,40.42547518342131],[20.086428177306246,40.42549165918917]]]},"properties":{"Zk_Numer":2216,"Zk_Emer":"KONDAS","Nr_Pas":0,"Vol":0,"Faqe":0,"Pronaret":"","Kufizimet":"","Siperfaqe":79}},
{"type":"Feature","geometry":{"type":"Polygon","coordinates":[[[20.086938097543314,40.42725419459831],[20.08691399334137,40.42722323854695],[20.086946399433824,40.42720850214361],[20.086970503645336,40.42723945818828],[20.086938097543314,40.42725419459831]]]},"properties":{"Zk_Numer":2216,"Zk_Emer":"KONDAS","Nr_Pas":0,"Vol":0,"Faqe":0,"Pronaret":"","Kufizimet":"","Siperfaqe":13}},
{"type":"Feature","geometry":{"type":"Polygon","coordinates":[[[20.086953219930887,40.42685076728053],[20.086952529538106,40.42679673669541],[20.08690775197802,40.42679707083546],[20.08690740679998,40.426770055542555],[20.086930973927494,40.4267698796816],[20.086930203009885,40.42670954552714],[20.086985585709563,40.42670913223542],[20.08698633366268,40.426767665369944],[20.087021684352308,40.42676740155259],[20.08702228274032,40.426814228059555],[20.08706352523977,40.426813920258745],[20.087063985560853,40.426849940648275],[20.086953219930887,40.42685076728053]]]},"properties":{"Zk_Numer":2216,"Zk_Emer":"KONDAS","Nr_Pas":0,"Vol":0,"Faqe":0,"Pronaret":"","Kufizimet":"","Siperfaqe":111}},
{"type":"Feature","geometry":{"type":"Polygon","coordinates":[[[20.08664967598665,40.42682719984305],[20.086605652799825,40.42679727250595],[20.086731751840066,40.426688942434765],[20.086775775011976,40.42671886972444],[20.086722515845658,40.42676462407724],[20.086744527449394,40.42677958772572],[20.08672494685656,40.4267964091764],[20.086702935251665,40.42678144552421],[20.08664967598665,40.42682719984305]]]},"properties":{"Zk_Numer":2216,"Zk_Emer":"KONDAS","Nr_Pas":0,"Vol":0,"Faqe":0,"Pronaret":"","Kufizimet":"","Siperfaqe":87}},
{"type":"Feature","geometry":{"type":"Polygon","coordinates":[[[20.086664976614866,40.42687588827042],[20.086601849896482,40.426929396128884],[20.08655546331452,40.42689743586909],[20.086534158022133,40.42691549475501],[20.08650265017859,40.426893785882825],[20.086523955472565,40.42687572700264],[20.086484570698616,40.42684859090736],[20.086521657668154,40.42681715508192],[20.0865654185262,40.42684730628418],[20.08659145828996,40.426825234304715],[20.086664976614866,40.42687588827042]]]},"properties":{"Zk_Numer":2216,"Zk_Emer":"KONDAS","Nr_Pas":0,"Vol":0,"Faqe":0,"Pronaret":"","Kufizimet":"","Siperfaqe":100}},
{"type":"Feature","geometry":{"type":"Polygon","coordinates":[[[20.08629285531792,40.42512768359619],[20.08629927694468,40.42509731224455],[20.086258833665877,40.42509231796262],[20.08626409126857,40.425067451961134],[20.086230559652478,40.42506331117913],[20.086238890692627,40.42502390931059],[20.08628114010177,40.42502912664147],[20.08629062300851,40.424984276800856],[20.0863546663011,40.42499218540228],[20.086339308543238,40.42506482091513],[20.08639430169034,40.42507161189914],[20.08638560560535,40.425112740685776],[20.08635047961505,40.42510840305687],[20.086345040463694,40.425134127842284],[20.08629285531792,40.42512768359619]]]},"properties":{"Zk_Numer":2216,"Zk_Emer":"KONDAS","Nr_Pas":0,"Vol":0,"Faqe":0,"Pronaret":"","Kufizimet":"","Siperfaqe":122}},
{"type":"Feature","geometry":{"type":"Polygon","coordinates":[[[20.08624675486215,40.42520443548805],[20.08625858620861,40.42515491613048],[20.08631646300568,40.42516299233042],[20.08630463170027,40.42521251169381],[20.08624675486215,40.42520443548805]]]},"properties":{"Zk_Numer":2216,"Zk_Emer":"KONDAS","Nr_Pas":0,"Vol":0,"Faqe":0,"Pronaret":"","Kufizimet":"","Siperfaqe":28}},
{"type":"Feature","geometry":{"type":"Polygon","coordinates":[[[20.086894410378637,40.425390134076586],[20.086908968938292,40.42536145046159],[20.086962753104675,40.4253773938342],[20.08694819456446,40.42540607745587],[20.086894410378637,40.425390134076586]]]},"properties":{"Zk_Numer":2216,"Zk_Emer":"KONDAS","Nr_Pas":0,"Vol":0,"Faqe":0,"Pronaret":"","Kufizimet":"","Siperfaqe":17}},
{"type":"Feature","geometry":{"type":"Polygon","coordinates":[[[20.072468316485402,40.43323492726788],[20.072468911083217,40.43323554097768],[20.072469477379016,40.433236170123244],[20.07247001468715,40.433236813942855],[20.072470522357055,40.43323747165698],[20.072470999774065,40.433238142469285],[20.072471446360133,40.43323882556755],[20.07247186157455,40.43323952012473],[20.07247224491458,40.43324022529985],[20.07247259591609,40.43324094023912],[20.072472914154098,40.43324166407691],[20.072473199243284,40.433242395936816],[20.072473450838473,40.43324313493274],[20.072473668635045,40.433243880169904],[20.07247385236929,40.43324463074601],[20.072474001818744,40.43324538575227],[20.072474116802468,40.43324614427458],[20.072474197181233,40.43324690539451],[20.072474242857723,40.433247668190525],[20.07247425377663,40.43324843173906],[20.072474229924733,40.43324919511563],[20.072474171330914,40.43324995739598],[20.07247407806611,40.433250717657124],[20.072473950243243,40.4332514749786],[20.07247378801708,40.43325222844344],[20.072473591584036,40.43325297713938],[20.07247336118194,40.43325372015993],[20.072473097089766,40.43325445660544],[20.072472799627256,40.433255185584265],[20.072472469154576,40.433255906213766],[20.072472106071846,40.43325661762144],[20.072471710818682,40.43325731894592],[20.072471283873636,40.43325800933808],[20.072470825753644,40.43325868796199],[20.072470337013385,40.43325935399602],[20.072469818244606,40.43326000663373],[20.072469270075416,40.43326064508495],[20.072468693169526,40.43326126857663],[20.07246808822544,40.433261876353896],[20.072467455975588,40.433262467680855],[20.0724667971855,40.43326304184154],[20.0724661126528,40.43326359814078],[20.07246540320632,40.433264135905034],[20.07246466970502,40.433264654483175],[20.07246391303701,40.43326515324733],[20.072463134118436,40.43326563159361],[20.072462333892396,40.43326608894286],[20.072461513327777,40.43326652474132],[20.072460673418092,40.43326693846133],[20.07245981518028,40.433267329601975],[20.072458939653472,40.43326769768971],[20.072458047897737,40.433268042278804],[20.07245714099277,40.43326836295209],[20.07245622003664,40.433268659321264],[20.072455286144407,40.43326893102753],[20.072454340446807,40.43326917774187],[20.072453384088856,40.43326939916563],[20.072452418228487,40.43326959503065],[20.07245144403514,40.43326976509982],[20.07245046268833,40.43326990916724],[20.072449475376256,40.43327002705844],[20.072448483294323,40.433270118630695],[20.072447487643707,40.43327018377313],[20.07244648962993,40.433270222406875],[20.07244549046134,40.43327023448515],[20.072444491347714,40.43327021999336],[20.072443493498746,40.43327017894901],[20.0724424981226,40.43327011140181],[20.072441506424457,40.43327001743354],[20.07244051960503,40.43326989715799],[20.072439538859133,40.43326975072077],[20.072438565374227,40.4332695782992],[20.07243760032898,40.43326938010202],[20.07243664489183,40.433269156369214],[20.07243570021961,40.43326890737168],[20.07243476745609,40.43326863341087],[20.072433847730636,40.433268334818514],[20.07243294215683,40.43326801195612],[20.072432051831104,40.43326766521463],[20.072418515939308,40.43325891017074],[20.072409424231765,40.43325302963261],[20.07237206044427,40.43328572579276],[20.07231985580099,40.43324832067611],[20.072415434892935,40.43315726999079],[20.072473576707328,40.43319290751114],[20.072445731562585,40.43321873715872],[20.072468316485402,40.43323492726788]]]},"properties":{"Zk_Numer":2216,"Zk_Emer":"KONDAS","Nr_Pas":0,"Vol":0,"Faqe":0,"Pronaret":"","Kufizimet":"","Siperfaqe":102}}
]}