{"type":"FeatureCollection", "features": [
{"type":"Feature","geometry":{"type":"Polygon","coordinates":[[[20.097264873913396,40.409335033778305],[20.097188412419275,40.40930488550909],[20.097241855510912,40.40923074322305],[20.097317179860273,40.40926246895385],[20.097300976399602,40.40928494827708],[20.097328929138214,40.40929672162313],[20.097309030144654,40.409324327811085],[20.09728107739807,40.40931255446031],[20.097264873913396,40.409335033778305]]]},"properties":{"Zk_Numer":0,"Zk_Emer":"","Nr_Pas":0,"Vol":0,"Faqe":0,"Pronaret":0,"Kufizimet":0,"Siperfaqe":77}},
{"type":"Feature","geometry":{"type":"Polygon","coordinates":[[[20.102540352931218,40.412438206803664],[20.1025651954447,40.41244567624179],[20.102588746565896,40.41239991164623],[20.102646317889494,40.41241722167924],[20.102574085789698,40.4125575832903],[20.102516514364574,40.412540273221715],[20.10254289250205,40.41248901531197],[20.102519409946257,40.41248195477405],[20.102540352931218,40.412438206803664]]]},"properties":{"Zk_Numer":0,"Zk_Emer":"","Nr_Pas":0,"Vol":0,"Faqe":0,"Pronaret":0,"Kufizimet":0,"Siperfaqe":99}},
{"type":"Feature","geometry":{"type":"Polygon","coordinates":[[[20.102540352931218,40.412438206803664],[20.102519409946257,40.41248195477405],[20.10238521509801,40.412441606072555],[20.102407228044054,40.41239817981236],[20.102540352931218,40.412438206803664]]]},"properties":{"Zk_Numer":0,"Zk_Emer":"","Nr_Pas":0,"Vol":0,"Faqe":0,"Pronaret":0,"Kufizimet":0,"Siperfaqe":63}},
{"type":"Feature","geometry":{"type":"Polygon","coordinates":[[[20.09713598931516,40.416342944043706],[20.097164281092784,40.41624408837216],[20.09723272427249,40.41625553158122],[20.097204432590303,40.41635438726923],[20.09713598931516,40.416342944043706]]]},"properties":{"Zk_Numer":0,"Zk_Emer":"","Nr_Pas":0,"Vol":0,"Faqe":0,"Pronaret":0,"Kufizimet":0,"Siperfaqe":67}},
{"type":"Feature","geometry":{"type":"Polygon","coordinates":[[[20.09713598931516,40.416342944043706],[20.097204432590303,40.41635438726923],[20.097165075876944,40.41649190546204],[20.097096632469025,40.41648046221366],[20.09713598931516,40.416342944043706]]]},"properties":{"Zk_Numer":0,"Zk_Emer":"","Nr_Pas":0,"Vol":0,"Faqe":0,"Pronaret":0,"Kufizimet":0,"Siperfaqe":93}},
{"type":"Feature","geometry":{"type":"Polygon","coordinates":[[[20.099224934781194,40.41007281573651],[20.09922655579216,40.41007249483689],[20.09925924991044,40.410168994656146],[20.099199077073777,40.41018090661399],[20.099192262321658,40.410160792191775],[20.099152957973793,40.41016844914136],[20.0991372199325,40.41012142661317],[20.099176303967212,40.41011368946423],[20.09916638303561,40.41008440677781],[20.099224934781194,40.41007281573651]]]},"properties":{"Zk_Numer":0,"Zk_Emer":"","Nr_Pas":0,"Vol":0,"Faqe":0,"Pronaret":0,"Kufizimet":0,"Siperfaqe":77}},
{"type":"Feature","geometry":{"type":"Polygon","coordinates":[[[20.099224934781194,40.41007281573651],[20.09916638303561,40.41008440677781],[20.09915687721158,40.410056349300774],[20.099215428934496,40.41004475826428],[20.099224934781194,40.41007281573651]]]},"properties":{"Zk_Numer":0,"Zk_Emer":"","Nr_Pas":0,"Vol":0,"Faqe":0,"Pronaret":0,"Kufizimet":0,"Siperfaqe":17}},
{"type":"Feature","geometry":{"type":"Polygon","coordinates":[[[20.097033633202656,40.416566363355514],[20.097076262451615,40.41660334678786],[20.09694946031778,40.41668873192639],[20.09690683108418,40.41665174844782],[20.097033633202656,40.416566363355514]]]},"properties":{"Zk_Numer":0,"Zk_Emer":"","Nr_Pas":0,"Vol":0,"Faqe":0,"Pronaret":0,"Kufizimet":0,"Siperfaqe":79}},
{"type":"Feature","geometry":{"type":"Polygon","coordinates":[[[20.097660991846553,40.41390463346241],[20.097609470557412,40.41393598712309],[20.097519677748707,40.41384923270017],[20.097571199013508,40.41381787907906],[20.097660991846553,40.41390463346241]]]},"properties":{"Zk_Numer":0,"Zk_Emer":"","Nr_Pas":0,"Vol":0,"Faqe":0,"Pronaret":0,"Kufizimet":0,"Siperfaqe":69}},
{"type":"Feature","geometry":{"type":"Polygon","coordinates":[[[20.095065296704217,40.41783885978333],[20.0950818683723,40.41786044491472],[20.095020634371878,40.41788790762333],[20.094953993192167,40.4178011051397],[20.095015227141126,40.41777364246602],[20.09503550165593,40.41780005073243],[20.095063324902554,40.41778759744716],[20.095093139980726,40.41782639753054],[20.095065296704217,40.41783885978333]]]},"properties":{"Zk_Numer":0,"Zk_Emer":"","Nr_Pas":0,"Vol":0,"Faqe":0,"Pronaret":0,"Kufizimet":0,"Siperfaqe":81}},
{"type":"Feature","geometry":{"type":"Polygon","coordinates":[[[20.09713865779736,40.40985621858249],[20.097112987163044,40.40981562508219],[20.097210238551607,40.40977968984861],[20.097235909230616,40.40982028332754],[20.09713865779736,40.40985621858249]]]},"properties":{"Zk_Numer":0,"Zk_Emer":"","Nr_Pas":0,"Vol":0,"Faqe":0,"Pronaret":0,"Kufizimet":0,"Siperfaqe":46}},
{"type":"Feature","geometry":{"type":"Polygon","coordinates":[[[20.09752545705823,40.409739998076084],[20.097470801047432,40.409752938820546],[20.0974803407312,40.40977648161167],[20.097441994635382,40.40978556068696],[20.097432454963684,40.40976201789269],[20.097375108069674,40.40977559569393],[20.09735740872086,40.409731915633394],[20.09750775762163,40.409696318038385],[20.09752545705823,40.409739998076084]]]},"properties":{"Zk_Numer":0,"Zk_Emer":"","Nr_Pas":0,"Vol":0,"Faqe":0,"Pronaret":0,"Kufizimet":0,"Siperfaqe":77}},
{"type":"Feature","geometry":{"type":"Polygon","coordinates":[[[20.097651043079818,40.40987777617065],[20.097608003771576,40.40985203160352],[20.097694565006673,40.40975710996602],[20.09774110448443,40.40978293226444],[20.097651043079818,40.40987777617065]]]},"properties":{"Zk_Numer":0,"Zk_Emer":"","Nr_Pas":0,"Vol":0,"Faqe":0,"Pronaret":0,"Kufizimet":0,"Siperfaqe":62}},
{"type":"Feature","geometry":{"type":"Polygon","coordinates":[[[20.098527570134873,40.4110536445812],[20.098578500882347,40.41107802419345],[20.098489262468135,40.41118695038687],[20.09843833167059,40.41116257073583],[20.09845706083332,40.411139709601095],[20.098431196778943,40.41112732893255],[20.09847324297624,40.411076006584885],[20.098499107018643,40.41108838724414],[20.098527570134873,40.4110536445812]]]},"properties":{"Zk_Numer":0,"Zk_Emer":"","Nr_Pas":0,"Vol":0,"Faqe":0,"Pronaret":0,"Kufizimet":0,"Siperfaqe":90}},
{"type":"Feature","geometry":{"type":"Polygon","coordinates":[[[20.098848434835425,40.4123412820196],[20.098789735352664,40.412443635272325],[20.09873607513887,40.41242565500638],[20.098753284805234,40.4123956468915],[20.098717850617675,40.41238377371701],[20.098738907552207,40.412347057199284],[20.098774341724184,40.412358930367404],[20.098794774687324,40.41232330178049],[20.098848434835425,40.4123412820196]]]},"properties":{"Zk_Numer":0,"Zk_Emer":"","Nr_Pas":0,"Vol":0,"Faqe":0,"Pronaret":0,"Kufizimet":0,"Siperfaqe":76}},
{"type":"Feature","geometry":{"type":"Polygon","coordinates":[[[20.09902423851103,40.41225180550609],[20.099020596757597,40.41229487943531],[20.099080504246313,40.41229783872187],[20.099076300328456,40.4123475622727],[20.098922184098715,40.41233994923666],[20.09892633176347,40.41229089236652],[20.09896355776409,40.4122926021998],[20.098966987234824,40.41224897740076],[20.09902423851103,40.41225180550609]]]},"properties":{"Zk_Numer":0,"Zk_Emer":"","Nr_Pas":0,"Vol":0,"Faqe":0,"Pronaret":0,"Kufizimet":0,"Siperfaqe":96}},
{"type":"Feature","geometry":{"type":"Polygon","coordinates":[[[20.098874070719322,40.410191318923154],[20.098898615608945,40.41024337408018],[20.09891775335934,40.41023810145017],[20.09893647519485,40.41027780690808],[20.098917337434674,40.41028307954117],[20.098834053970286,40.410306024873165],[20.098795907609958,40.410316534508],[20.098775699977168,40.4102736777653],[20.098813846316464,40.410263168137085],[20.098790787353227,40.41021426422421],[20.098874070719322,40.410191318923154]]]},"properties":{"Zk_Numer":0,"Zk_Emer":"","Nr_Pas":0,"Vol":0,"Faqe":0,"Pronaret":0,"Kufizimet":0,"Siperfaqe":107}},
{"type":"Feature","geometry":{"type":"Polygon","coordinates":[[[20.098911621337255,40.410460835547966],[20.09891532261065,40.41046103408598],[20.098912319482967,40.41049374682888],[20.098873204633485,40.410491648684335],[20.09886812331984,40.41054699845954],[20.098810753801796,40.410543921099254],[20.098820114041985,40.4104419626707],[20.09887748347386,40.410445040026495],[20.098876207780027,40.410458935942415],[20.098911621337255,40.410460835547966]]]},"properties":{"Zk_Numer":0,"Zk_Emer":"","Nr_Pas":0,"Vol":0,"Faqe":0,"Pronaret":0,"Kufizimet":0,"Siperfaqe":68}},
{"type":"Feature","geometry":{"type":"Polygon","coordinates":[[[20.098911621337255,40.410460835547966],[20.098876207780027,40.410458935942415],[20.09887748347386,40.410445040026495],[20.098878030376454,40.4104390827078],[20.098913443923323,40.410440982312814],[20.098911621337255,40.410460835547966]]]},"properties":{"Zk_Numer":0,"Zk_Emer":"","Nr_Pas":0,"Vol":0,"Faqe":0,"Pronaret":0,"Kufizimet":0,"Siperfaqe":7}},
{"type":"Feature","geometry":{"type":"Polygon","coordinates":[[[20.098279353307664,40.4102578029746],[20.098413538423355,40.410164524039565],[20.098455601826632,40.410199880068255],[20.098321416698827,40.41029315905148],[20.098279353307664,40.4102578029746]]]},"properties":{"Zk_Numer":0,"Zk_Emer":"","Nr_Pas":0,"Vol":0,"Faqe":0,"Pronaret":0,"Kufizimet":0,"Siperfaqe":82}},
{"type":"Feature","geometry":{"type":"Polygon","coordinates":[[[20.097018000902565,40.409986377480294],[20.0969910352251,40.40997717763711],[20.096968051395027,40.41001654124115],[20.096916389076533,40.40999891565233],[20.09693967093879,40.409959041670774],[20.09691016765416,40.40994897604709],[20.096953477332043,40.409874801086154],[20.097061608492776,40.409911692091605],[20.097018000902565,40.409986377480294]]]},"properties":{"Zk_Numer":0,"Zk_Emer":"","Nr_Pas":0,"Vol":0,"Faqe":0,"Pronaret":0,"Kufizimet":0,"Siperfaqe":114}},
{"type":"Feature","geometry":{"type":"Polygon","coordinates":[[[20.098671336013652,40.41045602400354],[20.098650303419934,40.410472045809236],[20.098575837033355,40.41052877129236],[20.098533672699013,40.410496429578025],[20.09862917167882,40.41042368232302],[20.098671336013652,40.41045602400354]]]},"properties":{"Zk_Numer":0,"Zk_Emer":"","Nr_Pas":0,"Vol":0,"Faqe":0,"Pronaret":0,"Kufizimet":0,"Siperfaqe":58}},
{"type":"Feature","geometry":{"type":"Polygon","coordinates":[[[20.098671336013652,40.41045602400354],[20.098685695064265,40.41044607912292],[20.098710761750322,40.41046722660703],[20.098675688994835,40.41049151751211],[20.09865030341993,40.410472045809236],[20.098671336013652,40.41045602400354]]]},"properties":{"Zk_Numer":0,"Zk_Emer":"","Nr_Pas":0,"Vol":0,"Faqe":0,"Pronaret":0,"Kufizimet":0,"Siperfaqe":13}},
{"type":"Feature","geometry":{"type":"Polygon","coordinates":[[[20.098947955589942,40.4106666968896],[20.09882497642491,40.41064912232856],[20.09883598501689,40.41060411215561],[20.09895653237426,40.410621339195956],[20.098947955589942,40.4106666968896]]]},"properties":{"Zk_Numer":0,"Zk_Emer":"","Nr_Pas":0,"Vol":0,"Faqe":0,"Pronaret":0,"Kufizimet":0,"Siperfaqe":53}},
{"type":"Feature","geometry":{"type":"Polygon","coordinates":[[[20.09895653237426,40.410621339195956],[20.098964108654716,40.41058127254226],[20.099021964144956,40.41058766474342],[20.09900386708334,40.410683370200054],[20.09894601275382,40.41067697142712],[20.098947955589942,40.4106666968896],[20.09895653237426,40.410621339195956]]]},"properties":{"Zk_Numer":0,"Zk_Emer":"","Nr_Pas":0,"Vol":0,"Faqe":0,"Pronaret":0,"Kufizimet":0,"Siperfaqe":53}},
{"type":"Feature","geometry":{"type":"Polygon","coordinates":[[[20.099235771243773,40.41078365000165],[20.099262816278095,40.41079273711243],[20.09924396340311,40.410825521773695],[20.09921691835818,40.41081643465857],[20.099194364802003,40.41085565463531],[20.099139486734245,40.41083721561618],[20.099202920490846,40.41072690619046],[20.09925779848618,40.41074534517994],[20.099235771243773,40.41078365000165]]]},"properties":{"Zk_Numer":0,"Zk_Emer":"","Nr_Pas":0,"Vol":0,"Faqe":0,"Pronaret":0,"Kufizimet":0,"Siperfaqe":78}},
{"type":"Feature","geometry":{"type":"Polygon","coordinates":[[[20.101885443017345,40.41025914182675],[20.101920067929704,40.41024131654726],[20.101955000252314,40.4102809642322],[20.101920375328895,40.410298789522045],[20.101885443017345,40.41025914182675]]]},"properties":{"Zk_Numer":0,"Zk_Emer":"","Nr_Pas":0,"Vol":0,"Faqe":0,"Pronaret":0,"Kufizimet":0,"Siperfaqe":19}},
{"type":"Feature","geometry":{"type":"Polygon","coordinates":[[[20.101885443017345,40.41025914182675],[20.101920375328895,40.410298789522045],[20.101799949193907,40.41036078606115],[20.101765016920826,40.41032113832985],[20.101885443017345,40.41025914182675]]]},"properties":{"Zk_Numer":0,"Zk_Emer":"","Nr_Pas":0,"Vol":0,"Faqe":0,"Pronaret":0,"Kufizimet":0,"Siperfaqe":65}},
{"type":"Feature","geometry":{"type":"Polygon","coordinates":[[[20.102269459100036,40.4125811033191],[20.102320364361855,40.41254744270428],[20.10236213045966,40.41258434661901],[20.102228115486746,40.412672962646255],[20.102186349407173,40.41263605868366],[20.102214589361843,40.41261738534296],[20.102269459100036,40.4125811033191]]]},"properties":{"Zk_Numer":0,"Zk_Emer":"","Nr_Pas":0,"Vol":0,"Faqe":0,"Pronaret":0,"Kufizimet":0,"Siperfaqe":81}},
{"type":"Feature","geometry":{"type":"Polygon","coordinates":[[[20.102214589361843,40.41261738534296],[20.102187737558367,40.41259365941925],[20.102241889091115,40.41255674281484],[20.102269459100036,40.4125811033191],[20.102214589361843,40.41261738534296]]]},"properties":{"Zk_Numer":0,"Zk_Emer":"","Nr_Pas":0,"Vol":0,"Faqe":0,"Pronaret":0,"Kufizimet":0,"Siperfaqe":22}},
{"type":"Feature","geometry":{"type":"Polygon","coordinates":[[[20.10026345252069,40.41280956871198],[20.10022018681967,40.4127907120151],[20.10025281610086,40.41274697077596],[20.10029608178292,40.41276582746081],[20.10026345252069,40.41280956871198]]]},"properties":{"Zk_Numer":0,"Zk_Emer":"","Nr_Pas":0,"Vol":0,"Faqe":0,"Pronaret":0,"Kufizimet":0,"Siperfaqe":24}},
{"type":"Feature","geometry":{"type":"Polygon","coordinates":[[[20.100113190902693,40.4126671584684],[20.100025112323458,40.41277140192543],[20.09997269428325,40.41274552521078],[20.09999333911224,40.412721091536746],[20.099952841107907,40.41270109924568],[20.09998799660007,40.41265949181712],[20.100028494589818,40.41267948409603],[20.100060772909647,40.41264128179314],[20.100113190902693,40.4126671584684]]]},"properties":{"Zk_Numer":0,"Zk_Emer":"","Nr_Pas":0,"Vol":0,"Faqe":0,"Pronaret":0,"Kufizimet":0,"Siperfaqe":95}},
{"type":"Feature","geometry":{"type":"Polygon","coordinates":[[[20.100260172203736,40.41263084527831],[20.100236903516382,40.4126273276365],[20.10021824879469,40.412699424407705],[20.100156652756805,40.41269050824945],[20.10018938584797,40.41256954461368],[20.10024950305458,40.41257863285046],[20.100244464070833,40.41259810755977],[20.1002677987601,40.41260163517937],[20.100260172203736,40.41263084527831]]]},"properties":{"Zk_Numer":0,"Zk_Emer":"","Nr_Pas":0,"Vol":0,"Faqe":0,"Pronaret":0,"Kufizimet":0,"Siperfaqe":79}},
{"type":"Feature","geometry":{"type":"Polygon","coordinates":[[[20.100331400994,40.41264070475919],[20.100362051772787,40.4124865841423],[20.100399553480752,40.412490941664146],[20.100368902785586,40.41264506229076],[20.100331400994,40.41264070475919]]]},"properties":{"Zk_Numer":0,"Zk_Emer":"","Nr_Pas":0,"Vol":0,"Faqe":0,"Pronaret":0,"Kufizimet":0,"Siperfaqe":56}},
{"type":"Feature","geometry":{"type":"Polygon","coordinates":[[[20.100331400994,40.41264070475919],[20.10026813446618,40.412633353457764],[20.100298785386038,40.41247923285728],[20.100362051772787,40.4124865841423],[20.100331400994,40.41264070475919]]]},"properties":{"Zk_Numer":0,"Zk_Emer":"","Nr_Pas":0,"Vol":0,"Faqe":0,"Pronaret":0,"Kufizimet":0,"Siperfaqe":94}},
{"type":"Feature","geometry":{"type":"Polygon","coordinates":[[[20.09922560027818,40.41271395968878],[20.099171796865683,40.41269227544991],[20.09913866376059,40.412678921887796],[20.09919186175751,40.412601801803085],[20.09922499483522,40.41261515535015],[20.099253204568104,40.41257426014726],[20.099307007912607,40.412595944348766],[20.09922560027818,40.41271395968878]]]},"properties":{"Zk_Numer":0,"Zk_Emer":"","Nr_Pas":0,"Vol":0,"Faqe":0,"Pronaret":0,"Kufizimet":0,"Siperfaqe":107}},
{"type":"Feature","geometry":{"type":"Polygon","coordinates":[[[20.09908956095863,40.41269717320673],[20.099044325172986,40.41267771629305],[20.099071393381436,40.41264179779256],[20.099116275683112,40.41266088494818],[20.09908956095863,40.41269717320673]]]},"properties":{"Zk_Numer":0,"Zk_Emer":"","Nr_Pas":0,"Vol":0,"Faqe":0,"Pronaret":0,"Kufizimet":0,"Siperfaqe":20}},
{"type":"Feature","geometry":{"type":"Polygon","coordinates":[[[20.098959961477888,40.41251169222653],[20.098968769743298,40.41249764107663],[20.09902527913628,40.41251966579112],[20.0989640779684,40.41261729531094],[20.09890689162971,40.41259635034461],[20.098913235258554,40.41258623086933],[20.098959961477888,40.41251169222653]]]},"properties":{"Zk_Numer":0,"Zk_Emer":"","Nr_Pas":0,"Vol":0,"Faqe":0,"Pronaret":0,"Kufizimet":0,"Siperfaqe":65}},
{"type":"Feature","geometry":{"type":"Polygon","coordinates":[[[20.094534242720272,40.41795153815307],[20.094576077646273,40.41792374456431],[20.094623851251672,40.41796575143956],[20.094582016319375,40.41799354504543],[20.094534242720272,40.41795153815307]]]},"properties":{"Zk_Numer":0,"Zk_Emer":"","Nr_Pas":0,"Vol":0,"Faqe":0,"Pronaret":0,"Kufizimet":0,"Siperfaqe":29}},
{"type":"Feature","geometry":{"type":"Polygon","coordinates":[[[20.094056324882406,40.4135058629851],[20.094021898843124,40.41353852454923],[20.093962824165235,40.41350214579346],[20.093997250214613,40.41346948424669],[20.094056324882406,40.4135058629851]]]},"properties":{"Zk_Numer":0,"Zk_Emer":"","Nr_Pas":0,"Vol":0,"Faqe":0,"Pronaret":0,"Kufizimet":0,"Siperfaqe":30}},
{"type":"Feature","geometry":{"type":"Polygon","coordinates":[[[20.094887689873275,40.417821024145844],[20.094879006628826,40.4178097138787],[20.094846851713765,40.41776783079919],[20.09489404140962,40.417746666853574],[20.094934879593435,40.41779986018372],[20.094887689873275,40.417821024145844]]]},"properties":{"Zk_Numer":0,"Zk_Emer":"","Nr_Pas":0,"Vol":0,"Faqe":0,"Pronaret":0,"Kufizimet":0,"Siperfaqe":32}},
{"type":"Feature","geometry":{"type":"Polygon","coordinates":[[[20.097713107114373,40.40763430982076],[20.097782880339025,40.40751020215964],[20.097836998181098,40.40752798100247],[20.09776722503762,40.40765208869576],[20.097713107114373,40.40763430982076]]]},"properties":{"Zk_Numer":0,"Zk_Emer":"","Nr_Pas":0,"Vol":0,"Faqe":0,"Pronaret":0,"Kufizimet":0,"Siperfaqe":75}},
{"type":"Feature","geometry":{"type":"Polygon","coordinates":[[[20.097496751797213,40.40760038653217],[20.09745637000114,40.4075821532492],[20.09756590877453,40.40744039034573],[20.097606290515287,40.40745862359096],[20.097496751797213,40.40760038653217]]]},"properties":{"Zk_Numer":0,"Zk_Emer":"","Nr_Pas":0,"Vol":0,"Faqe":0,"Pronaret":0,"Kufizimet":0,"Siperfaqe":73}},
{"type":"Feature","geometry":{"type":"Polygon","coordinates":[[[20.10309901584923,40.410204802418946],[20.103262193426595,40.41020465680527],[20.10326227505793,40.41025806531078],[20.103099097351567,40.41025821092472],[20.10309901584923,40.410204802418946]]]},"properties":{"Zk_Numer":0,"Zk_Emer":"","Nr_Pas":0,"Vol":0,"Faqe":0,"Pronaret":0,"Kufizimet":0,"Siperfaqe":82}},
{"type":"Feature","geometry":{"type":"Polygon","coordinates":[[[20.10198656364427,40.41040549616834],[20.101954272622507,40.410392272230325],[20.10198056717123,40.410354755638664],[20.102012858180174,40.41036797956942],[20.10198656364427,40.41040549616834]]]},"properties":{"Zk_Numer":0,"Zk_Emer":"","Nr_Pas":0,"Vol":0,"Faqe":0,"Pronaret":0,"Kufizimet":0,"Siperfaqe":15}},
{"type":"Feature","geometry":{"type":"Polygon","coordinates":[[[20.097797781847106,40.41383826977067],[20.097837880758547,40.41382022643539],[20.09793351438406,40.41394439658265],[20.097893415424593,40.41396243995076],[20.097797781847106,40.41383826977067]]]},"properties":{"Zk_Numer":0,"Zk_Emer":"","Nr_Pas":0,"Vol":0,"Faqe":0,"Pronaret":0,"Kufizimet":0,"Siperfaqe":63}},
{"type":"Feature","geometry":{"type":"Polygon","coordinates":[[[20.09729296731702,40.41399540313899],[20.097362572295204,40.41400029164818],[20.09735028338993,40.414102519208036],[20.09728067830727,40.41409763069167],[20.09729296731702,40.41399540313899]]]},"properties":{"Zk_Numer":0,"Zk_Emer":"","Nr_Pas":0,"Vol":0,"Faqe":0,"Pronaret":0,"Kufizimet":0,"Siperfaqe":68}},
{"type":"Feature","geometry":{"type":"Polygon","coordinates":[[[20.09703198001151,40.41437679409377],[20.097053800140866,40.41437472499574],[20.09706101986619,40.41441920665887],[20.097039199722698,40.41442127575826],[20.097046853804382,40.414468433575756],[20.096988392083396,40.414473977199066],[20.096981535011018,40.414431729640036],[20.096949520172902,40.414434765429],[20.096942912432603,40.41439405387639],[20.09696177807952,40.41439226495319],[20.096953463679522,40.41434103836055],[20.097025074448574,40.41433424788527],[20.09703198001151,40.41437679409377]]]},"properties":{"Zk_Numer":0,"Zk_Emer":"","Nr_Pas":0,"Vol":0,"Faqe":0,"Pronaret":0,"Kufizimet":0,"Siperfaqe":103}},
{"type":"Feature","geometry":{"type":"Polygon","coordinates":[[[20.096419672119435,40.414479770898446],[20.09642047507718,40.41454338443529],[20.09638493141778,40.414543646542704],[20.09638497258331,40.41457249701344],[20.09638509048397,40.414575831544056],[20.09632298226992,40.41457711448644],[20.09632101803794,40.41442148220632],[20.09638349021358,40.41442102154815],[20.09638380166233,40.41444569685648],[20.096419238724216,40.414445435535185],[20.096419672119435,40.414479770898446]]]},"properties":{"Zk_Numer":0,"Zk_Emer":"","Nr_Pas":0,"Vol":0,"Faqe":0,"Pronaret":0,"Kufizimet":0,"Siperfaqe":124}},
{"type":"Feature","geometry":{"type":"Polygon","coordinates":[[[20.09611100909011,40.41457648707614],[20.09600051362256,40.414562838756986],[20.096014610628846,40.4144961621899],[20.09617744591361,40.41451627544602],[20.096168048016906,40.41456072650398],[20.096115708059862,40.41455426154966],[20.09611100909011,40.41457648707614]]]},"properties":{"Zk_Numer":0,"Zk_Emer":"","Nr_Pas":0,"Vol":0,"Faqe":0,"Pronaret":0,"Kufizimet":0,"Siperfaqe":94}},
{"type":"Feature","geometry":{"type":"Polygon","coordinates":[[[20.096388263536568,40.414736400952755],[20.096440071705963,40.41469108476877],[20.096542543562663,40.414759527777946],[20.0964907354097,40.414804844007264],[20.096388263536568,40.414736400952755]]]},"properties":{"Zk_Numer":0,"Zk_Emer":"","Nr_Pas":0,"Vol":0,"Faqe":0,"Pronaret":0,"Kufizimet":0,"Siperfaqe":77}},
{"type":"Feature","geometry":{"type":"Polygon","coordinates":[[[20.097673028267163,40.414297083339285],[20.09773086935998,40.41429703446357],[20.09773103004509,40.414408098926884],[20.097673188857172,40.41440814780279],[20.097673028267163,40.414297083339285]]]},"properties":{"Zk_Numer":0,"Zk_Emer":"","Nr_Pas":0,"Vol":0,"Faqe":0,"Pronaret":0,"Kufizimet":0,"Siperfaqe":61}},
{"type":"Feature","geometry":{"type":"Polygon","coordinates":[[[20.09746642563084,40.41436184287023],[20.097452341183523,40.4143107368991],[20.097516831863064,40.41429948026797],[20.097555173660627,40.41443860432191],[20.09749068285474,40.41444986097431],[20.09747841031131,40.41440532969193],[20.09746642563084,40.41436184287023]]]},"properties":{"Zk_Numer":0,"Zk_Emer":"","Nr_Pas":0,"Vol":0,"Faqe":0,"Pronaret":0,"Kufizimet":0,"Siperfaqe":89}},
{"type":"Feature","geometry":{"type":"Polygon","coordinates":[[[20.098076920568662,40.41451122332302],[20.09802459447698,40.41449135947728],[20.098097679756687,40.41437888121119],[20.098150005782603,40.41439874502432],[20.098076920568662,40.41451122332302]]]},"properties":{"Zk_Numer":0,"Zk_Emer":"","Nr_Pas":0,"Vol":0,"Faqe":0,"Pronaret":0,"Kufizimet":0,"Siperfaqe":69}},
{"type":"Feature","geometry":{"type":"Polygon","coordinates":[[[20.098317179973893,40.41438456649634],[20.098295518092357,40.41442643955529],[20.09819972387649,40.41439748705991],[20.098222284371523,40.41435561009967],[20.098317179973893,40.41438456649634]]]},"properties":{"Zk_Numer":0,"Zk_Emer":"","Nr_Pas":0,"Vol":0,"Faqe":0,"Pronaret":0,"Kufizimet":0,"Siperfaqe":44}},
{"type":"Feature","geometry":{"type":"Polygon","coordinates":[[[20.098093208785006,40.414254016195045],[20.098246072654476,40.4142737855662],[20.09823673156383,40.41431598414176],[20.09808386760155,40.41429621475851],[20.098093208785006,40.414254016195045]]]},"properties":{"Zk_Numer":0,"Zk_Emer":"","Nr_Pas":0,"Vol":0,"Faqe":0,"Pronaret":0,"Kufizimet":0,"Siperfaqe":63}},
{"type":"Feature","geometry":{"type":"Polygon","coordinates":[[[20.09814798646872,40.4141600111614],[20.09821283894433,40.414159956092746],[20.09821297811596,40.414255679019],[20.098148125548448,40.414255734087845],[20.09814798646872,40.4141600111614]]]},"properties":{"Zk_Numer":0,"Zk_Emer":"","Nr_Pas":0,"Vol":0,"Faqe":0,"Pronaret":0,"Kufizimet":0,"Siperfaqe":59}},
{"type":"Feature","geometry":{"type":"Polygon","coordinates":[[[20.097690167074195,40.413709028312304],[20.09765523835219,40.413744719801],[20.097494853311165,40.41365301832445],[20.09752978207069,40.41361732688361],[20.097690167074195,40.413709028312304]]]},"properties":{"Zk_Numer":0,"Zk_Emer":"","Nr_Pas":0,"Vol":0,"Faqe":0,"Pronaret":0,"Kufizimet":0,"Siperfaqe":84}},
{"type":"Feature","geometry":{"type":"Polygon","coordinates":[[[20.09533929877388,40.41252841790182],[20.09526852011677,40.41252676346093],[20.095273228051425,40.412407208431084],[20.09534407767092,40.41240896573496],[20.09533929877388,40.41252841790182]]]},"properties":{"Zk_Numer":0,"Zk_Emer":"","Nr_Pas":0,"Vol":0,"Faqe":0,"Pronaret":0,"Kufizimet":0,"Siperfaqe":80}},
{"type":"Feature","geometry":{"type":"Polygon","coordinates":[[[20.095517468486435,40.412494278047575],[20.095469023398245,40.41249029879532],[20.095457957399677,40.41255801274144],[20.095405117566713,40.41255296747752],[20.09542346635031,40.41244241571267],[20.095523015850727,40.412452069282395],[20.095517468486435,40.412494278047575]]]},"properties":{"Zk_Numer":0,"Zk_Emer":"","Nr_Pas":0,"Vol":0,"Faqe":0,"Pronaret":0,"Kufizimet":0,"Siperfaqe":75}},
{"type":"Feature","geometry":{"type":"Polygon","coordinates":[[[20.094751514190595,40.41294183411987],[20.094732026804742,40.412899341522646],[20.094754263550943,40.4128933833173],[20.094734776177393,40.41285089072017],[20.09479036799507,40.41283599519739],[20.094829342827996,40.41292098036943],[20.094751514190595,40.41294183411987]]]},"properties":{"Zk_Numer":0,"Zk_Emer":"","Nr_Pas":0,"Vol":0,"Faqe":0,"Pronaret":0,"Kufizimet":0,"Siperfaqe":60}},
{"type":"Feature","geometry":{"type":"Polygon","coordinates":[[[20.09948716979404,40.410122639139786],[20.099490575459516,40.41012224880316],[20.09951690392924,40.41025647197917],[20.099457794468083,40.41026324673072],[20.099431466113106,40.410129023541266],[20.09948716979404,40.410122639139786]]]},"properties":{"Zk_Numer":0,"Zk_Emer":"","Nr_Pas":0,"Vol":0,"Faqe":0,"Pronaret":0,"Kufizimet":0,"Siperfaqe":76}},
{"type":"Feature","geometry":{"type":"Polygon","coordinates":[[[20.09948716979404,40.410122639139786],[20.099431466113106,40.410129023541266],[20.099425081377326,40.41009647377642],[20.09948078503204,40.410090089378016],[20.09948716979404,40.410122639139786]]]},"properties":{"Zk_Numer":0,"Zk_Emer":"","Nr_Pas":0,"Vol":0,"Faqe":0,"Pronaret":0,"Kufizimet":0,"Siperfaqe":17}},
{"type":"Feature","geometry":{"type":"Polygon","coordinates":[[[20.096168168855254,40.41209890301398],[20.096033624838704,40.41215484371894],[20.09600546954153,40.41211527868576],[20.096140013502726,40.41205933801324],[20.096168168855254,40.41209890301398]]]},"properties":{"Zk_Numer":0,"Zk_Emer":"","Nr_Pas":0,"Vol":0,"Faqe":0,"Pronaret":0,"Kufizimet":0,"Siperfaqe":65}},
{"type":"Feature","geometry":{"type":"Polygon","coordinates":[[[20.097885512292557,40.40770960794504],[20.097834952413756,40.407687506061926],[20.09790797399232,40.40758989475117],[20.097958533821576,40.40761199660253],[20.097885512292557,40.40770960794504]]]},"properties":{"Zk_Numer":0,"Zk_Emer":"","Nr_Pas":0,"Vol":0,"Faqe":0,"Pronaret":0,"Kufizimet":0,"Siperfaqe":62}},
{"type":"Feature","geometry":{"type":"Polygon","coordinates":[[[20.099275215126575,40.40809297336465],[20.099243469818145,40.40813699670833],[20.099197255822297,40.40811752353774],[20.099186978713263,40.40813177546492],[20.09913304196489,40.408109048122554],[20.09917506443586,40.4080507728835],[20.099275215126575,40.40809297336465]]]},"properties":{"Zk_Numer":0,"Zk_Emer":"","Nr_Pas":0,"Vol":0,"Faqe":0,"Pronaret":0,"Kufizimet":0,"Siperfaqe":64}},
{"type":"Feature","geometry":{"type":"Polygon","coordinates":[[[20.099021511418456,40.40799540899207],[20.09904966146675,40.40800767194492],[20.098961172582854,40.40812636894942],[20.098949873514606,40.40812144675617],[20.09891404933323,40.40810584071884],[20.098907663542157,40.40810305888381],[20.098936898488923,40.408063843877166],[20.098912103907722,40.408053042637846],[20.098941929172632,40.40801303575854],[20.098966723743892,40.408023836991546],[20.0989961524897,40.4079843619197],[20.099021511418456,40.40799540899207]]]},"properties":{"Zk_Numer":0,"Zk_Emer":"","Nr_Pas":0,"Vol":0,"Faqe":0,"Pronaret":0,"Kufizimet":0,"Siperfaqe":92}},
{"type":"Feature","geometry":{"type":"Polygon","coordinates":[[[20.099021511418456,40.40799540899207],[20.0989961524897,40.4079843619197],[20.099008215323234,40.40796818108476],[20.099033574247876,40.407979228154545],[20.099021511418456,40.40799540899207]]]},"properties":{"Zk_Numer":0,"Zk_Emer":"","Nr_Pas":0,"Vol":0,"Faqe":0,"Pronaret":0,"Kufizimet":0,"Siperfaqe":5}},
{"type":"Feature","geometry":{"type":"Polygon","coordinates":[[[20.098949873514606,40.40812144675617],[20.09893484107642,40.408141610878786],[20.098899016887813,40.40812600483687],[20.09891404933323,40.40810584071884],[20.098949873514606,40.40812144675617]]]},"properties":{"Zk_Numer":0,"Zk_Emer":"","Nr_Pas":0,"Vol":0,"Faqe":0,"Pronaret":0,"Kufizimet":0,"Siperfaqe":9}},
{"type":"Feature","geometry":{"type":"Polygon","coordinates":[[[20.09917561258057,40.408265843441065],[20.09912746168206,40.40825103419659],[20.099111300389,40.40828173936429],[20.09904989418528,40.40826285329094],[20.099091761316938,40.40818906188433],[20.0991970508502,40.408223697042736],[20.09917561258057,40.408265843441065]]]},"properties":{"Zk_Numer":0,"Zk_Emer":"","Nr_Pas":0,"Vol":0,"Faqe":0,"Pronaret":0,"Kufizimet":0,"Siperfaqe":71}},
{"type":"Feature","geometry":{"type":"Polygon","coordinates":[[[20.099185643393657,40.40830864061314],[20.099164653532096,40.40835222516266],[20.09911654716933,40.40833868750876],[20.099108169690634,40.40835608294236],[20.09906073511789,40.408342734312114],[20.09906911260716,40.40832533888191],[20.099018839791423,40.40831119151109],[20.09903954562325,40.40826752703528],[20.099185643393657,40.40830864061314]]]},"properties":{"Zk_Numer":0,"Zk_Emer":"","Nr_Pas":0,"Vol":0,"Faqe":0,"Pronaret":0,"Kufizimet":0,"Siperfaqe":77}},
{"type":"Feature","geometry":{"type":"Polygon","coordinates":[[[20.098770013412455,40.40832661500293],[20.098803157092842,40.40834963436194],[20.098782819401983,40.408366780473386],[20.098749652783127,40.40834374517815],[20.098770013412455,40.40832661500293]]]},"properties":{"Zk_Numer":0,"Zk_Emer":"","Nr_Pas":0,"Vol":0,"Faqe":0,"Pronaret":0,"Kufizimet":0,"Siperfaqe":10}},
{"type":"Feature","geometry":{"type":"Polygon","coordinates":[[[20.098686049959117,40.408329851463336],[20.098684596340863,40.40832884187594],[20.0988271964497,40.40820886684912],[20.098872537304594,40.40824035754911],[20.098770013412455,40.40832661500293],[20.098749652783127,40.40834374517815],[20.098729937210035,40.40836033263116],[20.098724833314193,40.408356787806596],[20.098686049959117,40.408329851463336]]]},"properties":{"Zk_Numer":0,"Zk_Emer":"","Nr_Pas":0,"Vol":0,"Faqe":0,"Pronaret":0,"Kufizimet":0,"Siperfaqe":94}},
{"type":"Feature","geometry":{"type":"Polygon","coordinates":[[[20.095252538962015,40.41257093628485],[20.09530461174513,40.41257771264769],[20.09528787302989,40.412652865378305],[20.095235800190494,40.41264608900807],[20.095252538962015,40.41257093628485]]]},"properties":{"Zk_Numer":0,"Zk_Emer":"","Nr_Pas":0,"Vol":0,"Faqe":0,"Pronaret":0,"Kufizimet":0,"Siperfaqe":38}},
{"type":"Feature","geometry":{"type":"Polygon","coordinates":[[[20.095473903261013,40.413949457156875],[20.095371214436867,40.413949541904344],[20.09537114120837,40.41389767370306],[20.095473829953676,40.41389758895575],[20.095473903261013,40.413949457156875]]]},"properties":{"Zk_Numer":0,"Zk_Emer":"","Nr_Pas":0,"Vol":0,"Faqe":0,"Pronaret":0,"Kufizimet":0,"Siperfaqe":50}},
{"type":"Feature","geometry":{"type":"Polygon","coordinates":[[[20.09553558093092,40.41423900309798],[20.095465904815654,40.41421400692927],[20.095481303601932,40.41418920300619],[20.095550979697272,40.41421419916574],[20.09553558093092,40.41423900309798]]]},"properties":{"Zk_Numer":0,"Zk_Emer":"","Nr_Pas":0,"Vol":0,"Faqe":0,"Pronaret":0,"Kufizimet":0,"Siperfaqe":20}},
{"type":"Feature","geometry":{"type":"Polygon","coordinates":[[[20.095441761956273,40.41420423789297],[20.09537681389828,40.41418068087907],[20.09539278304934,40.41415495828252],[20.095457731088135,40.41417851528758],[20.095441761956273,40.41420423789297]]]},"properties":{"Zk_Numer":0,"Zk_Emer":"","Nr_Pas":0,"Vol":0,"Faqe":0,"Pronaret":0,"Kufizimet":0,"Siperfaqe":19}},
{"type":"Feature","geometry":{"type":"Polygon","coordinates":[[[20.095347179701726,40.41432637813887],[20.095400145624424,40.41435160223509],[20.09532736856168,40.41444088348504],[20.09527440259602,40.414415659355925],[20.095347179701726,40.41432637813887]]]},"properties":{"Zk_Numer":0,"Zk_Emer":"","Nr_Pas":0,"Vol":0,"Faqe":0,"Pronaret":0,"Kufizimet":0,"Siperfaqe":62}},
{"type":"Feature","geometry":{"type":"Polygon","coordinates":[[[20.095727460482237,40.414224553697345],[20.095789858315428,40.41427297497654],[20.095740044279957,40.41431047842671],[20.095677646447726,40.414262057120936],[20.095727460482237,40.414224553697345]]]},"properties":{"Zk_Numer":0,"Zk_Emer":"","Nr_Pas":0,"Vol":0,"Faqe":0,"Pronaret":0,"Kufizimet":0,"Siperfaqe":45}},
{"type":"Feature","geometry":{"type":"Polygon","coordinates":[[[20.095539550623325,40.41403129904663],[20.095539725531165,40.41415496817802],[20.095490672019036,40.41415500870046],[20.095490638723422,40.41413145489718],[20.095441584995665,40.41413149539897],[20.09544151855533,40.414084470300146],[20.095490572248938,40.41408442979842],[20.095490497201002,40.414031339568886],[20.095539550623325,40.41403129904663]]]},"properties":{"Zk_Numer":0,"Zk_Emer":"","Nr_Pas":0,"Vol":0,"Faqe":0,"Pronaret":0,"Kufizimet":0,"Siperfaqe":79}},
{"type":"Feature","geometry":{"type":"Polygon","coordinates":[[[20.093945911036993,40.41543258447258],[20.093988582876865,40.41547318968072],[20.093861859780752,40.41555117310842],[20.093819187967615,40.415510567854035],[20.093945911036993,40.41543258447258]]]},"properties":{"Zk_Numer":0,"Zk_Emer":"","Nr_Pas":0,"Vol":0,"Faqe":0,"Pronaret":0,"Kufizimet":0,"Siperfaqe":80}},
{"type":"Feature","geometry":{"type":"Polygon","coordinates":[[[20.09394963275068,40.41531965935943],[20.093975730063043,40.41535658840089],[20.093868874837405,40.41540070429334],[20.09384277756632,40.415363775228016],[20.09394963275068,40.41531965935943]]]},"properties":{"Zk_Numer":0,"Zk_Emer":"","Nr_Pas":0,"Vol":0,"Faqe":0,"Pronaret":0,"Kufizimet":0,"Siperfaqe":48}},
{"type":"Feature","geometry":{"type":"Polygon","coordinates":[[[20.094080025262894,40.414953487013754],[20.09413107068727,40.41498989733867],[20.094083806342663,40.41502860908281],[20.094032760914423,40.41499219873728],[20.094080025262894,40.414953487013754]]]},"properties":{"Zk_Numer":0,"Zk_Emer":"","Nr_Pas":0,"Vol":0,"Faqe":0,"Pronaret":0,"Kufizimet":0,"Siperfaqe":35}},
{"type":"Feature","geometry":{"type":"Polygon","coordinates":[[[20.09396068236989,40.41479787507091],[20.094004349627106,40.41482218799437],[20.09397115467257,40.414857019306424],[20.09392748740474,40.41483270637061],[20.09396068236989,40.41479787507091]]]},"properties":{"Zk_Numer":0,"Zk_Emer":"","Nr_Pas":0,"Vol":0,"Faqe":0,"Pronaret":0,"Kufizimet":0,"Siperfaqe":22}},
{"type":"Feature","geometry":{"type":"Polygon","coordinates":[[[20.09420841782451,40.414535511880715],[20.094272847243978,40.41457139955007],[20.09403619754299,40.41481844807049],[20.093971768013105,40.414782560270936],[20.09420841782451,40.414535511880715]]]},"properties":{"Zk_Numer":0,"Zk_Emer":"","Nr_Pas":0,"Vol":0,"Faqe":0,"Pronaret":0,"Kufizimet":0,"Siperfaqe":230}},
{"type":"Feature","geometry":{"type":"Polygon","coordinates":[[[20.09429808849109,40.41474589827413],[20.09435528774229,40.41477973046996],[20.094251214247787,40.41488252722135],[20.094194014961463,40.41484869497468],[20.09429808849109,40.41474589827413]]]},"properties":{"Zk_Numer":0,"Zk_Emer":"","Nr_Pas":0,"Vol":0,"Faqe":0,"Pronaret":0,"Kufizimet":0,"Siperfaqe":89}},
{"type":"Feature","geometry":{"type":"Polygon","coordinates":[[[20.096293175429043,40.4144909497778],[20.096229598225957,40.41448621817819],[20.09623851364501,40.41441757045456],[20.09630192178027,40.41442228947169],[20.096293175429043,40.4144909497778]]]},"properties":{"Zk_Numer":0,"Zk_Emer":"","Nr_Pas":0,"Vol":0,"Faqe":0,"Pronaret":0,"Kufizimet":0,"Siperfaqe":41}},
{"type":"Feature","geometry":{"type":"Polygon","coordinates":[[[20.093641649694955,40.41480764732979],[20.093675285001147,40.41478080641478],[20.093756169605804,40.414840022901124],[20.09372253430236,40.414866863839386],[20.093641649694955,40.41480764732979]]]},"properties":{"Zk_Numer":0,"Zk_Emer":"","Nr_Pas":0,"Vol":0,"Faqe":0,"Pronaret":0,"Kufizimet":0,"Siperfaqe":39}},
{"type":"Feature","geometry":{"type":"Polygon","coordinates":[[[20.09943280249893,40.41274126691093],[20.099383796927476,40.41272948475279],[20.09941861871288,40.41264486378534],[20.099467624228964,40.412656645928955],[20.09943280249893,40.41274126691093]]]},"properties":{"Zk_Numer":0,"Zk_Emer":"","Nr_Pas":0,"Vol":0,"Faqe":0,"Pronaret":0,"Kufizimet":0,"Siperfaqe":43}},
{"type":"Feature","geometry":{"type":"Polygon","coordinates":[[[20.093948017366042,40.41362616040525],[20.093940062910075,40.41357680078658],[20.09400458556043,40.413570725775244],[20.09401236581441,40.413619004136706],[20.09405448078211,40.41361503885942],[20.09406248908206,40.41366473203571],[20.093925350610043,40.41367478564811],[20.093917970413383,40.41362898940812],[20.093948017366042,40.41362616040525]]]},"properties":{"Zk_Numer":0,"Zk_Emer":"","Nr_Pas":0,"Vol":0,"Faqe":0,"Pronaret":0,"Kufizimet":0,"Siperfaqe":93}},
{"type":"Feature","geometry":{"type":"Polygon","coordinates":[[[20.09349679055214,40.413289267745256],[20.093527367048935,40.413322576929616],[20.09349066330667,40.413343078718675],[20.093508133940684,40.41336135238132],[20.09344591527748,40.41339612809064],[20.093428430955033,40.4133778400929],[20.093388884850633,40.41339992948295],[20.093356412455336,40.413364554881404],[20.09349679055214,40.413289267745256]]]},"properties":{"Zk_Numer":0,"Zk_Emer":"","Nr_Pas":0,"Vol":0,"Faqe":0,"Pronaret":0,"Kufizimet":0,"Siperfaqe":84}},
{"type":"Feature","geometry":{"type":"Polygon","coordinates":[[[20.092468926006866,40.41472782454764],[20.09252621241194,40.4147434667612],[20.092478957162758,40.41484457423183],[20.09242167068279,40.4148289319952],[20.092468926006866,40.41472782454764]]]},"properties":{"Zk_Numer":0,"Zk_Emer":"","Nr_Pas":0,"Vol":0,"Faqe":0,"Pronaret":0,"Kufizimet":0,"Siperfaqe":62}},
{"type":"Feature","geometry":{"type":"Polygon","coordinates":[[[20.092881993794013,40.414734663244104],[20.092937022792793,40.41475452379141],[20.09286252113171,40.41487512336971],[20.092807492056455,40.41485526278745],[20.092881993794013,40.414734663244104]]]},"properties":{"Zk_Numer":0,"Zk_Emer":"","Nr_Pas":0,"Vol":0,"Faqe":0,"Pronaret":0,"Kufizimet":0,"Siperfaqe":76}},
{"type":"Feature","geometry":{"type":"Polygon","coordinates":[[[20.093141995372562,40.41417202580213],[20.093192761276462,40.414184246473845],[20.09315349832832,40.41427953642082],[20.093102732359846,40.414267315732154],[20.093141995372562,40.41417202580213]]]},"properties":{"Zk_Numer":0,"Zk_Emer":"","Nr_Pas":0,"Vol":0,"Faqe":0,"Pronaret":0,"Kufizimet":0,"Siperfaqe":50}},
{"type":"Feature","geometry":{"type":"Polygon","coordinates":[[[20.09411596242094,40.41345012224826],[20.094239530537898,40.41341631712171],[20.094263261480382,40.41346699690234],[20.094139693282692,40.413500802054045],[20.09411596242094,40.41345012224826]]]},"properties":{"Zk_Numer":0,"Zk_Emer":"","Nr_Pas":0,"Vol":0,"Faqe":0,"Pronaret":0,"Kufizimet":0,"Siperfaqe":67}},
{"type":"Feature","geometry":{"type":"Polygon","coordinates":[[[20.094217668668172,40.41339506952802],[20.094111314643317,40.413432766533106],[20.09406617432817,40.41335836016822],[20.094172528261225,40.41332066320426],[20.094217668668172,40.41339506952802]]]},"properties":{"Zk_Numer":0,"Zk_Emer":"","Nr_Pas":0,"Vol":0,"Faqe":0,"Pronaret":0,"Kufizimet":0,"Siperfaqe":91}},
{"type":"Feature","geometry":{"type":"Polygon","coordinates":[[[20.093179162555032,40.41355813958944],[20.093217428432553,40.413512212449454],[20.09325500750733,40.41353050540101],[20.093216741645044,40.41357643255328],[20.093179162555032,40.41355813958944]]]},"properties":{"Zk_Numer":0,"Zk_Emer":"","Nr_Pas":0,"Vol":0,"Faqe":0,"Pronaret":0,"Kufizimet":0,"Siperfaqe":23}},
{"type":"Feature","geometry":{"type":"Polygon","coordinates":[[[20.094824175040277,40.41371616196715],[20.094768689318652,40.413736593533386],[20.094680848745952,40.413597223538],[20.094736334379828,40.41357679201352],[20.094824175040277,40.41371616196715]]]},"properties":{"Zk_Numer":0,"Zk_Emer":"","Nr_Pas":0,"Vol":0,"Faqe":0,"Pronaret":0,"Kufizimet":0,"Siperfaqe":90}},
{"type":"Feature","geometry":{"type":"Polygon","coordinates":[[[20.094675167187763,40.41262973718162],[20.094615205421782,40.41262567640776],[20.09462924444893,40.412504558239775],[20.094689206108225,40.41250861900656],[20.094675167187763,40.41262973718162]]]},"properties":{"Zk_Numer":0,"Zk_Emer":"","Nr_Pas":0,"Vol":0,"Faqe":0,"Pronaret":0,"Kufizimet":0,"Siperfaqe":69}},
{"type":"Feature","geometry":{"type":"Polygon","coordinates":[[[20.095286928531888,40.41191532306007],[20.09535722834998,40.41186680671393],[20.09543318412645,40.411931416150736],[20.09536273550263,40.41197980597623],[20.095286928531888,40.41191532306007]]]},"properties":{"Zk_Numer":0,"Zk_Emer":"","Nr_Pas":0,"Vol":0,"Faqe":0,"Pronaret":0,"Kufizimet":0,"Siperfaqe":77}},
{"type":"Feature","geometry":{"type":"Polygon","coordinates":[[[20.09418385821246,40.41439359161681],[20.09422323168319,40.41436611198414],[20.09425715535329,40.41439450947712],[20.09421778187985,40.4144219891212],[20.09418385821246,40.41439359161681]]]},"properties":{"Zk_Numer":0,"Zk_Emer":"","Nr_Pas":0,"Vol":0,"Faqe":0,"Pronaret":0,"Kufizimet":0,"Siperfaqe":19}},
{"type":"Feature","geometry":{"type":"Polygon","coordinates":[[[20.092481846774056,40.41344626956027],[20.092560061283482,40.41335051136898],[20.092596821431883,40.41336805363933],[20.092518606954346,40.41346381185516],[20.092481846774056,40.41344626956027]]]},"properties":{"Zk_Numer":0,"Zk_Emer":"","Nr_Pas":0,"Vol":0,"Faqe":0,"Pronaret":0,"Kufizimet":0,"Siperfaqe":46}},
{"type":"Feature","geometry":{"type":"Polygon","coordinates":[[[20.092336072233973,40.41429485093679],[20.092356397188748,40.41426917312192],[20.092404921382585,40.414291612742716],[20.092340965921704,40.414372411760326],[20.09229244169097,40.414349972113065],[20.092305318213622,40.41433370441293],[20.092336072233973,40.41429485093679]]]},"properties":{"Zk_Numer":0,"Zk_Emer":"","Nr_Pas":0,"Vol":0,"Faqe":0,"Pronaret":0,"Kufizimet":0,"Siperfaqe":50}},
{"type":"Feature","geometry":{"type":"Polygon","coordinates":[[[20.09224826311633,40.4140963668893],[20.092198923230573,40.41407325696515],[20.09226781153396,40.41398732907147],[20.092317151380414,40.41401043896661],[20.09224826311633,40.4140963668893]]]},"properties":{"Zk_Numer":0,"Zk_Emer":"","Nr_Pas":0,"Vol":0,"Faqe":0,"Pronaret":0,"Kufizimet":0,"Siperfaqe":55}},
{"type":"Feature","geometry":{"type":"Polygon","coordinates":[[[20.092428279819718,40.41422681661075],[20.09247827909104,40.41416755864307],[20.09252947000636,40.41419277538477],[20.09247947076136,40.41425203337428],[20.092428279819718,40.41422681661075]]]},"properties":{"Zk_Numer":0,"Zk_Emer":"","Nr_Pas":0,"Vol":0,"Faqe":0,"Pronaret":0,"Kufizimet":0,"Siperfaqe":40}},
{"type":"Feature","geometry":{"type":"Polygon","coordinates":[[[20.092616894501717,40.41413514787322],[20.092562902959894,40.41411729117608],[20.092615574664205,40.41402424674673],[20.092672597352806,40.414043105933715],[20.092655236574327,40.41407377378071],[20.092679758468933,40.41408188392711],[20.092660350130647,40.41411616877804],[20.092632797016236,40.41410705611252],[20.092616894501717,40.41413514787322]]]},"properties":{"Zk_Numer":0,"Zk_Emer":"","Nr_Pas":0,"Vol":0,"Faqe":0,"Pronaret":0,"Kufizimet":0,"Siperfaqe":68}},
{"type":"Feature","geometry":{"type":"Polygon","coordinates":[[[20.09279617558319,40.41349256950881],[20.092777709953214,40.41347325856117],[20.09276222931634,40.41348190715799],[20.092709711852834,40.41342718634766],[20.092820141601628,40.41336526580147],[20.09283605987549,40.41338185190335],[20.092854800206936,40.41337134373749],[20.092891564950353,40.41340965084151],[20.092847529382237,40.413434252354655],[20.092865995021462,40.41345356329127],[20.09279617558319,40.41349256950881]]]},"properties":{"Zk_Numer":0,"Zk_Emer":"","Nr_Pas":0,"Vol":0,"Faqe":0,"Pronaret":0,"Kufizimet":0,"Siperfaqe":118}},
{"type":"Feature","geometry":{"type":"Polygon","coordinates":[[[20.09409282873569,40.41315840108857],[20.094132530910258,40.41315253132611],[20.094142487179496,40.413191876396105],[20.094113749532863,40.41319612511101],[20.09412227685303,40.41322982329565],[20.094064623022888,40.41323834709822],[20.094057400895394,40.413209806667936],[20.09400646825579,40.413217336753554],[20.093994077310402,40.41316836996591],[20.09403362856574,40.41316252255201],[20.09402431973696,40.41312573577194],[20.094082390278487,40.41311715036738],[20.09409282873569,40.41315840108857]]]},"properties":{"Zk_Numer":0,"Zk_Emer":"","Nr_Pas":0,"Vol":0,"Faqe":0,"Pronaret":0,"Kufizimet":0,"Siperfaqe":100}},
{"type":"Feature","geometry":{"type":"Polygon","coordinates":[[[20.093675177955518,40.413286164897514],[20.093643572074644,40.413269872589076],[20.09361185457182,40.41330582126966],[20.093562264992975,40.41328025862323],[20.09359353691308,40.41324481499669],[20.09356161580658,40.413228360151564],[20.093595052276708,40.41319046319133],[20.093708168794105,40.413248772945906],[20.093675177955518,40.413286164897514]]]},"properties":{"Zk_Numer":0,"Zk_Emer":"","Nr_Pas":0,"Vol":0,"Faqe":0,"Pronaret":0,"Kufizimet":0,"Siperfaqe":83}},
{"type":"Feature","geometry":{"type":"Polygon","coordinates":[[[20.09343025156671,40.41323866966568],[20.093345779589107,40.41318990978835],[20.093434757547286,40.41309984959256],[20.093518973013946,40.41314846136794],[20.09343025156671,40.41323866966568]]]},"properties":{"Zk_Numer":0,"Zk_Emer":"","Nr_Pas":0,"Vol":0,"Faqe":0,"Pronaret":0,"Kufizimet":0,"Siperfaqe":112}},
{"type":"Feature","geometry":{"type":"Polygon","coordinates":[[[20.093688704557447,40.41301896261085],[20.093633627946577,40.41301619269588],[20.093645216592,40.412881564900765],[20.093700293093544,40.412884334810386],[20.093688704557447,40.41301896261085]]]},"properties":{"Zk_Numer":0,"Zk_Emer":"","Nr_Pas":0,"Vol":0,"Faqe":0,"Pronaret":0,"Kufizimet":0,"Siperfaqe":70}},
{"type":"Feature","geometry":{"type":"Polygon","coordinates":[[[20.093296961311605,40.41317718806175],[20.093341325220422,40.41319901428147],[20.093304694703402,40.41324251479873],[20.093260330777802,40.41322068856513],[20.093296961311605,40.41317718806175]]]},"properties":{"Zk_Numer":0,"Zk_Emer":"","Nr_Pas":0,"Vol":0,"Faqe":0,"Pronaret":0,"Kufizimet":0,"Siperfaqe":26}},
{"type":"Feature","geometry":{"type":"Polygon","coordinates":[[[20.09374028895974,40.41345101279013],[20.093761334341526,40.41340482786245],[20.09390791772323,40.41344402595243],[20.09388687242955,40.41349021090636],[20.09374028895974,40.41345101279013]]]},"properties":{"Zk_Numer":0,"Zk_Emer":"","Nr_Pas":0,"Vol":0,"Faqe":0,"Pronaret":0,"Kufizimet":0,"Siperfaqe":72}},
{"type":"Feature","geometry":{"type":"Polygon","coordinates":[[[20.094169079270433,40.413580101155475],[20.094134903874266,40.41360872594137],[20.09404521592674,40.4135461653142],[20.09407939132936,40.413517540554494],[20.094169079270433,40.413580101155475]]]},"properties":{"Zk_Numer":0,"Zk_Emer":"","Nr_Pas":0,"Vol":0,"Faqe":0,"Pronaret":0,"Kufizimet":0,"Siperfaqe":44}},
{"type":"Feature","geometry":{"type":"Polygon","coordinates":[[[20.092290002258917,40.4146976922078],[20.092232967832796,40.41468354866697],[20.09217528331457,40.414669243879985],[20.09219289970115,40.41462774126587],[20.092307618582364,40.41465618957649],[20.092290002258917,40.4146976922078]]]},"properties":{"Zk_Numer":0,"Zk_Emer":"","Nr_Pas":0,"Vol":0,"Faqe":0,"Pronaret":0,"Kufizimet":0,"Siperfaqe":50}},
{"type":"Feature","geometry":{"type":"Polygon","coordinates":[[[20.095893370116187,40.411693560558675],[20.095849937126296,40.41171397614124],[20.095833454689096,40.411694024974636],[20.095787368811056,40.41171627037465],[20.095729764483014,40.41164654304509],[20.095811828576696,40.41160693115111],[20.09583629101647,40.411636541761766],[20.095886680587775,40.41161221893222],[20.095919822544737,40.411652335596365],[20.09587656323615,40.411673216685976],[20.095893370116187,40.411693560558675]]]},"properties":{"Zk_Numer":0,"Zk_Emer":"","Nr_Pas":0,"Vol":0,"Faqe":0,"Pronaret":0,"Kufizimet":0,"Siperfaqe":114}},
{"type":"Feature","geometry":{"type":"Polygon","coordinates":[[[20.095285959395465,40.41124441068443],[20.09522534013891,40.411241686913286],[20.09523484484001,40.411118091522475],[20.095295463986027,40.41112081528882],[20.095285959395465,40.41124441068443]]]},"properties":{"Zk_Numer":0,"Zk_Emer":"","Nr_Pas":0,"Vol":0,"Faqe":0,"Pronaret":0,"Kufizimet":0,"Siperfaqe":71}},
{"type":"Feature","geometry":{"type":"Polygon","coordinates":[[[20.095226084278096,40.411673147113014],[20.09509221670439,40.4117022191488],[20.09506859488718,40.411638666359586],[20.095202462345227,40.411609594350956],[20.095226084278096,40.411673147113014]]]},"properties":{"Zk_Numer":0,"Zk_Emer":"","Nr_Pas":0,"Vol":0,"Faqe":0,"Pronaret":0,"Kufizimet":0,"Siperfaqe":87}},
{"type":"Feature","geometry":{"type":"Polygon","coordinates":[[[20.09371638706291,40.41336417090803],[20.093698650165415,40.41340718049744],[20.093556797092056,40.41337300222246],[20.093574534070974,40.41332999265448],[20.09371638706291,40.41336417090803]]]},"properties":{"Zk_Numer":0,"Zk_Emer":"","Nr_Pas":0,"Vol":0,"Faqe":0,"Pronaret":0,"Kufizimet":0,"Siperfaqe":63}},
{"type":"Feature","geometry":{"type":"Polygon","coordinates":[[[20.09746226150551,40.40793961281685],[20.09748644864054,40.40788319060276],[20.097542424005976,40.40789721226857],[20.097518236912705,40.40795363449418],[20.09746226150551,40.40793961281685]]]},"properties":{"Zk_Numer":0,"Zk_Emer":"","Nr_Pas":0,"Vol":0,"Faqe":0,"Pronaret":0,"Kufizimet":0,"Siperfaqe":33}},
{"type":"Feature","geometry":{"type":"Polygon","coordinates":[[[20.09199809123735,40.41495023180903],[20.09200018803019,40.41492590950815],[20.09207689901198,40.41492977302689],[20.092065650246393,40.415060257560725],[20.092063876282126,40.41508083531946],[20.091987165129506,40.415076971792374],[20.09199123722269,40.41502973663561],[20.09199809123735,40.41495023180903]]]},"properties":{"Zk_Numer":0,"Zk_Emer":"","Nr_Pas":0,"Vol":0,"Faqe":0,"Pronaret":0,"Kufizimet":0,"Siperfaqe":110}},
{"type":"Feature","geometry":{"type":"Polygon","coordinates":[[[20.104277588345845,40.40998121831094],[20.104217895003952,40.40999380034375],[20.104212984119716,40.40998018660872],[20.1041682717367,40.40998961096418],[20.104160807566746,40.409968919075055],[20.104120798159034,40.409977352133005],[20.104104488717667,40.40993213959729],[20.104248903720464,40.40990170018054],[20.104277588345845,40.40998121831094]]]},"properties":{"Zk_Numer":0,"Zk_Emer":"","Nr_Pas":0,"Vol":0,"Faqe":0,"Pronaret":0,"Kufizimet":0,"Siperfaqe":96}},
{"type":"Feature","geometry":{"type":"Polygon","coordinates":[[[20.10430541733545,40.409906068854866],[20.104253438546053,40.409883043495896],[20.10433564007549,40.40978165523331],[20.104386682261914,40.40980583571341],[20.104358885986517,40.40984012001512],[20.104380966836338,40.40985058048036],[20.1043570824312,40.40987852827151],[20.10433588699198,40.40986848725431],[20.10430541733545,40.409906068854866]]]},"properties":{"Zk_Numer":0,"Zk_Emer":"","Nr_Pas":0,"Vol":0,"Faqe":0,"Pronaret":0,"Kufizimet":0,"Siperfaqe":75}},
{"type":"Feature","geometry":{"type":"Polygon","coordinates":[[[20.09217528331457,40.414669243879985],[20.092232967832796,40.41468354866697],[20.09216758133489,40.414837593183364],[20.092109896698837,40.41482328836426],[20.09217528331457,40.414669243879985]]]},"properties":{"Zk_Numer":0,"Zk_Emer":"","Nr_Pas":0,"Vol":0,"Faqe":0,"Pronaret":0,"Kufizimet":0,"Siperfaqe":93}},
{"type":"Feature","geometry":{"type":"Polygon","coordinates":[[[20.09199809123735,40.41495023180903],[20.09199123722269,40.41502973663561],[20.091946353638967,40.41502754443851],[20.091953207706243,40.4149480396145],[20.09199809123735,40.41495023180903]]]},"properties":{"Zk_Numer":0,"Zk_Emer":"","Nr_Pas":0,"Vol":0,"Faqe":0,"Pronaret":0,"Kufizimet":0,"Siperfaqe":34}},
{"type":"Feature","geometry":{"type":"Polygon","coordinates":[[[20.092065650246393,40.415060257560725],[20.092072921627878,40.414976351213646],[20.092105349038242,40.41497798439207],[20.092098077696864,40.41506189074111],[20.092065650246393,40.415060257560725]]]},"properties":{"Zk_Numer":0,"Zk_Emer":"","Nr_Pas":0,"Vol":0,"Faqe":0,"Pronaret":0,"Kufizimet":0,"Siperfaqe":26}},
{"type":"Feature","geometry":{"type":"Polygon","coordinates":[[[20.094996250926844,40.41106812479906],[20.095052651553157,40.41107848904231],[20.095030281699167,40.41114961651105],[20.09497442200997,40.41113935167071],[20.094996250926844,40.41106812479906]]]},"properties":{"Zk_Numer":0,"Zk_Emer":"","Nr_Pas":0,"Vol":0,"Faqe":0,"Pronaret":0,"Kufizimet":0,"Siperfaqe":40}},
{"type":"Feature","geometry":{"type":"Polygon","coordinates":[[[20.092336072233973,40.41429485093679],[20.092305318213622,40.41433370441293],[20.092268256093828,40.414316786015384],[20.092299010127828,40.41427793254898],[20.092336072233973,40.41429485093679]]]},"properties":{"Zk_Numer":0,"Zk_Emer":"","Nr_Pas":0,"Vol":0,"Faqe":0,"Pronaret":0,"Kufizimet":0,"Siperfaqe":18}},
{"type":"Feature","geometry":{"type":"Polygon","coordinates":[[[20.098686049959117,40.408329851463336],[20.098724833314193,40.408356787806596],[20.098704777944178,40.408373661130646],[20.098665994587385,40.408346724780756],[20.098686049959117,40.408329851463336]]]},"properties":{"Zk_Numer":0,"Zk_Emer":"","Nr_Pas":0,"Vol":0,"Faqe":0,"Pronaret":0,"Kufizimet":0,"Siperfaqe":11}},
{"type":"Feature","geometry":{"type":"Polygon","coordinates":[[[20.09746642563084,40.41436184287023],[20.097478410311318,40.41440532969193],[20.097436458718263,40.41441208431986],[20.09742447406358,40.414368597493834],[20.09746642563084,40.41436184287023]]]},"properties":{"Zk_Numer":0,"Zk_Emer":"","Nr_Pas":0,"Vol":0,"Faqe":0,"Pronaret":0,"Kufizimet":0,"Siperfaqe":18}},
{"type":"Feature","geometry":{"type":"Polygon","coordinates":[[[20.0973320434193,40.407440366352],[20.097293753154037,40.40746296651318],[20.097254752948807,40.40744251167147],[20.097277977792462,40.40741812391115],[20.0973320434193,40.407440366352]]]},"properties":{"Zk_Numer":0,"Zk_Emer":"","Nr_Pas":0,"Vol":0,"Faqe":0,"Pronaret":0,"Kufizimet":0,"Siperfaqe":16}},
{"type":"Feature","geometry":{"type":"Polygon","coordinates":[[[20.097277977792462,40.40741812391115],[20.097366927751896,40.40729388107388],[20.097419642446383,40.4073159347867],[20.0973320434193,40.407440366352],[20.097277977792462,40.40741812391115]]]},"properties":{"Zk_Numer":0,"Zk_Emer":"","Nr_Pas":0,"Vol":0,"Faqe":0,"Pronaret":0,"Kufizimet":0,"Siperfaqe":81}},
{"type":"Feature","geometry":{"type":"Polygon","coordinates":[[[20.094887689873275,40.417821024145844],[20.094934879593435,40.41779986018372],[20.094968327876376,40.417843456977536],[20.094903572450356,40.41787421395627],[20.09484189247398,40.41790351012432],[20.09479783197723,40.41784611955248],[20.09487900662883,40.4178097138787],[20.094887689873275,40.417821024145844]]]},"properties":{"Zk_Numer":0,"Zk_Emer":"","Nr_Pas":0,"Vol":0,"Faqe":0,"Pronaret":0,"Kufizimet":0,"Siperfaqe":85}},
{"type":"Feature","geometry":{"type":"Polygon","coordinates":[[[20.098959961477888,40.41251169222653],[20.098913235258554,40.41258623086933],[20.09880609267558,40.41254671544882],[20.09885267957118,40.412472399245814],[20.098959961477888,40.41251169222653]]]},"properties":{"Zk_Numer":0,"Zk_Emer":"","Nr_Pas":0,"Vol":0,"Faqe":0,"Pronaret":0,"Kufizimet":0,"Siperfaqe":93}}
]}