{"type":"FeatureCollection", "features": [
{"type":"Feature","geometry":{"type":"Polygon","coordinates":[[[20.127826252948434,40.40721204270191],[20.127925004531672,40.40712213453002],[20.12802431279278,40.40718587392723],[20.127925561248972,40.407275782182886],[20.127826252948434,40.40721204270191]]]},"properties":{"Zk_Numer":3067,"Zk_Emer":"PSAR","Nr_Pas":"","Vol":"","Faqe":"","Pronaret":"","Kufizimet":"","Siperfaqe":143.49}},
{"type":"Feature","geometry":{"type":"Polygon","coordinates":[[[20.122368426789826,40.40680877772022],[20.122236195329098,40.40677847817295],[20.122272486721446,40.40668592628957],[20.122404626408304,40.40671645942233],[20.122368426789826,40.40680877772022]]]},"properties":{"Zk_Numer":3067,"Zk_Emer":"PSAR","Nr_Pas":"","Vol":"","Faqe":"","Pronaret":"","Kufizimet":"","Siperfaqe":125.56}},
{"type":"Feature","geometry":{"type":"Polygon","coordinates":[[[20.102358966150785,40.40131899757759],[20.102361612586595,40.401320788019305],[20.102306185726455,40.40136867039079],[20.102328239367157,40.40138359074638],[20.102297012934415,40.40141056672437],[20.102274959291787,40.40139564636289],[20.102234364889448,40.40143071511387],[20.10222907201607,40.40142713422466],[20.102195550497644,40.40140445525387],[20.102190257628365,40.40140087436286],[20.102230852035696,40.40136580562719],[20.102215855577505,40.40135565977317],[20.102274405131784,40.401305079848036],[20.10228940158753,40.40131522569453],[20.102299550167597,40.40130645850317],[20.102288964433978,40.401299296730265],[20.102284553712305,40.40129631265795],[20.102322806030518,40.40126326708727],[20.102379263291343,40.40130146318178],[20.102358966150785,40.40131899757759]]]},"properties":{"Zk_Numer":3067,"Zk_Emer":"PSAR","Nr_Pas":"","Vol":"","Faqe":"","Pronaret":"","Kufizimet":"","Siperfaqe":124.8}},
{"type":"Feature","geometry":{"type":"Polygon","coordinates":[[[20.123659048720267,40.405578802723106],[20.123658899304825,40.405625901975505],[20.123612749372167,40.40562581641014],[20.123612898819772,40.405578717157745],[20.123659048720267,40.405578802723106]]]},"properties":{"Zk_Numer":3067,"Zk_Emer":"PSAR","Nr_Pas":"","Vol":"","Faqe":"","Pronaret":"","Kufizimet":"","Siperfaqe":20.49}},
{"type":"Feature","geometry":{"type":"Polygon","coordinates":[[[20.12339315624823,40.40560069145141],[20.12335158635295,40.40570837913533],[20.123290761942037,40.40569441333966],[20.1233322450426,40.40558695074973],[20.12339315624823,40.40560069145141]]]},"properties":{"Zk_Numer":3067,"Zk_Emer":"PSAR","Nr_Pas":"","Vol":"","Faqe":"","Pronaret":"","Kufizimet":"","Siperfaqe":67.14}},
{"type":"Feature","geometry":{"type":"Polygon","coordinates":[[[20.122984958805006,40.40556763194636],[20.122955023648565,40.40552819240038],[20.123025577754994,40.405496897612295],[20.123055512938652,40.40553633714018],[20.122984958805006,40.40556763194636]]]},"properties":{"Zk_Numer":3067,"Zk_Emer":"PSAR","Nr_Pas":"","Vol":"","Faqe":"","Pronaret":"","Kufizimet":"","Siperfaqe":35.06}},
{"type":"Feature","geometry":{"type":"Polygon","coordinates":[[[20.123191361767837,40.40555156039875],[20.123175815052928,40.40559222807128],[20.123112005252292,40.40557797276131],[20.123127552002362,40.4055373050972],[20.123191361767837,40.40555156039875]]]},"properties":{"Zk_Numer":3067,"Zk_Emer":"PSAR","Nr_Pas":"","Vol":"","Faqe":"","Pronaret":"","Kufizimet":"","Siperfaqe":26.55}},
{"type":"Feature","geometry":{"type":"Polygon","coordinates":[[[20.12319289815235,40.405556477003834],[20.12325075087791,40.40556915259671],[20.123210457498047,40.40567662289563],[20.123152604687927,40.405663947282946],[20.12319289815235,40.405556477003834]]]},"properties":{"Zk_Numer":3067,"Zk_Emer":"PSAR","Nr_Pas":"","Vol":"","Faqe":"","Pronaret":"","Kufizimet":"","Siperfaqe":63.42}},
{"type":"Feature","geometry":{"type":"Polygon","coordinates":[[[20.124607310590672,40.40504939354638],[20.12458584942626,40.40502537976385],[20.12462589956283,40.40500458778628],[20.124647284445665,40.40502851619845],[20.12468735359043,40.40500758905617],[20.124732918998443,40.40505937931131],[20.124690619322394,40.40508112320729],[20.124704940178095,40.40509740396149],[20.12467439167446,40.40511310722077],[20.12471022637215,40.40515384609889],[20.12465966722525,40.40517983567211],[20.12456456531727,40.40507171830746],[20.124607310590672,40.40504939354638]]]},"properties":{"Zk_Numer":3067,"Zk_Emer":"PSAR","Nr_Pas":"","Vol":"","Faqe":"","Pronaret":"","Kufizimet":"","Siperfaqe":146.42}},
{"type":"Feature","geometry":{"type":"Polygon","coordinates":[[[20.12433279457557,40.40503099244191],[20.124384956096062,40.40501080890805],[20.124418316514124,40.40506118616114],[20.124366151546493,40.405081371032594],[20.12433279457557,40.40503099244191]]]},"properties":{"Zk_Numer":3067,"Zk_Emer":"PSAR","Nr_Pas":"","Vol":"","Faqe":"","Pronaret":"","Kufizimet":"","Siperfaqe":31.12}},
{"type":"Feature","geometry":{"type":"Polygon","coordinates":[[[20.124437939491276,40.40525189951876],[20.124422448780134,40.40525808835605],[20.12439977025876,40.40522491565859],[20.124413621130838,40.40521938196946],[20.12438844114645,40.40518255025846],[20.124448009523874,40.40515875152298],[20.124519611492463,40.40526348616278],[20.124461682882853,40.405286629789025],[20.124437939491276,40.40525189951876]]]},"properties":{"Zk_Numer":3067,"Zk_Emer":"PSAR","Nr_Pas":"","Vol":"","Faqe":"","Pronaret":"","Kufizimet":"","Siperfaqe":79.7}},
{"type":"Feature","geometry":{"type":"Polygon","coordinates":[[[20.124273372066735,40.40535094215307],[20.124135894732373,40.40543319432432],[20.124097397987963,40.40539559239384],[20.124235620986727,40.40531216165167],[20.12425280076457,40.405329308610035],[20.124273372066735,40.40535094215307]]]},"properties":{"Zk_Numer":3067,"Zk_Emer":"PSAR","Nr_Pas":"","Vol":"","Faqe":"","Pronaret":"","Kufizimet":"","Siperfaqe":79.48}},
{"type":"Feature","geometry":{"type":"Polygon","coordinates":[[[20.124264771523368,40.405533321345416],[20.124251415360874,40.40556239012871],[20.124151208260923,40.40553523792637],[20.12418505629754,40.40546223734081],[20.124322476958437,40.40549947292971],[20.1243022954384,40.405543396745074],[20.124264771523368,40.405533321345416]]]},"properties":{"Zk_Numer":3067,"Zk_Emer":"PSAR","Nr_Pas":"","Vol":"","Faqe":"","Pronaret":"","Kufizimet":"","Siperfaqe":94.98}},
{"type":"Feature","geometry":{"type":"Polygon","coordinates":[[[20.12425280076457,40.405329308610035],[20.124302190050088,40.405300390749424],[20.124390064542137,40.40538620688054],[20.124340088428486,40.40541610750884],[20.124273372066735,40.40535094215307],[20.12425280076457,40.405329308610035]]]},"properties":{"Zk_Numer":3067,"Zk_Emer":"PSAR","Nr_Pas":"","Vol":"","Faqe":"","Pronaret":"","Kufizimet":"","Siperfaqe":65.18}},
{"type":"Feature","geometry":{"type":"Polygon","coordinates":[[[20.124302190050088,40.405300390749424],[20.12425280076457,40.405329308610035],[20.124235620986727,40.40531216165167],[20.12420636191067,40.405282958444765],[20.124255760778478,40.405254034985106],[20.124302190050088,40.405300390749424]]]},"properties":{"Zk_Numer":3067,"Zk_Emer":"PSAR","Nr_Pas":"","Vol":"","Faqe":"","Pronaret":"","Kufizimet":"","Siperfaqe":34.24}},
{"type":"Feature","geometry":{"type":"Polygon","coordinates":[[[20.104933054576225,40.39866497473042],[20.104763482817784,40.39863587838009],[20.104813711486777,40.39846477630515],[20.10498328283725,40.398493872583195],[20.104933054576225,40.39866497473042]]]},"properties":{"Zk_Numer":3067,"Zk_Emer":"PSAR","Nr_Pas":"","Vol":"","Faqe":"","Pronaret":"","Kufizimet":"","Siperfaqe":287.29}},
{"type":"Feature","geometry":{"type":"Polygon","coordinates":[[[20.103960004145343,40.39784232182933],[20.103950160068127,40.397843228333684],[20.103945228749872,40.39781192660069],[20.104002391586125,40.397806662676345],[20.104007322930467,40.39783796440686],[20.103960004145343,40.39784232182933]]]},"properties":{"Zk_Numer":3067,"Zk_Emer":"PSAR","Nr_Pas":"","Vol":"","Faqe":"","Pronaret":"","Kufizimet":"","Siperfaqe":17.11}},
{"type":"Feature","geometry":{"type":"Polygon","coordinates":[[[20.104007322930467,40.39783796440686],[20.10406983744758,40.3978322076317],[20.104075712171465,40.3978694972107],[20.10396587880954,40.39787961141392],[20.103960004145343,40.39784232182933],[20.104007322930467,40.39783796440686]]]},"properties":{"Zk_Numer":3067,"Zk_Emer":"PSAR","Nr_Pas":"","Vol":"","Faqe":"","Pronaret":"","Kufizimet":"","Siperfaqe":39.17}},
{"type":"Feature","geometry":{"type":"Polygon","coordinates":[[[20.104007322930467,40.39783796440686],[20.104002391586125,40.397806662676345],[20.10399580638138,40.39776486301321],[20.104058320831868,40.3977591062443],[20.10406280937069,40.397787597134695],[20.104116745922283,40.397782630250866],[20.10412429688818,40.39782719259614],[20.10406983744758,40.3978322076317],[20.104007322930467,40.39783796440686]]]},"properties":{"Zk_Numer":3067,"Zk_Emer":"PSAR","Nr_Pas":"","Vol":"","Faqe":"","Pronaret":"","Kufizimet":"","Siperfaqe":66.83}},
{"type":"Feature","geometry":{"type":"Polygon","coordinates":[[[20.103853534212714,40.39786408312763],[20.103920266495418,40.3978609855019],[20.103929570800084,40.397978147579465],[20.10386283840217,40.39798124521063],[20.103853534212714,40.39786408312763]]]},"properties":{"Zk_Numer":3067,"Zk_Emer":"PSAR","Nr_Pas":"","Vol":"","Faqe":"","Pronaret":"","Kufizimet":"","Siperfaqe":73.98}},
{"type":"Feature","geometry":{"type":"Polygon","coordinates":[[[20.103853534212714,40.39786408312763],[20.103843885915097,40.397742587458644],[20.10391061807833,40.39773948983858],[20.103920266495418,40.3978609855019],[20.103853534212714,40.39786408312763]]]},"properties":{"Zk_Numer":3067,"Zk_Emer":"PSAR","Nr_Pas":"","Vol":"","Faqe":"","Pronaret":"","Kufizimet":"","Siperfaqe":76.71}},
{"type":"Feature","geometry":{"type":"Polygon","coordinates":[[[20.104434273702193,40.39903036957826],[20.10441319341157,40.39907351922908],[20.104316772684644,40.39904598615871],[20.104337853028312,40.39900283652521],[20.104434273702193,40.39903036957826]]]},"properties":{"Zk_Numer":3067,"Zk_Emer":"PSAR","Nr_Pas":"","Vol":"","Faqe":"","Pronaret":"","Kufizimet":"","Siperfaqe":44.69}},
{"type":"Feature","geometry":{"type":"Polygon","coordinates":[[[20.102799253342177,40.39981745680957],[20.10280761515505,40.39983964811223],[20.102785276070733,40.399847418978446],[20.102771764011887,40.39985872676765],[20.102760832404208,40.399866283152775],[20.10274768696604,40.39986655599574],[20.102728458021126,40.39986333107422],[20.10271234667879,40.39984975597729],[20.10270875546726,40.39983525118957],[20.102714777203705,40.399821359247596],[20.1027372240376,40.399810478585565],[20.102761799082444,40.39981255504702],[20.102772777711838,40.399820434171595],[20.102799253342177,40.39981745680957]]]},"properties":{"Zk_Numer":3067,"Zk_Emer":"PSAR","Nr_Pas":"","Vol":"","Faqe":"","Pronaret":"","Kufizimet":"","Siperfaqe":36.07}},
{"type":"Feature","geometry":{"type":"Polygon","coordinates":[[[20.102565484731794,40.399629341767714],[20.102586258541276,40.399581616074556],[20.102705191714005,40.399611874249125],[20.102684417979294,40.39965959996329],[20.102565484731794,40.399629341767714]]]},"properties":{"Zk_Numer":3067,"Zk_Emer":"PSAR","Nr_Pas":"","Vol":"","Faqe":"","Pronaret":"","Kufizimet":"","Siperfaqe":59.43}},
{"type":"Feature","geometry":{"type":"Polygon","coordinates":[[[20.103527474690523,40.3990638494254],[20.10358712254523,40.39908098035185],[20.103529195833612,40.39919887016199],[20.103469547889436,40.39918173920612],[20.103527474690523,40.3990638494254]]]},"properties":{"Zk_Numer":3067,"Zk_Emer":"PSAR","Nr_Pas":"","Vol":"","Faqe":"","Pronaret":"","Kufizimet":"","Siperfaqe":75.64}},
{"type":"Feature","geometry":{"type":"Polygon","coordinates":[[[20.102032298023694,40.40101346365966],[20.101965458135112,40.4010096715353],[20.101970051475565,40.400962352215046],[20.1020368913176,40.400966144336856],[20.102032298023694,40.40101346365966]]]},"properties":{"Zk_Numer":3067,"Zk_Emer":"PSAR","Nr_Pas":"","Vol":"","Faqe":"","Pronaret":"","Kufizimet":"","Siperfaqe":29.98}},
{"type":"Feature","geometry":{"type":"Polygon","coordinates":[[[20.102138612222472,40.4010531475815],[20.102080321313824,40.401050938482754],[20.10208294872053,40.4010104185728],[20.102068126235604,40.40100985682812],[20.102070566676446,40.40097222039303],[20.102090519202907,40.400972976556346],[20.102093227628366,40.40093120702846],[20.102146388387222,40.400933221704626],[20.102138612222472,40.4010531475815]]]},"properties":{"Zk_Numer":3067,"Zk_Emer":"PSAR","Nr_Pas":"","Vol":"","Faqe":"","Pronaret":"","Kufizimet":"","Siperfaqe":69.31}},
{"type":"Feature","geometry":{"type":"Polygon","coordinates":[[[20.10243524006443,40.40088037337284],[20.10243513751273,40.40081271316311],[20.102484562476917,40.40081266936846],[20.102484665078094,40.40088032957809],[20.10250805268378,40.40088030884732],[20.102508161648732,40.40095214899059],[20.102435348951982,40.40095221351628],[20.10243524006443,40.40088037337284]]]},"properties":{"Zk_Numer":3067,"Zk_Emer":"PSAR","Nr_Pas":"","Vol":"","Faqe":"","Pronaret":"","Kufizimet":"","Siperfaqe":80.83}},
{"type":"Feature","geometry":{"type":"Polygon","coordinates":[[[20.10262289997976,40.40113788010353],[20.10260962347726,40.40116152108154],[20.102572441495656,40.4011493169211],[20.102585718008783,40.401125675947306],[20.102501231055847,40.40109794492033],[20.10252522030435,40.40105522824173],[20.102646889165424,40.401095163400065],[20.10262289997976,40.40113788010353]]]},"properties":{"Zk_Numer":3067,"Zk_Emer":"PSAR","Nr_Pas":"","Vol":"","Faqe":"","Pronaret":"","Kufizimet":"","Siperfaqe":67.84}},
{"type":"Feature","geometry":{"type":"Polygon","coordinates":[[[20.10242451339433,40.40119258892785],[20.102371977266067,40.401170049480264],[20.10240337303138,40.40112727917227],[20.10238393865798,40.40111894128192],[20.10240995699979,40.40108349657967],[20.10242772509451,40.401091119588834],[20.102456188346096,40.401052344130626],[20.102506510471112,40.40107393370056],[20.10242451339433,40.40119258892785]]]},"properties":{"Zk_Numer":3067,"Zk_Emer":"PSAR","Nr_Pas":"","Vol":"","Faqe":"","Pronaret":"","Kufizimet":"","Siperfaqe":82.71}},
{"type":"Feature","geometry":{"type":"Polygon","coordinates":[[[20.103471616968342,40.39931586356027],[20.103410259184724,40.39929840712557],[20.10346477139471,40.399186414594816],[20.103526129090614,40.39920387100105],[20.103471616968342,40.39931586356027]]]},"properties":{"Zk_Numer":3067,"Zk_Emer":"PSAR","Nr_Pas":"","Vol":"","Faqe":"","Pronaret":"","Kufizimet":"","Siperfaqe":73.75}},
{"type":"Feature","geometry":{"type":"Polygon","coordinates":[[[20.103369556838597,40.398871714401764],[20.10331218978363,40.39886344863491],[20.103342593078338,40.39874011355614],[20.10344421150075,40.398754755286845],[20.103424169843745,40.39883605752764],[20.103379918323885,40.39882968154153],[20.103369556838597,40.398871714401764]]]},"properties":{"Zk_Numer":3067,"Zk_Emer":"PSAR","Nr_Pas":"","Vol":"","Faqe":"","Pronaret":"","Kufizimet":"","Siperfaqe":104.19}},
{"type":"Feature","geometry":{"type":"Polygon","coordinates":[[[20.103949581736778,40.39867396335596],[20.103896048266172,40.39866332012264],[20.10393520649332,40.398548196568754],[20.104029939968356,40.39856703094202],[20.104015789420405,40.398608633180814],[20.103974589307207,40.39860044201813],[20.103949581736778,40.39867396335596]]]},"properties":{"Zk_Numer":3067,"Zk_Emer":"PSAR","Nr_Pas":"","Vol":"","Faqe":"","Pronaret":"","Kufizimet":"","Siperfaqe":79.28}},
{"type":"Feature","geometry":{"type":"Polygon","coordinates":[[[20.104680648190477,40.397876812768466],[20.104625134435295,40.397845858813305],[20.10466079539351,40.39780847555346],[20.10462109655623,40.39778633982235],[20.10465270716167,40.39775320250978],[20.10469653032756,40.39777763792332],[20.10471830729029,40.39775480915247],[20.104769696672296,40.39778346337302],[20.104680648190477,40.397876812768466]]]},"properties":{"Zk_Numer":3067,"Zk_Emer":"PSAR","Nr_Pas":"","Vol":"","Faqe":"","Pronaret":"","Kufizimet":"","Siperfaqe":92.48}},
{"type":"Feature","geometry":{"type":"Polygon","coordinates":[[[20.10453174424154,40.398992298916866],[20.104476470974113,40.39897863490253],[20.104506450714165,40.39890775065676],[20.10440711436048,40.39888296953095],[20.104425037479587,40.39884097560756],[20.104579452498246,40.39887949698681],[20.10453174424154,40.398992298916866]]]},"properties":{"Zk_Numer":3067,"Zk_Emer":"PSAR","Nr_Pas":"","Vol":"","Faqe":"","Pronaret":"","Kufizimet":"","Siperfaqe":108.43}},
{"type":"Feature","geometry":{"type":"Polygon","coordinates":[[[20.10439487638401,40.39873782597692],[20.104336407716087,40.39874258116206],[20.1043197794403,40.39862307418082],[20.104378248006036,40.398618319004086],[20.10439487638401,40.39873782597692]]]},"properties":{"Zk_Numer":3067,"Zk_Emer":"PSAR","Nr_Pas":"","Vol":"","Faqe":"","Pronaret":"","Kufizimet":"","Siperfaqe":66.62}},
{"type":"Feature","geometry":{"type":"Polygon","coordinates":[[[20.10437853035545,40.39825959968799],[20.10431715477324,40.39823672144343],[20.104376836574687,40.39814313568315],[20.10443821209199,40.39816601389646],[20.10437853035545,40.39825959968799]]]},"properties":{"Zk_Numer":3067,"Zk_Emer":"PSAR","Nr_Pas":"","Vol":"","Faqe":"","Pronaret":"","Kufizimet":"","Siperfaqe":67.02}},
{"type":"Feature","geometry":{"type":"Polygon","coordinates":[[[20.10437270135118,40.397661994627676],[20.104326521633823,40.39763532576222],[20.10441113468471,40.39754968372392],[20.10438539410205,40.39753481848683],[20.104412611403387,40.397507270144345],[20.104438351981525,40.39752213537546],[20.10447134832422,40.397488737650136],[20.10451752799833,40.39751540645849],[20.10437270135118,40.397661994627676]]]},"properties":{"Zk_Numer":3067,"Zk_Emer":"PSAR","Nr_Pas":"","Vol":"","Faqe":"","Pronaret":"","Kufizimet":"","Siperfaqe":110.73}},
{"type":"Feature","geometry":{"type":"Polygon","coordinates":[[[20.10409012253745,40.39795681304804],[20.104025850286064,40.39796092339502],[20.10401705281841,40.39788051462171],[20.104081324993892,40.39787640427966],[20.10409012253745,40.39795681304804]]]},"properties":{"Zk_Numer":3067,"Zk_Emer":"PSAR","Nr_Pas":"","Vol":"","Faqe":"","Pronaret":"","Kufizimet":"","Siperfaqe":49.06}},
{"type":"Feature","geometry":{"type":"Polygon","coordinates":[[[20.10353100902279,40.39793718753108],[20.103480290356888,40.39796936482381],[20.10344625235214,40.397938004450396],[20.10349697101078,40.39790582717244],[20.10353100902279,40.39793718753108]]]},"properties":{"Zk_Numer":3067,"Zk_Emer":"PSAR","Nr_Pas":"","Vol":"","Faqe":"","Pronaret":"","Kufizimet":"","Siperfaqe":25.32}},
{"type":"Feature","geometry":{"type":"Polygon","coordinates":[[[20.101683368703085,40.40107300066351],[20.101570142234436,40.40109619045957],[20.10154684905155,40.40102971841625],[20.101601100322675,40.40101860728602],[20.101608574188123,40.40103993551411],[20.10166754929963,40.40102785686718],[20.101683368703085,40.40107300066351]]]},"properties":{"Zk_Numer":3067,"Zk_Emer":"PSAR","Nr_Pas":"","Vol":"","Faqe":"","Pronaret":"","Kufizimet":"","Siperfaqe":63.33}},
{"type":"Feature","geometry":{"type":"Polygon","coordinates":[[[20.102851528240297,40.40011624931408],[20.102796657953697,40.40009205510583],[20.10286975278352,40.399995164115886],[20.102924623017465,40.400019358289924],[20.102851528240297,40.40011624931408]]]},"properties":{"Zk_Numer":3067,"Zk_Emer":"PSAR","Nr_Pas":"","Vol":"","Faqe":"","Pronaret":"","Kufizimet":"","Siperfaqe":66.79}},
{"type":"Feature","geometry":{"type":"Polygon","coordinates":[[[20.102959413462994,40.399202204069766],[20.102889855771938,40.39917669937752],[20.102955293990146,40.399072386182674],[20.103024851598377,40.39909789083613],[20.102959413462994,40.399202204069766]]]},"properties":{"Zk_Numer":3067,"Zk_Emer":"PSAR","Nr_Pas":"","Vol":"","Faqe":"","Pronaret":"","Kufizimet":"","Siperfaqe":84.13}},
{"type":"Feature","geometry":{"type":"Polygon","coordinates":[[[20.10279469110647,40.39811895556575],[20.10272918153875,40.398063105365736],[20.102830058745493,40.397993942938264],[20.102895568329306,40.39804979308178],[20.10279469110647,40.39811895556575]]]},"properties":{"Zk_Numer":3067,"Zk_Emer":"PSAR","Nr_Pas":"","Vol":"","Faqe":"","Pronaret":"","Kufizimet":"","Siperfaqe":95.82}},
{"type":"Feature","geometry":{"type":"Polygon","coordinates":[[[20.103254694881652,40.398099129702466],[20.103213534219435,40.39813482852774],[20.103125042413446,40.398075189786574],[20.103166203086218,40.39803949099241],[20.103254694881652,40.398099129702466]]]},"properties":{"Zk_Numer":3067,"Zk_Emer":"PSAR","Nr_Pas":"","Vol":"","Faqe":"","Pronaret":"","Kufizimet":"","Siperfaqe":52.92}},
{"type":"Feature","geometry":{"type":"Polygon","coordinates":[[[20.103262966119175,40.398092917474976],[20.103171091123365,40.39802897475769],[20.10321618180541,40.39799110520826],[20.103260494047706,40.3980219454396],[20.1033121506827,40.39797856135649],[20.103359713421934,40.39801166378606],[20.103262966119175,40.398092917474976]]]},"properties":{"Zk_Numer":3067,"Zk_Emer":"PSAR","Nr_Pas":"","Vol":"","Faqe":"","Pronaret":"","Kufizimet":"","Siperfaqe":95.55}},
{"type":"Feature","geometry":{"type":"Polygon","coordinates":[[[20.102017665822196,40.39976808743322],[20.101979311254524,40.39973401266932],[20.10202420834944,40.39970447489751],[20.102063680963866,40.39973954292948],[20.102086940004607,40.399724240797674],[20.102121228787833,40.39975470339038],[20.102097969744403,40.399770005529014],[20.102136222098757,40.39980398937455],[20.102090004564722,40.3998346824371],[20.10205141177233,40.399800716210144],[20.10203512457649,40.399811532521134],[20.101999409026973,40.39978009855988],[20.102017665822196,40.39976808743322]]]},"properties":{"Zk_Numer":3067,"Zk_Emer":"PSAR","Nr_Pas":"","Vol":"","Faqe":"","Pronaret":"","Kufizimet":"","Siperfaqe":95.29}},
{"type":"Feature","geometry":{"type":"Polygon","coordinates":[[[20.101987297897086,40.40000411451765],[20.10202844447854,40.39996682150467],[20.10213787625539,40.40003739162306],[20.10209672969152,40.40007468467449],[20.102065225063726,40.40005436805893],[20.10203674330404,40.40008018236357],[20.101992763204837,40.400051820558694],[20.10202124496941,40.40002600626476],[20.101987297897086,40.40000411451765]]]},"properties":{"Zk_Numer":3067,"Zk_Emer":"PSAR","Nr_Pas":"","Vol":"","Faqe":"","Pronaret":"","Kufizimet":"","Siperfaqe":84.16}},
{"type":"Feature","geometry":{"type":"Polygon","coordinates":[[[20.121159525543938,40.405281408527046],[20.12125525066166,40.405240217911],[20.12130840371543,40.405312404788205],[20.121205203134995,40.405356812112736],[20.121203745873487,40.40535483301201],[20.121152050156308,40.405284625188536],[20.121159525543938,40.405281408527046]]]},"properties":{"Zk_Numer":3067,"Zk_Emer":"PSAR","Nr_Pas":"","Vol":"","Faqe":"","Pronaret":"","Kufizimet":"","Siperfaqe":92.47}},
{"type":"Feature","geometry":{"type":"Polygon","coordinates":[[[20.121159525543938,40.405281408527046],[20.121152050156308,40.405284625188536],[20.12120374587349,40.40535483301201],[20.12117337042686,40.40536790357165],[20.12109022853172,40.405254185152174],[20.12112763006145,40.4052380912741],[20.121159525543938,40.405281408527046]]]},"properties":{"Zk_Numer":3067,"Zk_Emer":"PSAR","Nr_Pas":"","Vol":"","Faqe":"","Pronaret":"","Kufizimet":"","Siperfaqe":46.51}},
{"type":"Feature","geometry":{"type":"Polygon","coordinates":[[[20.121284493963348,40.4054658306317],[20.121232717841853,40.405392930862334],[20.121337426506766,40.405349495267814],[20.121348742821286,40.40536543728248],[20.121373414078427,40.40535520304738],[20.121402442695132,40.40539609745218],[20.121378789443668,40.40540590939573],[20.121389813572776,40.405421439759756],[20.121284493963348,40.4054658306317]]]},"properties":{"Zk_Numer":3067,"Zk_Emer":"PSAR","Nr_Pas":"","Vol":"","Faqe":"","Pronaret":"","Kufizimet":"","Siperfaqe":105.3}},
{"type":"Feature","geometry":{"type":"Polygon","coordinates":[[[20.121303592441738,40.40550070479584],[20.121269045277792,40.40551580069258],[20.1212485570799,40.40548840023918],[20.12128310423444,40.40547330434848],[20.121303592441738,40.40550070479584]]]},"properties":{"Zk_Numer":3067,"Zk_Emer":"PSAR","Nr_Pas":"","Vol":"","Faqe":"","Pronaret":"","Kufizimet":"","Siperfaqe":11.84}},
{"type":"Feature","geometry":{"type":"Polygon","coordinates":[[[20.100712902059062,40.403488527327596],[20.100615263879824,40.4034638635579],[20.100645924426622,40.40339292759878],[20.100743562514456,40.403417591343],[20.100712902059062,40.403488527327596]]]},"properties":{"Zk_Numer":3067,"Zk_Emer":"PSAR","Nr_Pas":"","Vol":"","Faqe":"","Pronaret":"","Kufizimet":"","Siperfaqe":72.42}},
{"type":"Feature","geometry":{"type":"Polygon","coordinates":[[[20.100949132068962,40.403423449109106],[20.10088950850789,40.40343073511569],[20.10086859095789,40.40333069643466],[20.100928214432997,40.403323410438844],[20.100935612569174,40.40335879208674],[20.10096248339004,40.40335550845861],[20.1009681785073,40.40338274532675],[20.100941307675892,40.40338602895621],[20.100949132068962,40.403423449109106]]]},"properties":{"Zk_Numer":3067,"Zk_Emer":"PSAR","Nr_Pas":"","Vol":"","Faqe":"","Pronaret":"","Kufizimet":"","Siperfaqe":64.74}},
{"type":"Feature","geometry":{"type":"Polygon","coordinates":[[[20.10088038892774,40.40332137732917],[20.100863704143176,40.403284811861305],[20.10092747168927,40.4032678067865],[20.10094415650411,40.40330437224524],[20.10088038892774,40.40332137732917]]]},"properties":{"Zk_Numer":3067,"Zk_Emer":"PSAR","Nr_Pas":"","Vol":"","Faqe":"","Pronaret":"","Kufizimet":"","Siperfaqe":24.65}},
{"type":"Feature","geometry":{"type":"Polygon","coordinates":[[[20.10233093547632,40.40655806161613],[20.10228164429809,40.40654175112715],[20.102369219499334,40.40638709370114],[20.102418510585743,40.40640340415333],[20.10233093547632,40.40655806161613]]]},"properties":{"Zk_Numer":3067,"Zk_Emer":"PSAR","Nr_Pas":"","Vol":"","Faqe":"","Pronaret":"","Kufizimet":"","Siperfaqe":85.32}},
{"type":"Feature","geometry":{"type":"Polygon","coordinates":[[[20.102431591909415,40.406616446158395],[20.102375644017823,40.406597159739505],[20.102410719025393,40.406537700974376],[20.102466666877703,40.40655698737654],[20.102431591909415,40.406616446158395]]]},"properties":{"Zk_Numer":3067,"Zk_Emer":"PSAR","Nr_Pas":"","Vol":"","Faqe":"","Pronaret":"","Kufizimet":"","Siperfaqe":37.73}},
{"type":"Feature","geometry":{"type":"Polygon","coordinates":[[[20.10258643183303,40.40673326672544],[20.102557869629884,40.406754783839915],[20.102440152010995,40.406663470512676],[20.10252139972292,40.40660226320326],[20.102552916629797,40.40662671082009],[20.102500231119542,40.40666640105793],[20.10258643183303,40.40673326672544]]]},"properties":{"Zk_Numer":3067,"Zk_Emer":"PSAR","Nr_Pas":"","Vol":"","Faqe":"","Pronaret":"","Kufizimet":"","Siperfaqe":72.39}},
{"type":"Feature","geometry":{"type":"Polygon","coordinates":[[[20.10007514658197,40.4052764139517],[20.099988318699015,40.405185304327006],[20.10004353692822,40.40515455175673],[20.100130364845924,40.40524566134041],[20.10007514658197,40.4052764139517]]]},"properties":{"Zk_Numer":3067,"Zk_Emer":"PSAR","Nr_Pas":"","Vol":"","Faqe":"","Pronaret":"","Kufizimet":"","Siperfaqe":72.59}},
{"type":"Feature","geometry":{"type":"Polygon","coordinates":[[[20.099676252016227,40.40538244038767],[20.099687898449393,40.40533350988017],[20.099800012859202,40.40534910451259],[20.09978893732387,40.40539563681596],[20.099766596033483,40.405392529247735],[20.099761270046052,40.40541490558026],[20.099741069653426,40.40541209579686],[20.099735712080975,40.405434604785604],[20.09967467024527,40.40542611411896],[20.099684783028007,40.40538362701882],[20.099676252016227,40.40538244038767]]]},"properties":{"Zk_Numer":3067,"Zk_Emer":"PSAR","Nr_Pas":"","Vol":"","Faqe":"","Pronaret":"","Kufizimet":"","Siperfaqe":82.09}},
{"type":"Feature","geometry":{"type":"Polygon","coordinates":[[[20.099676252016227,40.40538244038767],[20.099612007403977,40.40537350418596],[20.09963490138846,40.40527731932086],[20.09961214736236,40.40527477247942],[20.099616504597783,40.40524977828457],[20.09963474532405,40.405252002991745],[20.099636557059565,40.405243322028795],[20.09970731094819,40.40525195140896],[20.09968789844939,40.40533350988017],[20.099676252016227,40.40538244038767]]]},"properties":{"Zk_Numer":3067,"Zk_Emer":"PSAR","Nr_Pas":"","Vol":"","Faqe":"","Pronaret":"","Kufizimet":"","Siperfaqe":87.44}},
{"type":"Feature","geometry":{"type":"Polygon","coordinates":[[[20.099874956849973,40.40542254770932],[20.099827953410795,40.40539888565427],[20.099880047842078,40.405338411445356],[20.099927051257332,40.4053620734795],[20.099874956849973,40.40542254770932]]]},"properties":{"Zk_Numer":3067,"Zk_Emer":"PSAR","Nr_Pas":"","Vol":"","Faqe":"","Pronaret":"","Kufizimet":"","Siperfaqe":38.41}},
{"type":"Feature","geometry":{"type":"Polygon","coordinates":[[[20.102141963764545,40.40129558805121],[20.102106719556406,40.40125701229771],[20.10223589044296,40.40118803693344],[20.10227113468869,40.40122661264799],[20.102141963764545,40.40129558805121]]]},"properties":{"Zk_Numer":3067,"Zk_Emer":"PSAR","Nr_Pas":"","Vol":"","Faqe":"","Pronaret":"","Kufizimet":"","Siperfaqe":69.89}},
{"type":"Feature","geometry":{"type":"Polygon","coordinates":[[[20.10429794704085,40.398985745887316],[20.104353625611317,40.398875547992674],[20.10440502143208,40.398890726455626],[20.10434934293301,40.39900092437465],[20.10429794704085,40.398985745887316]]]},"properties":{"Zk_Numer":3067,"Zk_Emer":"PSAR","Nr_Pas":"","Vol":"","Faqe":"","Pronaret":"","Kufizimet":"","Siperfaqe":61.36}},
{"type":"Feature","geometry":{"type":"Polygon","coordinates":[[[20.129754109657892,40.40677144456125],[20.129658712080673,40.40671860644136],[20.129743729910057,40.406628908086844],[20.12983912742674,40.40668174613751],[20.129790743358306,40.406732794028734],[20.129754109657892,40.40677144456125]]]},"properties":{"Zk_Numer":3067,"Zk_Emer":"PSAR","Nr_Pas":"","Vol":"","Faqe":"","Pronaret":"","Kufizimet":"","Siperfaqe":123}},
{"type":"Feature","geometry":{"type":"Polygon","coordinates":[[[20.123917538756842,40.405673958112445],[20.12389329144781,40.405653663991856],[20.12386223210002,40.405675350193576],[20.12385701843218,40.405670986538254],[20.123829582619486,40.40569014270228],[20.12379567122405,40.4056617600363],[20.1239345497705,40.40556479246211],[20.1239970801578,40.40562249610768],[20.123917538756842,40.405673958112445]]]},"properties":{"Zk_Numer":3067,"Zk_Emer":"PSAR","Nr_Pas":"","Vol":"","Faqe":"","Pronaret":"","Kufizimet":"","Siperfaqe":104.7}},
{"type":"Feature","geometry":{"type":"Polygon","coordinates":[[[20.102396310991082,40.40353080049925],[20.10242327032746,40.4034910619873],[20.102484848966085,40.40351547679587],[20.10245788965624,40.40355521532197],[20.102396310991082,40.40353080049925]]]},"properties":{"Zk_Numer":3067,"Zk_Emer":"PSAR","Nr_Pas":"","Vol":"","Faqe":"","Pronaret":"","Kufizimet":"","Siperfaqe":29.27}},
{"type":"Feature","geometry":{"type":"Polygon","coordinates":[[[20.10242319779295,40.40376144832868],[20.102431206049417,40.40371765228434],[20.102508843308346,40.403725948786196],[20.102500835101235,40.40376974483577],[20.10242319779295,40.40376144832868]]]},"properties":{"Zk_Numer":3067,"Zk_Emer":"PSAR","Nr_Pas":"","Vol":"","Faqe":"","Pronaret":"","Kufizimet":"","Siperfaqe":32.68}},
{"type":"Feature","geometry":{"type":"Polygon","coordinates":[[[20.10268437242413,40.403567373822106],[20.10276701150303,40.40359253415575],[20.102745765743062,40.40363762902597],[20.102639245732277,40.40360829970324],[20.102651645411147,40.403581981046],[20.102617073544756,40.40357246196871],[20.102639308852755,40.403525266916226],[20.10269135470472,40.40353959730474],[20.10268437242413,40.403567373822106]]]},"properties":{"Zk_Numer":3067,"Zk_Emer":"PSAR","Nr_Pas":"","Vol":"","Faqe":"","Pronaret":"","Kufizimet":"","Siperfaqe":75.64}},
{"type":"Feature","geometry":{"type":"Polygon","coordinates":[[[20.10250954865391,40.403605804329686],[20.102517449360565,40.403569759940304],[20.102600601245975,40.4035804117697],[20.102592700582452,40.40361645616465],[20.10250954865391,40.403605804329686]]]},"properties":{"Zk_Numer":3067,"Zk_Emer":"PSAR","Nr_Pas":"","Vol":"","Faqe":"","Pronaret":"","Kufizimet":"","Siperfaqe":29.05}},
{"type":"Feature","geometry":{"type":"Polygon","coordinates":[[[20.102580159526887,40.40365120916416],[20.102596999481147,40.403606204084866],[20.10264819654869,40.40361739971479],[20.102631356625768,40.40366240480143],[20.102580159526887,40.40365120916416]]]},"properties":{"Zk_Numer":3067,"Zk_Emer":"PSAR","Nr_Pas":"","Vol":"","Faqe":"","Pronaret":"","Kufizimet":"","Siperfaqe":23.5}}
]}