{"type":"FeatureCollection", "features": [
{"type":"Feature","geometry":{"type":"Polygon","coordinates":[[[19.461695114638673,42.00115519661273],[19.461309394139867,42.00124998681732],[19.461287045178576,42.00119938953536],[19.461495926564137,42.001148057463496],[19.46148953045467,42.001133576982966],[19.46166636925798,42.001090118932474],[19.461695114638673,42.00115519661273]]]},"properties":{"NR_PASURIS":"","SIPERFAQJA":225}},
{"type":"Feature","geometry":{"type":"Polygon","coordinates":[[[19.461695114638673,42.00115519661273],[19.461717463908993,42.00120579381741],[19.4613317431362,42.001300584094686],[19.461309394139867,42.00124998681732],[19.461695114638673,42.00115519661273]]]},"properties":{"NR_PASURIS":"","SIPERFAQJA":199}},
{"type":"Feature","geometry":{"type":"Polygon","coordinates":[[[19.459916899993797,42.00069661763052],[19.459886983273947,42.00071920940255],[19.45984321418793,42.0007522618202],[19.459790026768626,42.000713075241535],[19.459907803422062,42.00062413562171],[19.45996099084069,42.00066332214642],[19.459916899993797,42.00069661763052]]]},"properties":{"NR_PASURIS":"","SIPERFAQJA":86}},
{"type":"Feature","geometry":{"type":"Polygon","coordinates":[[[19.458005351115133,41.99888528108499],[19.457940961515092,41.998824937943965],[19.457994796035255,41.99879297561177],[19.458059185654637,41.99885331872302],[19.458005351115133,41.99888528108499]]]},"properties":{"NR_PASURIS":"","SIPERFAQJA":49}},
{"type":"Feature","geometry":{"type":"Polygon","coordinates":[[[19.461181397228398,41.99791177029035],[19.46129888004867,41.997884578243124],[19.461337790996907,41.997978119960415],[19.461220866130205,41.99800518286883],[19.461181397228398,41.99791177029035]]]},"properties":{"NR_PASURIS":"","SIPERFAQJA":111}},
{"type":"Feature","geometry":{"type":"Polygon","coordinates":[[[19.46495476646402,42.0070368683425],[19.464917321549358,42.00700201125689],[19.465052973692295,42.006920951257285],[19.465090418634382,42.0069558082993],[19.46495476646402,42.0070368683425]]]},"properties":{"NR_PASURIS":"","SIPERFAQJA":71}},
{"type":"Feature","geometry":{"type":"Polygon","coordinates":[[[19.46581290759757,42.00920139196578],[19.465773129899823,42.009125222145876],[19.465908109468067,42.00908601424139],[19.465948036354725,42.009162469430855],[19.46581290759757,42.00920139196578]]]},"properties":{"NR_PASURIS":"","SIPERFAQJA":109}},
{"type":"Feature","geometry":{"type":"Polygon","coordinates":[[[19.46581290759757,42.00920139196578],[19.465948036354725,42.009162469430855],[19.465977434366284,42.00921876296462],[19.465842454558278,42.00925797094836],[19.46581290759757,42.00920139196578]]]},"properties":{"NR_PASURIS":"","SIPERFAQJA":81}},
{"type":"Feature","geometry":{"type":"Polygon","coordinates":[[[19.464382573434367,42.0070154267832],[19.464270806622153,42.006924521495726],[19.464350876966304,42.00686976020276],[19.464462643798285,42.006960665413224],[19.464382573434367,42.0070154267832]]]},"properties":{"NR_PASURIS":"","SIPERFAQJA":123}},
{"type":"Feature","geometry":{"type":"Polygon","coordinates":[[[19.464236058547677,42.00683030035285],[19.464271580783613,42.00681163184659],[19.464233339755513,42.00677115557702],[19.464284649598557,42.006744189953906],[19.46431819831872,42.006726558572346],[19.464361306421424,42.00677218633488],[19.46432775768893,42.00678981772882],[19.464356959978605,42.00682072685748],[19.464270127857677,42.006866361029005],[19.464236058547677,42.00683030035285]]]},"properties":{"NR_PASURIS":"","SIPERFAQJA":93}},
{"type":"Feature","geometry":{"type":"Polygon","coordinates":[[[19.464384249080865,42.00658249492884],[19.464327194046387,42.00651889355372],[19.4643723399105,42.00649636520444],[19.4643622713823,42.006485141433316],[19.464432498211956,42.00645009730464],[19.46445263528578,42.00647254483393],[19.464507813466092,42.006445010121304],[19.464554800052046,42.00649738765371],[19.464384249080865,42.00658249492884]]]},"properties":{"NR_PASURIS":"","SIPERFAQJA":147}},
{"type":"Feature","geometry":{"type":"Polygon","coordinates":[[[19.46474914616776,42.0061985728624],[19.464660511568027,42.00624847305779],[19.46455869990279,42.00614787537962],[19.46464733444081,42.006097975261646],[19.46474914616776,42.0061985728624]]]},"properties":{"NR_PASURIS":"","SIPERFAQJA":129}},
{"type":"Feature","geometry":{"type":"Polygon","coordinates":[[[19.464085494164202,42.006107147081316],[19.46395623912962,42.00617854420578],[19.463910261446163,42.00613224175422],[19.464040742450774,42.006060167461534],[19.464085494164202,42.006107147081316]]]},"properties":{"NR_PASURIS":"","SIPERFAQJA":86}},
{"type":"Feature","geometry":{"type":"Polygon","coordinates":[[[19.464085494164202,42.006107147081316],[19.46404074245077,42.006060167461534],[19.464043834076968,42.00605845972433],[19.464156675054024,42.00599612906229],[19.4641925357222,42.00597632043617],[19.4643132275319,42.0060978640401],[19.464179365557577,42.006171806335054],[19.46412907729698,42.006121163124426],[19.464174667987386,42.00609597991654],[19.46415024228139,42.00607138178728],[19.464085494164202,42.006107147081316]]]},"properties":{"NR_PASURIS":"","SIPERFAQJA":228}},
{"type":"Feature","geometry":{"type":"Polygon","coordinates":[[[19.463496437389082,42.00634780754541],[19.463614857872745,42.00627662580577],[19.463704237238307,42.00635934025097],[19.463585816698963,42.0064305220815],[19.463496437389082,42.00634780754541]]]},"properties":{"NR_PASURIS":"","SIPERFAQJA":149}},
{"type":"Feature","geometry":{"type":"Polygon","coordinates":[[[19.46392055008934,42.006440192950244],[19.463830903159113,42.00634086210657],[19.463951065998284,42.00628053560977],[19.464013751489347,42.006349992458375],[19.463983710782564,42.00636507411067],[19.46401067231808,42.006394948020436],[19.46392055008934,42.006440192950244]]]},"properties":{"NR_PASURIS":"","SIPERFAQJA":148}},
{"type":"Feature","geometry":{"type":"Polygon","coordinates":[[[19.4640888496213,42.00625828275796],[19.464237651792306,42.00640006928551],[19.464199630932594,42.006422265708146],[19.46405082879529,42.00628047913204],[19.4640888496213,42.00625828275796]]]},"properties":{"NR_PASURIS":"","SIPERFAQJA":80}},
{"type":"Feature","geometry":{"type":"Polygon","coordinates":[[[19.464123256732634,42.00596728990999],[19.464017318939455,42.006035577806465],[19.463924182099714,42.00595520280404],[19.463973497980565,42.00592341366278],[19.464029537925352,42.005971774878304],[19.464086159813565,42.005935276180644],[19.464123256732634,42.00596728990999]]]},"properties":{"NR_PASURIS":"","SIPERFAQJA":93}},
{"type":"Feature","geometry":{"type":"Polygon","coordinates":[[[19.46406968900846,42.005511252766],[19.46416306102469,42.00559501917786],[19.464038683689765,42.005672142329374],[19.463945311726025,42.00558837581775],[19.46406968900846,42.005511252766]]]},"properties":{"NR_PASURIS":"","SIPERFAQJA":162}},
{"type":"Feature","geometry":{"type":"Polygon","coordinates":[[[19.463730266970018,42.005001463222264],[19.463772865609563,42.005034697355995],[19.46366467668776,42.00511184065698],[19.46354289648162,42.00501683126779],[19.463651085387188,42.00493968808021],[19.463730266970018,42.005001463222264]]]},"properties":{"NR_PASURIS":"","SIPERFAQJA":181}},
{"type":"Feature","geometry":{"type":"Polygon","coordinates":[[[19.462860868382354,42.00518024267402],[19.4628514320361,42.00517462873634],[19.462836378227287,42.00518870492589],[19.46279485832031,42.005164003585556],[19.46284604125407,42.00511614455109],[19.462896997494614,42.0051464598078],[19.462860868382354,42.00518024267402]]]},"properties":{"NR_PASURIS":"","SIPERFAQJA":35}},
{"type":"Feature","geometry":{"type":"Polygon","coordinates":[[[19.462896997494614,42.0051464598078],[19.46294366420793,42.00510282358814],[19.463028591362804,42.00515334893171],[19.462945795573404,42.005230768078384],[19.462860868382354,42.00518024267402],[19.462896997494614,42.0051464598078]]]},"properties":{"NR_PASURIS":"","SIPERFAQJA":99}},
{"type":"Feature","geometry":{"type":"Polygon","coordinates":[[[19.46261113021415,42.00554401867474],[19.46253164570831,42.00562334516698],[19.46245719520737,42.00558184694043],[19.462536679752972,42.005502520499405],[19.46261113021415,42.00554401867474]]]},"properties":{"NR_PASURIS":"","SIPERFAQJA":85}},
{"type":"Feature","geometry":{"type":"Polygon","coordinates":[[[19.462536679752972,42.005502520499405],[19.46245642806577,42.00545778864623],[19.462499783212408,42.005414519684365],[19.462654485315724,42.005500749654814],[19.46261113021415,42.00554401867474],[19.462536679752972,42.005502520499405]]]},"properties":{"NR_PASURIS":"","SIPERFAQJA":96}},
{"type":"Feature","geometry":{"type":"Polygon","coordinates":[[[19.46211799380923,42.00476242351334],[19.462216757777725,42.0048389691884],[19.46214109114436,42.00489328042787],[19.46204232718392,42.004816734688475],[19.46211799380923,42.00476242351334]]]},"properties":{"NR_PASURIS":"","SIPERFAQJA":103}},
{"type":"Feature","geometry":{"type":"Polygon","coordinates":[[[19.46111153798869,42.003904535196405],[19.46106114602883,42.00393677058492],[19.4609892456942,42.00387424181954],[19.461039637640354,42.00384200646218],[19.46111153798869,42.003904535196405]]]},"properties":{"NR_PASURIS":"","SIPERFAQJA":50}},
{"type":"Feature","geometry":{"type":"Polygon","coordinates":[[[19.4609892456942,42.00387424181954],[19.460917345500217,42.00381171300929],[19.460967737432664,42.003779477683054],[19.461039637640354,42.00384200646218],[19.4609892456942,42.00387424181954]]]},"properties":{"NR_PASURIS":"","SIPERFAQJA":50}},
{"type":"Feature","geometry":{"type":"Polygon","coordinates":[[[19.461039637640354,42.00384200646218],[19.460967737432664,42.003779477683054],[19.461018129314294,42.00374724233423],[19.46109002953569,42.00380977108221],[19.461039637640354,42.00384200646218]]]},"properties":{"NR_PASURIS":"","SIPERFAQJA":50}},
{"type":"Feature","geometry":{"type":"Polygon","coordinates":[[[19.460256354425255,42.00371417840367],[19.46034879123208,42.00365912704021],[19.460390214420226,42.00369782096874],[19.460347768957817,42.00372309968055],[19.46040802094327,42.0037793817537],[19.460358029561345,42.00380915446406],[19.460256354425255,42.00371417840367]]]},"properties":{"NR_PASURIS":"","SIPERFAQJA":96}},
{"type":"Feature","geometry":{"type":"Polygon","coordinates":[[[19.460215487169872,42.00360097611915],[19.460166439072676,42.0036301869994],[19.460068530224802,42.00353872840942],[19.460117578295673,42.0035095175704],[19.460215487169872,42.00360097611915]]]},"properties":{"NR_PASURIS":"","SIPERFAQJA":68}},
{"type":"Feature","geometry":{"type":"Polygon","coordinates":[[[19.46010622931264,42.00328598991644],[19.459987521194922,42.0033588532596],[19.45990688692213,42.00328592366658],[19.459962759843027,42.00325155635145],[19.45999731737509,42.00328281188163],[19.460059098066974,42.00324481062165],[19.46010622931264,42.00328598991644]]]},"properties":{"NR_PASURIS":"","SIPERFAQJA":103}},
{"type":"Feature","geometry":{"type":"Polygon","coordinates":[[[19.460301235823067,42.00316203116238],[19.460244541795525,42.00311172154149],[19.46029074079971,42.003082758127405],[19.46024647291371,42.00304347527091],[19.460322239175685,42.00299597525954],[19.460423201132983,42.00308556764868],[19.460301235823067,42.00316203116238]]]},"properties":{"NR_PASURIS":"","SIPERFAQJA":143}},
{"type":"Feature","geometry":{"type":"Polygon","coordinates":[[[19.45954247408131,42.00247619009373],[19.459616975232166,42.002433257237755],[19.459708480805663,42.00252159771823],[19.459633979612022,42.00256453063268],[19.459621512369754,42.00255249462584],[19.459577895547095,42.00251038644002],[19.45954247408131,42.00247619009373]]]},"properties":{"NR_PASURIS":"","SIPERFAQJA":97}},
{"type":"Feature","geometry":{"type":"Polygon","coordinates":[[[19.45954247408131,42.00247619009373],[19.459577895547103,42.00251038644002],[19.459468053899975,42.002573684825045],[19.459432632458604,42.00253948844537],[19.459476569133763,42.002514169117575],[19.45954247408131,42.00247619009373]]]},"properties":{"NR_PASURIS":"","SIPERFAQJA":55}},
{"type":"Feature","geometry":{"type":"Polygon","coordinates":[[[19.45899161814145,42.002711987532386],[19.459098216067975,42.002652949617755],[19.45918888138915,42.00274402367803],[19.45908228339265,42.0028030616755],[19.459029755080756,42.00275029650606],[19.45899161814145,42.002711987532386]]]},"properties":{"NR_PASURIS":"","SIPERFAQJA":139}},
{"type":"Feature","geometry":{"type":"Polygon","coordinates":[[[19.459029755080756,42.00275029650606],[19.45898323954745,42.00277605848881],[19.459014180860954,42.00280713935729],[19.458896922761646,42.00287208096808],[19.45882784458032,42.002802691041275],[19.45899161814145,42.002711987532386],[19.459029755080756,42.00275029650606]]]},"properties":{"NR_PASURIS":"","SIPERFAQJA":142}},
{"type":"Feature","geometry":{"type":"Polygon","coordinates":[[[19.45880301487258,42.00282219870669],[19.458758522320352,42.0028469723106],[19.458800400921135,42.00288881551042],[19.45875881001357,42.00291197344357],[19.458680829237718,42.00283405847972],[19.458766912663055,42.00278612698424],[19.45880301487258,42.00282219870669]]]},"properties":{"NR_PASURIS":"","SIPERFAQJA":69}},
{"type":"Feature","geometry":{"type":"Polygon","coordinates":[[[19.459318670310548,42.00109289683371],[19.459475514146334,42.000971768138314],[19.459525867881553,42.001008043431824],[19.459369024050726,42.00112917219526],[19.459318670310548,42.00109289683371]]]},"properties":{"NR_PASURIS":"","SIPERFAQJA":108}},
{"type":"Feature","geometry":{"type":"Polygon","coordinates":[[[19.459318670310548,42.00109289683371],[19.459369024050726,42.00112917219526],[19.459195078634934,42.001263507529295],[19.459144724889256,42.00122723209226],[19.459318670310548,42.00109289683371]]]},"properties":{"NR_PASURIS":"","SIPERFAQJA":120}},
{"type":"Feature","geometry":{"type":"Polygon","coordinates":[[[19.458480669906784,42.0018656122383],[19.458610275830903,42.001792949167196],[19.458650162633983,42.00183253029662],[19.45852055667397,42.00190519341206],[19.458480669906784,42.0018656122383]]]},"properties":{"NR_PASURIS":"","SIPERFAQJA":74}},
{"type":"Feature","geometry":{"type":"Polygon","coordinates":[[[19.458480669906784,42.0018656122383],[19.45852055667397,42.00190519341206],[19.458425356633533,42.00195856677239],[19.458344132776997,42.00187796502856],[19.458398163454067,42.001847673078586],[19.458439500585285,42.001888693596975],[19.458480669906784,42.0018656122383]]]},"properties":{"NR_PASURIS":"","SIPERFAQJA":86}},
{"type":"Feature","geometry":{"type":"Polygon","coordinates":[[[19.458108419151767,42.00182036731475],[19.45815392486472,42.00178812531015],[19.45826032808078,42.00187167535241],[19.458214822361125,42.00190391739869],[19.458108419151767,42.00182036731475]]]},"properties":{"NR_PASURIS":"","SIPERFAQJA":67}},
{"type":"Feature","geometry":{"type":"Polygon","coordinates":[[[19.45769588987796,42.001784641057434],[19.457808382811056,42.001715169868774],[19.45790844927989,42.00180531818971],[19.4577959562948,42.00187478947507],[19.45769588987796,42.001784641057434]]]},"properties":{"NR_PASURIS":"","SIPERFAQJA":157}},
{"type":"Feature","geometry":{"type":"Polygon","coordinates":[[[19.457415493260797,42.00162013749885],[19.45732935002564,42.00154957984371],[19.457436438562386,42.00147683995638],[19.457522581819426,42.00154739753217],[19.457415493260797,42.00162013749885]]]},"properties":{"NR_PASURIS":"","SIPERFAQJA":127}},
{"type":"Feature","geometry":{"type":"Polygon","coordinates":[[[19.46167222080365,42.00134356099301],[19.461645657327637,42.00135764239627],[19.461680617596926,42.00139433417256],[19.46163142592953,42.001420410843494],[19.461624433875322,42.00141307248614],[19.46156048465153,42.00144697212248],[19.46147797857681,42.001360379428355],[19.461591119387545,42.001300403204006],[19.461619786754152,42.00133049047496],[19.461646350224452,42.001316409077596],[19.46167222080365,42.00134356099301]]]},"properties":{"NR_PASURIS":"","SIPERFAQJA":151}},
{"type":"Feature","geometry":{"type":"Polygon","coordinates":[[[19.45963719797982,41.99995561985135],[19.45953893210454,42.00001093736664],[19.45944441333563,41.99991751878219],[19.459542679147354,41.99986220134653],[19.45963719797982,41.99995561985135]]]},"properties":{"NR_PASURIS":"","SIPERFAQJA":133}},
{"type":"Feature","geometry":{"type":"Polygon","coordinates":[[[19.462319808568925,41.99802556267511],[19.46227289506852,41.9979290804699],[19.462390893003413,41.997897155710014],[19.462437806659622,41.997993637868404],[19.462319808568925,41.99802556267511]]]},"properties":{"NR_PASURIS":"","SIPERFAQJA":119}},
{"type":"Feature","geometry":{"type":"Polygon","coordinates":[[[19.461365689032622,41.998137971014955],[19.46149935821458,41.998110091003],[19.46153705940907,41.99821066625069],[19.461403390032167,41.99823854630492],[19.461365689032622,41.998137971014955]]]},"properties":{"NR_PASURIS":"","SIPERFAQJA":133}},
{"type":"Feature","geometry":{"type":"Polygon","coordinates":[[[19.457201223651126,41.99316656317942],[19.457266463330996,41.99323134406292],[19.457218219588135,41.993258381966605],[19.457183484068047,41.993277849244485],[19.45711824442581,41.99321306831457],[19.457201223651126,41.99316656317942]]]},"properties":{"NR_PASURIS":"","SIPERFAQJA":77}},
{"type":"Feature","geometry":{"type":"Polygon","coordinates":[[[19.45711824442581,41.99321306831457],[19.457092148605877,41.99318715593223],[19.457106621732624,41.99317904457909],[19.457084875229963,41.99315745092532],[19.457105137598194,41.99314609503156],[19.45708774040417,41.99312882010861],[19.457135984103267,41.9931017822589],[19.457201223651126,41.99316656317942],[19.45711824442581,41.99321306831457]]]},"properties":{"NR_PASURIS":"","SIPERFAQJA":64}},
{"type":"Feature","geometry":{"type":"Polygon","coordinates":[[[19.45759833945603,41.993232875902166],[19.457541685068453,41.99328899103695],[19.457500175457067,41.99326566886135],[19.457458853314687,41.993306597581046],[19.45737118676072,41.99325734200357],[19.457469163362063,41.99316029824381],[19.45759833945603,41.993232875902166]]]},"properties":{"NR_PASURIS":"","SIPERFAQJA":156}},
{"type":"Feature","geometry":{"type":"Polygon","coordinates":[[[19.45649354740326,41.99335497331467],[19.456434896987304,41.99325915669381],[19.45648759120223,41.99324120690447],[19.456496113055856,41.993255128975676],[19.45654441606878,41.993238674977164],[19.456574493258387,41.993287811681526],[19.45656351529633,41.993291551231266],[19.456583566777116,41.99332430903156],[19.45649354740326,41.99335497331467]]]},"properties":{"NR_PASURIS":"","SIPERFAQJA":96}},
{"type":"Feature","geometry":{"type":"Polygon","coordinates":[[[19.453993326742633,41.995608343176016],[19.454007803262716,41.995623861511945],[19.454059315689527,41.99559712125955],[19.45408413260871,41.995623724105954],[19.45403262017059,41.995650464369284],[19.454038135041802,41.99565637611464],[19.453740947044537,41.9958106464199],[19.453696138863087,41.995762613367255],[19.453993326742633,41.995608343176016]]]},"properties":{"NR_PASURIS":"","SIPERFAQJA":214}},
{"type":"Feature","geometry":{"type":"Polygon","coordinates":[[[19.452168273093992,41.99770134295568],[19.452485797154374,41.99807136901531],[19.452428872548897,41.99809854887911],[19.45220504387124,41.99783771081971],[19.452173532092573,41.997852756743114],[19.452079836940197,41.99774356856311],[19.452168273093992,41.99770134295568]]]},"properties":{"NR_PASURIS":"","SIPERFAQJA":318}},
{"type":"Feature","geometry":{"type":"Polygon","coordinates":[[[19.453200529122768,41.998087098489165],[19.453083805980505,41.99818096492669],[19.45297408247809,41.99810504656378],[19.453218673465983,41.997908351147444],[19.453328396926175,41.99798426927889],[19.453200529122768,41.998087098489165]]]},"properties":{"NR_PASURIS":"","SIPERFAQJA":370}},
{"type":"Feature","geometry":{"type":"Polygon","coordinates":[[[19.45366825443991,41.9989527166652],[19.453718503246524,41.99891636178142],[19.45375799792856,41.99894673491617],[19.453774898112975,41.99893450765603],[19.453796746251417,41.998951309806706],[19.453818594401355,41.99896811195324],[19.45380169421627,41.99898033921971],[19.453841188977407,41.999010712325976],[19.453790940165273,41.99904706726285],[19.45366825443991,41.9989527166652]]]},"properties":{"NR_PASURIS":"","SIPERFAQJA":95}},
{"type":"Feature","geometry":{"type":"Polygon","coordinates":[[[19.454285978632466,41.99878726703322],[19.454351888170386,41.998837407791314],[19.454298457183274,41.99887648652121],[19.45423254764761,41.9988263457328],[19.454285978632466,41.99878726703322]]]},"properties":{"NR_PASURIS":"","SIPERFAQJA":48}},
{"type":"Feature","geometry":{"type":"Polygon","coordinates":[[[19.4534276716509,41.999392916316694],[19.453528661445525,41.9994894388395],[19.453366909798113,41.999583601349336],[19.45326592010207,41.99948707868638],[19.4534276716509,41.999392916316694]]]},"properties":{"NR_PASURIS":"","SIPERFAQJA":231}},
{"type":"Feature","geometry":{"type":"Polygon","coordinates":[[[19.45400625549152,41.999490936568],[19.45404573225163,41.999527330707814],[19.45391624783407,41.999605476792254],[19.453809964422604,41.99950749242069],[19.453855002492023,41.99948031123192],[19.45392180918534,41.99954190139396],[19.453974094481165,41.99951034631851],[19.45400625549152,41.999490936568]]]},"properties":{"NR_PASURIS":"","SIPERFAQJA":114}},
{"type":"Feature","geometry":{"type":"Polygon","coordinates":[[[19.4543495622249,41.99961254876063],[19.454425106634343,41.99955432638644],[19.454537852737392,41.999635720395794],[19.454462308332875,41.999693942843386],[19.4543495622249,41.99961254876063]]]},"properties":{"NR_PASURIS":"","SIPERFAQJA":117}},
{"type":"Feature","geometry":{"type":"Polygon","coordinates":[[[19.45388828902843,41.99987757235906],[19.453772002320477,41.999941974177425],[19.45373746646737,41.99990727830102],[19.453853753146227,41.99984287651706],[19.45388828902843,41.99987757235906]]]},"properties":{"NR_PASURIS":"","SIPERFAQJA":58}},
{"type":"Feature","geometry":{"type":"Polygon","coordinates":[[[19.45500592154325,42.00015851611948],[19.454912926034496,42.000075692893056],[19.45503506609617,41.999999390027405],[19.455128061654296,42.00008221315627],[19.45500592154325,42.00015851611948]]]},"properties":{"NR_PASURIS":"","SIPERFAQJA":158}},
{"type":"Feature","geometry":{"type":"Polygon","coordinates":[[[19.45528542257276,42.00008964804116],[19.45541081918361,42.00000516552791],[19.45545774161932,42.00004391554818],[19.455332344993376,42.00012839811204],[19.45528542257276,42.00008964804116]]]},"properties":{"NR_PASURIS":"","SIPERFAQJA":81}},
{"type":"Feature","geometry":{"type":"Polygon","coordinates":[[[19.45575958991191,42.00047983141536],[19.455600787777453,42.000576749296485],[19.455547285869788,42.00052797520917],[19.455706087962604,42.000431057400995],[19.45575958991191,42.00047983141536]]]},"properties":{"NR_PASURIS":"","SIPERFAQJA":119}},
{"type":"Feature","geometry":{"type":"Polygon","coordinates":[[[19.454548521158927,42.000683075230995],[19.454599145012768,42.000652455042484],[19.454632594136054,42.0006832228289],[19.454722591994184,42.00062878685612],[19.454783408692382,42.00068472821405],[19.454642786927987,42.000769784463266],[19.454548521158927,42.000683075230995]]]},"properties":{"NR_PASURIS":"","SIPERFAQJA":144}},
{"type":"Feature","geometry":{"type":"Polygon","coordinates":[[[19.455398779442323,41.9996520229082],[19.45532828428207,41.99959699712677],[19.45537714927473,41.99956216579526],[19.45549055416643,41.99965068512427],[19.455441689166875,41.99968551650347],[19.455398779442323,41.9996520229082]]]},"properties":{"NR_PASURIS":"","SIPERFAQJA":76}},
{"type":"Feature","geometry":{"type":"Polygon","coordinates":[[[19.45522806670853,41.99941332688776],[19.45527911512189,41.99937527089495],[19.455318362113243,41.99940456277523],[19.455258604027843,41.99944911173929],[19.455219357036952,41.99941981983881],[19.45522806670853,41.99941332688776]]]},"properties":{"NR_PASURIS":"","SIPERFAQJA":32}},
{"type":"Feature","geometry":{"type":"Polygon","coordinates":[[[19.455182435661733,41.99948315292616],[19.455064935997317,41.99957107458867],[19.45502048709987,41.99953802373709],[19.45516363926002,41.99943090704608],[19.455173864395945,41.99942325584686],[19.45519437926632,41.99943851006108],[19.45518415413038,41.99944616126211],[19.455208088158173,41.99946395784287],[19.455182435661733,41.99948315292616]]]},"properties":{"NR_PASURIS":"","SIPERFAQJA":90}},
{"type":"Feature","geometry":{"type":"Polygon","coordinates":[[[19.45653234851464,41.99846278532048],[19.456405984324476,41.99839340999359],[19.456480388448576,41.998318003001565],[19.45660675257209,41.99838737824706],[19.45653234851464,41.99846278532048]]]},"properties":{"NR_PASURIS":"","SIPERFAQJA":135}},
{"type":"Feature","geometry":{"type":"Polygon","coordinates":[[[19.456825660643098,41.99846400266987],[19.456748701540494,41.99855974703662],[19.45661755077187,41.99850109097136],[19.456694509998538,41.998405346692294],[19.456825660643098,41.99846400266987]]]},"properties":{"NR_PASURIS":"","SIPERFAQJA":157}},
{"type":"Feature","geometry":{"type":"Polygon","coordinates":[[[19.4560564806895,41.99859486349123],[19.456114226309907,41.998627459046006],[19.456047222595174,41.99869350588665],[19.455950979885955,41.998639179890155],[19.455980111970888,41.998610463901755],[19.456018609027687,41.998632194300264],[19.4560564806895,41.99859486349123]]]},"properties":{"NR_PASURIS":"","SIPERFAQJA":71}},
{"type":"Feature","geometry":{"type":"Polygon","coordinates":[[[19.45610281329386,41.998704340216264],[19.456186952889848,41.998635745573054],[19.45622532794749,41.998661936499275],[19.45614118835762,41.99873053117036],[19.45610281329386,41.998704340216264]]]},"properties":{"NR_PASURIS":"","SIPERFAQJA":45}},
{"type":"Feature","geometry":{"type":"Polygon","coordinates":[[[19.456146917198613,41.99897767846622],[19.456154933448463,41.99898308318116],[19.456078048477828,41.9990465325229],[19.45597955621453,41.99898012692535],[19.456056441201675,41.998916677648964],[19.45609229875479,41.998940853586774],[19.456146917198613,41.99897767846622]]]},"properties":{"NR_PASURIS":"","SIPERFAQJA":104}},
{"type":"Feature","geometry":{"type":"Polygon","coordinates":[[[19.456811369823807,41.998214559502784],[19.456880945967203,41.99817387167857],[19.4569128593352,41.99820423621461],[19.456843283178657,41.99824492405788],[19.45681621596139,41.99821917045296],[19.456811369823807,41.998214559502784]]]},"properties":{"NR_PASURIS":"","SIPERFAQJA":31}},
{"type":"Feature","geometry":{"type":"Polygon","coordinates":[[[19.456880945967203,41.99817387167857],[19.456811369823804,41.998214559502784],[19.45677945649924,41.99818419493883],[19.45684903262949,41.99814350713369],[19.456880945967203,41.99817387167857]]]},"properties":{"NR_PASURIS":"","SIPERFAQJA":31}},
{"type":"Feature","geometry":{"type":"Polygon","coordinates":[[[19.45714506429864,41.99872671510637],[19.457251132424034,41.99880800400389],[19.457175886156552,41.99886263373236],[19.457069818037663,41.998781344766144],[19.45714506429864,41.99872671510637]]]},"properties":{"NR_PASURIS":"","SIPERFAQJA":110}},
{"type":"Feature","geometry":{"type":"Polygon","coordinates":[[[19.45714506429864,41.99872671510637],[19.457069818037667,41.998781344766144],[19.456968801032534,41.99870392661233],[19.457075183630952,41.99862669165387],[19.457176200644845,41.99870410971512],[19.45714506429864,41.99872671510637]]]},"properties":{"NR_PASURIS":"","SIPERFAQJA":148}},
{"type":"Feature","geometry":{"type":"Polygon","coordinates":[[[19.45726198453813,41.99919955046755],[19.457365796918186,41.999124217437135],[19.457513079154715,41.99923714448949],[19.457409266762035,41.99931247765154],[19.45726198453813,41.99919955046755]]]},"properties":{"NR_PASURIS":"","SIPERFAQJA":210}},
{"type":"Feature","geometry":{"type":"Polygon","coordinates":[[[19.456833265996647,41.99989892418978],[19.45669540595815,41.99995093495618],[19.456643654994323,41.99987461472426],[19.456781514908915,41.999822604018625],[19.456833265996647,41.99989892418978]]]},"properties":{"NR_PASURIS":"","SIPERFAQJA":122}},
{"type":"Feature","geometry":{"type":"Polygon","coordinates":[[[19.460117578295673,42.0035095175704],[19.46017277444991,42.00347664515024],[19.460270683353745,42.003568103652626],[19.460215487169872,42.00360097611915],[19.460117578295673,42.0035095175704]]]},"properties":{"NR_PASURIS":"","SIPERFAQJA":76}},
{"type":"Feature","geometry":{"type":"Polygon","coordinates":[[[19.456795926475756,41.99931024995077],[19.45688156227353,41.99938826754566],[19.456772300166147,41.999454996523355],[19.4566866644141,41.99937697884811],[19.456795926475756,41.99931024995077]]]},"properties":{"NR_PASURIS":"","SIPERFAQJA":131}},
{"type":"Feature","geometry":{"type":"Polygon","coordinates":[[[19.45672177761758,41.99965665061346],[19.45663187180783,41.99955854341058],[19.45676140470935,41.99949249734817],[19.456851310627243,41.999590604451356],[19.45672177761758,41.99965665061346]]]},"properties":{"NR_PASURIS":"","SIPERFAQJA":172}},
{"type":"Feature","geometry":{"type":"Polygon","coordinates":[[[19.456212742965906,41.999202718927606],[19.45612064565073,41.99924757671033],[19.45608035724931,41.999267199913945],[19.455996850615364,41.999171807015465],[19.45604940065686,41.9991462115655],[19.45607117680069,41.999171087317265],[19.45610351527426,41.999155336252976],[19.456125951326495,41.99918096580486],[19.456173448441863,41.99915783140331],[19.456212742965906,41.999202718927606]]]},"properties":{"NR_PASURIS":"","SIPERFAQJA":124}},
{"type":"Feature","geometry":{"type":"Polygon","coordinates":[[[19.456212742965906,41.999202718927606],[19.456234838348664,41.9992279592311],[19.45614274101224,41.99927281703125],[19.45612064565073,41.99924757671033],[19.456212742965906,41.999202718927606]]]},"properties":{"NR_PASURIS":"","SIPERFAQJA":31}},
{"type":"Feature","geometry":{"type":"Polygon","coordinates":[[[19.4554754398719,41.99899434645982],[19.455535395975875,41.999033467769465],[19.4555036099734,41.999060572381346],[19.455443653863796,41.999021451055235],[19.4554754398719,41.99899434645982]]]},"properties":{"NR_PASURIS":"","SIPERFAQJA":26}},
{"type":"Feature","geometry":{"type":"Polygon","coordinates":[[[19.45711368589155,41.99838456306132],[19.45710468159484,41.998393324897066],[19.457085193956093,41.998412287776496],[19.457048751366084,41.998382418536366],[19.45703757564296,41.99838929019739],[19.456940079911863,41.9983010642508],[19.456988508005733,41.99827128708557],[19.45711368589155,41.99838456306132]]]},"properties":{"NR_PASURIS":"","SIPERFAQJA":82}},
{"type":"Feature","geometry":{"type":"Polygon","coordinates":[[[19.456820125275478,41.99288906601033],[19.456868958447995,41.992987899340115],[19.45681460541846,41.993002844676845],[19.456807510001575,41.99298848427657],[19.456757686378776,41.99300218414282],[19.456732643790573,41.992951500362985],[19.456743967335253,41.99294838676133],[19.456727272293097,41.99291459757326],[19.456820125275478,41.99288906601033]]]},"properties":{"NR_PASURIS":"","SIPERFAQJA":96}},
{"type":"Feature","geometry":{"type":"Polygon","coordinates":[[[19.463379898614356,42.005608893420415],[19.463437885862728,42.00564835520948],[19.4633646802833,42.00571208250473],[19.46330509865879,42.00567400861022],[19.463379898614356,42.005608893420415]]]},"properties":{"NR_PASURIS":"","SIPERFAQJA":61}},
{"type":"Feature","geometry":{"type":"Polygon","coordinates":[[[19.463379898614356,42.005608893420415],[19.463462169405183,42.00553727447418],[19.463521750997455,42.00557534828786],[19.463437885862728,42.00564835520948],[19.463379898614356,42.005608893420415]]]},"properties":{"NR_PASURIS":"","SIPERFAQJA":69}},
{"type":"Feature","geometry":{"type":"Polygon","coordinates":[[[19.46010622931264,42.00328598991644],[19.460059098066978,42.00324481062165],[19.460148173986155,42.00319001994742],[19.460194250780862,42.00323169391179],[19.46022507269483,42.0032594123807],[19.46016932894457,42.003293896199914],[19.460138507038465,42.00326617771627],[19.46010622931264,42.00328598991644]]]},"properties":{"NR_PASURIS":"","SIPERFAQJA":81}},
{"type":"Feature","geometry":{"type":"Polygon","coordinates":[[[19.457721226379704,42.00208993114654],[19.457759053979782,42.002121718785126],[19.457690302247382,42.00216723630284],[19.45765247465505,42.00213544864188],[19.457721226379704,42.00208993114654]]]},"properties":{"NR_PASURIS":"","SIPERFAQJA":36}},
{"type":"Feature","geometry":{"type":"Polygon","coordinates":[[[19.45676677846739,41.99892082723457],[19.456894006885328,41.99880364681407],[19.456954846189443,41.998840400596755],[19.456827617808486,41.99895758108416],[19.45676677846739,41.99892082723457]]]},"properties":{"NR_PASURIS":"","SIPERFAQJA":109}},
{"type":"Feature","geometry":{"type":"Polygon","coordinates":[[[19.457795489344367,41.999050365409936],[19.457704766868844,41.99911036719661],[19.45766915288206,41.99908040606029],[19.45775987534789,41.99902040430138],[19.457795489344367,41.999050365409936]]]},"properties":{"NR_PASURIS":"","SIPERFAQJA":45}},
{"type":"Feature","geometry":{"type":"Polygon","coordinates":[[[19.45550980987037,41.999922153321684],[19.455466586633015,41.99992770088329],[19.455448474241358,41.99984918329535],[19.455491697427004,41.99984363574019],[19.45550980987037,41.999922153321684]]]},"properties":{"NR_PASURIS":"","SIPERFAQJA":32}},
{"type":"Feature","geometry":{"type":"Polygon","coordinates":[[[19.458655596211077,41.998348038438664],[19.45864101689233,41.99835237335459],[19.458535735615424,41.99838367690401],[19.45848156696334,41.99828230835521],[19.458601427397785,41.99824666994487],[19.458655596211077,41.998348038438664]]]},"properties":{"NR_PASURIS":"","SIPERFAQJA":130}},
{"type":"Feature","geometry":{"type":"Polygon","coordinates":[[[19.458601427397785,41.99824666994487],[19.45871421250048,41.998213135109836],[19.45876838146544,41.99831450355188],[19.458655596211074,41.998348038438664],[19.458601427397785,41.99824666994487]]]},"properties":{"NR_PASURIS":"","SIPERFAQJA":122}},
{"type":"Feature","geometry":{"type":"Polygon","coordinates":[[[19.45239587934267,41.99818149178579],[19.45248126576062,41.998273174361024],[19.452377188496843,41.99832710746438],[19.45229180215782,41.99823542481307],[19.45239587934267,41.99818149178579]]]},"properties":{"NR_PASURIS":"","SIPERFAQJA":130}},
{"type":"Feature","geometry":{"type":"Polygon","coordinates":[[[19.45303351543469,41.99919294273168],[19.45298342093326,41.99914674392809],[19.45300688125955,41.99913258994558],[19.452996255161196,41.999122790198705],[19.453094788412795,41.99906334342786],[19.45318814643586,41.99914944109152],[19.45308961313663,41.99920888794133],[19.453056975767055,41.999178788739094],[19.45303351543469,41.99919294273168]]]},"properties":{"NR_PASURIS":"","SIPERFAQJA":146}},
{"type":"Feature","geometry":{"type":"Polygon","coordinates":[[[19.461039637640354,42.00384200646218],[19.461090029535686,42.00380977108221],[19.461161929897727,42.00387229978529],[19.46111153798869,42.003904535196405],[19.461039637640354,42.00384200646218]]]},"properties":{"NR_PASURIS":"","SIPERFAQJA":50}},
{"type":"Feature","geometry":{"type":"Polygon","coordinates":[[[19.463730266970018,42.005001463222264],[19.463651085387184,42.00493968808021],[19.463633924102513,42.00492629932772],[19.463697962593038,42.004880637093095],[19.46376263412372,42.00493109192338],[19.46374583608219,42.00494306967733],[19.46374060793561,42.004946797577944],[19.463772279279173,42.004971506595105],[19.463730266970018,42.005001463222264]]]},"properties":{"NR_PASURIS":"","SIPERFAQJA":75}},
{"type":"Feature","geometry":{"type":"Polygon","coordinates":[[[19.461442850398775,42.00206540897341],[19.461383227471746,42.0019554460226],[19.46159717155292,42.001890908087766],[19.461656794790404,42.00200087093046],[19.461442850398775,42.00206540897341]]]},"properties":{"NR_PASURIS":"","SIPERFAQJA":252}},
{"type":"Feature","geometry":{"type":"Polygon","coordinates":[[[19.461889618899605,42.001865832025764],[19.4618314398135,42.00178096664782],[19.461961581204573,42.001731330116485],[19.46201976041977,42.00181619542994],[19.461889618899605,42.001865832025764]]]},"properties":{"NR_PASURIS":"","SIPERFAQJA":128}},
{"type":"Feature","geometry":{"type":"Polygon","coordinates":[[[19.461117294355258,42.00171369234278],[19.461061073408615,42.00161000379431],[19.461199320501613,42.00156830001518],[19.46125554163742,42.001671988497776],[19.461117294355258,42.00171369234278]]]},"properties":{"NR_PASURIS":"","SIPERFAQJA":153}},
{"type":"Feature","geometry":{"type":"Polygon","coordinates":[[[19.461665991693323,42.00127242852134],[19.461707759280372,42.00125521134553],[19.461754128662538,42.001317795517345],[19.461714440222604,42.00133415564501],[19.46171236104682,42.00133501270962],[19.461665991693323,42.00127242852134]]]},"properties":{"NR_PASURIS":"","SIPERFAQJA":31}},
{"type":"Feature","geometry":{"type":"Polygon","coordinates":[[[19.461248610083047,42.00113181567605],[19.46114095080394,42.00101999397805],[19.461228086419666,42.0009733193865],[19.461335745774367,42.00108514100412],[19.461248610083047,42.00113181567605]]]},"properties":{"NR_PASURIS":"","SIPERFAQJA":136}},
{"type":"Feature","geometry":{"type":"Polygon","coordinates":[[[19.460914354795783,42.000838687496355],[19.460819801536797,42.000741422263374],[19.460948083117465,42.00067204025617],[19.461042636471312,42.000769305385205],[19.460914354795783,42.000838687496355]]]},"properties":{"NR_PASURIS":"","SIPERFAQJA":175}},
{"type":"Feature","geometry":{"type":"Polygon","coordinates":[[[19.46070290386986,42.00064565851808],[19.46077785857553,42.00061394272071],[19.46075755808131,42.00058724987466],[19.460796059075758,42.00057095881013],[19.460863278918403,42.00065934510553],[19.460749823131938,42.00070735201953],[19.46070290386986,42.00064565851808]]]},"properties":{"NR_PASURIS":"","SIPERFAQJA":98}},
{"type":"Feature","geometry":{"type":"Polygon","coordinates":[[[19.45959972993463,41.999858815723975],[19.459573456562506,41.999817622741894],[19.459621000045836,41.999800750999455],[19.45964727344191,41.99984194397089],[19.45959972993463,41.999858815723975]]]},"properties":{"NR_PASURIS":"","SIPERFAQJA":22}},
{"type":"Feature","geometry":{"type":"Polygon","coordinates":[[[19.45814206000774,41.998845892069994],[19.45826583175051,41.99878802093145],[19.458325974158118,41.99885959064225],[19.458202202329787,41.99891746184444],[19.45814206000774,41.998845892069994]]]},"properties":{"NR_PASURIS":"","SIPERFAQJA":114}},
{"type":"Feature","geometry":{"type":"Polygon","coordinates":[[[19.45935544131044,41.999426688062115],[19.459328762658814,41.99939906164638],[19.45936650110734,41.99937878456411],[19.459393179767,41.999406410971204],[19.45935544131044,41.999426688062115]]]},"properties":{"NR_PASURIS":"","SIPERFAQJA":15}},
{"type":"Feature","geometry":{"type":"Polygon","coordinates":[[[19.46232597906525,41.99774882418529],[19.462288076262787,41.99764924274638],[19.462344529747263,41.997637286642515],[19.46238243263103,41.99773686806346],[19.46232597906525,41.99774882418529]]]},"properties":{"NR_PASURIS":"","SIPERFAQJA":56}},
{"type":"Feature","geometry":{"type":"Polygon","coordinates":[[[19.457691022446802,41.99270180333348],[19.457781647650165,41.992782577946855],[19.457737226096075,41.99281031378486],[19.45772405831983,41.992798577302],[19.45768333853041,41.992824001800145],[19.457636864072885,41.9927825788911],[19.457646118571443,41.99277680060105],[19.457615135631933,41.99274918532041],[19.457691022446802,41.99270180333348]]]},"properties":{"NR_PASURIS":"","SIPERFAQJA":96}},
{"type":"Feature","geometry":{"type":"Polygon","coordinates":[[[19.457427520350098,41.99233945311844],[19.457490687909516,41.992433657897536],[19.457438880789475,41.99245299043027],[19.457429702593995,41.99243930255452],[19.457382212714286,41.99245702401839],[19.45734981914164,41.99240871384967],[19.457360612292238,41.99240468624896],[19.457339016600066,41.992372479466674],[19.457427520350098,41.99233945311844]]]},"properties":{"NR_PASURIS":"","SIPERFAQJA":96}},
{"type":"Feature","geometry":{"type":"Polygon","coordinates":[[[19.465813788092042,42.0088204342845],[19.46589086616185,42.00897387086976],[19.465723566791226,42.009020617061424],[19.465667664231095,42.00890933331044],[19.465758096217066,42.00888406517199],[19.465736921003664,42.00884191224483],[19.465813788092042,42.0088204342845]]]},"properties":{"NR_PASURIS":"","SIPERFAQJA":229}},
{"type":"Feature","geometry":{"type":"Polygon","coordinates":[[[19.465752327258727,42.0085893041716],[19.465816449823745,42.00873279211087],[19.46564467054937,42.00877549127331],[19.465619861323336,42.00871997507486],[19.465596957420708,42.00872566827218],[19.465582453595673,42.00869321264305],[19.465605357487892,42.00868751944855],[19.465584365120332,42.008640544196496],[19.465580548329513,42.00863200324115],[19.465752327258727,42.0085893041716]]]},"properties":{"NR_PASURIS":"","SIPERFAQJA":260}},
{"type":"Feature","geometry":{"type":"Polygon","coordinates":[[[19.46574819950203,42.00840378391295],[19.465793027016314,42.008494126468875],[19.465645855523736,42.00853474575708],[19.465601028190367,42.00844440314535],[19.46574819950203,42.00840378391295]]]},"properties":{"NR_PASURIS":"","SIPERFAQJA":139}},
{"type":"Feature","geometry":{"type":"Polygon","coordinates":[[[19.465675594391506,42.00823048958586],[19.46572454069156,42.0083273730235],[19.465552842415725,42.008375622736565],[19.465503896340735,42.008278739227826],[19.465675594391506,42.00823048958586]]]},"properties":{"NR_PASURIS":"","SIPERFAQJA":175}},
{"type":"Feature","geometry":{"type":"Polygon","coordinates":[[[19.465052844838613,42.00754744229846],[19.465100535653505,42.007646588340485],[19.465043725590764,42.007661788686086],[19.464996034853222,42.007562642621146],[19.465052844838613,42.00754744229846]]]},"properties":{"NR_PASURIS":"","SIPERFAQJA":59}},
{"type":"Feature","geometry":{"type":"Polygon","coordinates":[[[19.464987945348508,42.00638627455723],[19.465073176295746,42.006470263633375],[19.46496056533345,42.00653383183179],[19.464935068892235,42.006508706876474],[19.464915819136028,42.00651957321973],[19.464856084702795,42.006460709006724],[19.464987945348508,42.00638627455723]]]},"properties":{"NR_PASURIS":"","SIPERFAQJA":153}},
{"type":"Feature","geometry":{"type":"Polygon","coordinates":[[[19.464565896559897,42.00665120890548],[19.464662635354678,42.006745636612024],[19.464541782802236,42.006814507871844],[19.464445044083956,42.006720080065],[19.464565896559897,42.00665120890548]]]},"properties":{"NR_PASURIS":"","SIPERFAQJA":166}},
{"type":"Feature","geometry":{"type":"Polygon","coordinates":[[[19.46527853193619,42.00646193281674],[19.465164536477054,42.00652562632584],[19.465132088446424,42.00649332161422],[19.46516879886492,42.00647281016799],[19.465165180266343,42.00646920755181],[19.46524246527904,42.00642602552307],[19.46527853193619,42.00646193281674]]]},"properties":{"NR_PASURIS":"","SIPERFAQJA":57}},
{"type":"Feature","geometry":{"type":"Polygon","coordinates":[[[19.464504117813625,42.00592911718598],[19.464595277010822,42.006018791962134],[19.46447985296449,42.00608406253848],[19.464388693838107,42.00599438767207],[19.464504117813625,42.00592911718598]]]},"properties":{"NR_PASURIS":"","SIPERFAQJA":150}},
{"type":"Feature","geometry":{"type":"Polygon","coordinates":[[[19.463777382827917,42.00614354509142],[19.463646540242948,42.00620815421776],[19.463563912316072,42.00611507081942],[19.463694754791945,42.0060504617856],[19.463777382827917,42.00614354509142]]]},"properties":{"NR_PASURIS":"","SIPERFAQJA":161}},
{"type":"Feature","geometry":{"type":"Polygon","coordinates":[[[19.46439039283206,42.00665502479436],[19.464296432433354,42.00671009562343],[19.464270328062298,42.006685320325865],[19.464246600666936,42.006699227083175],[19.464241855186625,42.00670200843403],[19.46418442565105,42.00664750274448],[19.46425276050467,42.00660745130646],[19.464304969190263,42.00665700190389],[19.464359067571927,42.00662529446182],[19.46439039283206,42.00665502479436]]]},"properties":{"NR_PASURIS":"","SIPERFAQJA":94}},
{"type":"Feature","geometry":{"type":"Polygon","coordinates":[[[19.464300895279884,42.00573995137892],[19.464379993203327,42.00581949268628],[19.464281102934788,42.00587419675662],[19.464202005068188,42.0057946553822],[19.464300895279884,42.00573995137892]]]},"properties":{"NR_PASURIS":"","SIPERFAQJA":112}},
{"type":"Feature","geometry":{"type":"Polygon","coordinates":[[[19.46365472510243,42.00575892882247],[19.463775076962808,42.00584219778774],[19.463692985563284,42.00590820037942],[19.463656702979385,42.005883097223],[19.46363043369417,42.00590421803135],[19.463595036077383,42.00587972712802],[19.463621305364054,42.0058586063277],[19.46357263368734,42.00582493132892],[19.46365472510243,42.00575892882247]]]},"properties":{"NR_PASURIS":"","SIPERFAQJA":149}},
{"type":"Feature","geometry":{"type":"Polygon","coordinates":[[[19.465876322287432,42.00590614335571],[19.465909965212525,42.00589615147659],[19.465925148257924,42.00592458938679],[19.46589150532012,42.00593458127023],[19.465896677191804,42.0059442682118],[19.465915948954745,42.00598036429256],[19.465792591351814,42.006017001139],[19.46573364563219,42.00590659505764],[19.46585700305434,42.00586995827282],[19.465876322287432,42.00590614335571]]]},"properties":{"NR_PASURIS":"","SIPERFAQJA":155}},
{"type":"Feature","geometry":{"type":"Polygon","coordinates":[[[19.464855634549238,42.004819919811524],[19.464927569299963,42.00491368943283],[19.464882519144926,42.004932915014685],[19.464892110454905,42.00494541763113],[19.464846012587746,42.00496509030476],[19.46483642128392,42.00495258768454],[19.46479137107425,42.00497181323017],[19.464719436459813,42.00487804352522],[19.464855634549238,42.004819919811524]]]},"properties":{"NR_PASURIS":"","SIPERFAQJA":163}},
{"type":"Feature","geometry":{"type":"Polygon","coordinates":[[[19.46319914881383,42.00470095153794],[19.46327472966524,42.004748617392885],[19.463238966056274,42.004780164131716],[19.463263852462248,42.00479585898326],[19.463243589033866,42.0048137331475],[19.46321870262599,42.004798038291625],[19.46318588232071,42.00482698871051],[19.463110301444075,42.00477932279755],[19.46319914881383,42.00470095153794]]]},"properties":{"NR_PASURIS":"","SIPERFAQJA":101}},
{"type":"Feature","geometry":{"type":"Polygon","coordinates":[[[19.462691475278444,42.005415185416524],[19.462663052930303,42.00543726628883],[19.462593393907266,42.00538738692976],[19.462700395591913,42.00530425896652],[19.462770054609194,42.005354138261325],[19.462741632315428,42.005376219153625],[19.4627703666924,42.005396794357544],[19.462745288182113,42.00541627749801],[19.46272020965652,42.00543576063283],[19.462691475278444,42.005415185416524]]]},"properties":{"NR_PASURIS":"","SIPERFAQJA":122}},
{"type":"Feature","geometry":{"type":"Polygon","coordinates":[[[19.462206417967632,42.00523481266023],[19.462302043923334,42.00529685284012],[19.462214109991546,42.00537225089851],[19.4621184840099,42.00531021064601],[19.462206417967632,42.00523481266023]]]},"properties":{"NR_PASURIS":"","SIPERFAQJA":117}},
{"type":"Feature","geometry":{"type":"Polygon","coordinates":[[[19.46259880609885,42.00509186574403],[19.46246113260013,42.005025178262834],[19.462533450485534,42.004942125107604],[19.462671123882526,42.005008812502396],[19.46259880609885,42.00509186574403]]]},"properties":{"NR_PASURIS":"","SIPERFAQJA":150}},
{"type":"Feature","geometry":{"type":"Polygon","coordinates":[[[19.46096778816176,42.00405181049771],[19.461046537769004,42.00411764501651],[19.46093125103866,42.004194361905576],[19.46087741202162,42.004149352544154],[19.460911637793323,42.0041265772459],[19.460886727226576,42.00410575201781],[19.46096778816176,42.00405181049771]]]},"properties":{"NR_PASURIS":"","SIPERFAQJA":114}},
{"type":"Feature","geometry":{"type":"Polygon","coordinates":[[[19.461249993782044,42.0040077466813],[19.46124353200281,42.004011807031645],[19.461207758311385,42.003980135335595],[19.461281607156973,42.003933731332154],[19.461336045414033,42.00398192735243],[19.461268658331285,42.004024271039015],[19.461249993782044,42.0040077466813]]]},"properties":{"NR_PASURIS":"","SIPERFAQJA":54}},
{"type":"Feature","geometry":{"type":"Polygon","coordinates":[[[19.461185544258665,42.003755091767],[19.461134991649466,42.00371641187026],[19.461210187126813,42.00366173887646],[19.461260739738965,42.003700418740436],[19.461185544258665,42.003755091767]]]},"properties":{"NR_PASURIS":"","SIPERFAQJA":52}},
{"type":"Feature","geometry":{"type":"Polygon","coordinates":[[[19.459749841211664,42.003091610096185],[19.459846674695598,42.00318823827549],[19.459792534219012,42.00321842209719],[19.459695700772176,42.00312179387295],[19.459749841211664,42.003091610096185]]]},"properties":{"NR_PASURIS":"","SIPERFAQJA":75}},
{"type":"Feature","geometry":{"type":"Polygon","coordinates":[[[19.460220994955073,42.00252806298432],[19.460296037170565,42.00259273090224],[19.460193822198786,42.00265871955548],[19.460118780010653,42.00259405157162],[19.460220994955073,42.00252806298432]]]},"properties":{"NR_PASURIS":"","SIPERFAQJA":106}},
{"type":"Feature","geometry":{"type":"Polygon","coordinates":[[[19.46030249301493,42.00248181795977],[19.46042464356347,42.00240552027619],[19.460502137534128,42.002474542851964],[19.460379986944425,42.00255084061686],[19.46030249301493,42.00248181795977]]]},"properties":{"NR_PASURIS":"","SIPERFAQJA":132}},
{"type":"Feature","geometry":{"type":"Polygon","coordinates":[[[19.460624302808398,42.002351474912054],[19.460752678053616,42.00227662214076],[19.46085005927689,42.00236953789423],[19.460721683956756,42.00244439077277],[19.460624302808398,42.002351474912054]]]},"properties":{"NR_PASURIS":"","SIPERFAQJA":177}},
{"type":"Feature","geometry":{"type":"Polygon","coordinates":[[[19.45972686748838,42.00222550086981],[19.4598079081857,42.00231504151322],[19.45969586479202,42.002371458657805],[19.459614824181855,42.00228191793666],[19.45972686748838,42.00222550086981]]]},"properties":{"NR_PASURIS":"","SIPERFAQJA":134}},
{"type":"Feature","geometry":{"type":"Polygon","coordinates":[[[19.459699203814232,42.00097102831294],[19.459772398057666,42.001042613551974],[19.45969754000863,42.001085198045494],[19.459624345801306,42.00101361275947],[19.459699203814232,42.00097102831294]]]},"properties":{"NR_PASURIS":"","SIPERFAQJA":78}},
{"type":"Feature","geometry":{"type":"Polygon","coordinates":[[[19.45931515143863,42.001433841618486],[19.45939824926198,42.00150521461515],[19.459291625442408,42.00157428039531],[19.459208527649974,42.00150290732251],[19.45931515143863,42.001433841618486]]]},"properties":{"NR_PASURIS":"","SIPERFAQJA":123}},
{"type":"Feature","geometry":{"type":"Polygon","coordinates":[[[19.458939571091307,42.00136212880889],[19.45903119380209,42.00143129044239],[19.458941046246313,42.00149773294255],[19.458849423539338,42.00142857123793],[19.458939571091307,42.00136212880889]]]},"properties":{"NR_PASURIS":"","SIPERFAQJA":113}},
{"type":"Feature","geometry":{"type":"Polygon","coordinates":[[[19.45783408075248,42.00165515217633],[19.45772911285662,42.00157059831195],[19.45782387414891,42.00150514884921],[19.457928842064486,42.00158970262801],[19.45783408075248,42.00165515217633]]]},"properties":{"NR_PASURIS":"","SIPERFAQJA":137}},
{"type":"Feature","geometry":{"type":"Polygon","coordinates":[[[19.45717442657762,42.00144037176705],[19.45726343074627,42.00150895474942],[19.457224405093246,42.00153713193327],[19.457135420659572,42.00146856412549],[19.45717442657762,42.00144037176705]]]},"properties":{"NR_PASURIS":"","SIPERFAQJA":48}},
{"type":"Feature","geometry":{"type":"Polygon","coordinates":[[[19.457013548346527,42.00154823723232],[19.45708245124445,42.001503069206336],[19.457130258376196,42.001543643530255],[19.457061355467726,42.001588811584575],[19.457013548346527,42.00154823723232]]]},"properties":{"NR_PASURIS":"","SIPERFAQJA":46}},
{"type":"Feature","geometry":{"type":"Polygon","coordinates":[[[19.4567832716434,42.001387364370665],[19.456859874869597,42.001332484019464],[19.456876596813746,42.001345469908955],[19.456887042698227,42.001337986219134],[19.456967308125755,42.00140031844771],[19.456880259005782,42.00146268255992],[19.4567832716434,42.001387364370665]]]},"properties":{"NR_PASURIS":"","SIPERFAQJA":114}},
{"type":"Feature","geometry":{"type":"Polygon","coordinates":[[[19.457729959039447,42.00121080776068],[19.457820338992786,42.00114845477541],[19.457921963997187,42.001230409116445],[19.45783158402541,42.00129276218074],[19.457729959039447,42.00121080776068]]]},"properties":{"NR_PASURIS":"","SIPERFAQJA":126}},
{"type":"Feature","geometry":{"type":"Polygon","coordinates":[[[19.459914284370647,42.000203642397125],[19.459999267740358,42.000287766316646],[19.45988552308456,42.00035169786012],[19.45980053978137,42.00026757385769],[19.459914284370647,42.000203642397125]]]},"properties":{"NR_PASURIS":"","SIPERFAQJA":138}},
{"type":"Feature","geometry":{"type":"Polygon","coordinates":[[[19.459156869687085,41.99950047205443],[19.459033193867782,41.99956648182898],[19.45895242487759,41.99948228367684],[19.45907610061551,41.99941627398788],[19.459156869687085,41.99950047205443]]]},"properties":{"NR_PASURIS":"","SIPERFAQJA":145}},
{"type":"Feature","geometry":{"type":"Polygon","coordinates":[[[19.458910851939624,41.99925740408425],[19.458999690392325,41.99933577621453],[19.458886327544736,41.999407274049624],[19.458797489133538,41.99932890183282],[19.458910851939624,41.99925740408425]]]},"properties":{"NR_PASURIS":"","SIPERFAQJA":140}},
{"type":"Feature","geometry":{"type":"Polygon","coordinates":[[[19.46014113194649,41.99864274430465],[19.460098489907107,41.99853949878707],[19.46023805545167,41.99850742579412],[19.460280697696334,41.998610671261645],[19.46014113194649,41.99864274430465]]]},"properties":{"NR_PASURIS":"","SIPERFAQJA":145}},
{"type":"Feature","geometry":{"type":"Polygon","coordinates":[[[19.458482543530742,41.99845814289846],[19.45855281972098,41.99855975386109],[19.458430542622448,41.99860680890857],[19.458360266576545,41.99850519787272],[19.458482543530742,41.99845814289846]]]},"properties":{"NR_PASURIS":"","SIPERFAQJA":145}},
{"type":"Feature","geometry":{"type":"Polygon","coordinates":[[[19.458038926192888,41.99833916208602],[19.45815730621663,41.99842909863058],[19.45805654427272,41.99850289487963],[19.457938164256266,41.998412958232315],[19.458038926192888,41.99833916208602]]]},"properties":{"NR_PASURIS":"","SIPERFAQJA":164}},
{"type":"Feature","geometry":{"type":"Polygon","coordinates":[[[19.458139543549137,41.99860934951986],[19.458224298949688,41.99868557457973],[19.45814440612676,41.99873500215956],[19.458059650757196,41.99865877704154],[19.458139543549137,41.99860934951986]]]},"properties":{"NR_PASURIS":"","SIPERFAQJA":95}},
{"type":"Feature","geometry":{"type":"Polygon","coordinates":[[[19.452187678329235,41.99806553059637],[19.452258593199698,41.998151372784676],[19.45212193518453,41.99821418882364],[19.452051020429778,41.99812834655252],[19.452187678329235,41.99806553059637]]]},"properties":{"NR_PASURIS":"","SIPERFAQJA":149}},
{"type":"Feature","geometry":{"type":"Polygon","coordinates":[[[19.453169677348328,41.99839934572135],[19.453256950879418,41.99833458032703],[19.453342073534277,41.998398403746165],[19.453254800000924,41.99846316920448],[19.453169677348328,41.99839934572135]]]},"properties":{"NR_PASURIS":"","SIPERFAQJA":102}},
{"type":"Feature","geometry":{"type":"Polygon","coordinates":[[[19.453520230805466,41.99860633115902],[19.453646998945487,41.998535849832116],[19.453740765993384,41.9986296877754],[19.45361399776839,41.998700169204206],[19.453520230805466,41.99860633115902]]]},"properties":{"NR_PASURIS":"","SIPERFAQJA":170}},
{"type":"Feature","geometry":{"type":"Polygon","coordinates":[[[19.453919216936395,41.998833593969316],[19.454012741519495,41.998776687619525],[19.454104289240025,41.998860402325604],[19.45401076461432,41.99891730874891],[19.453919216936395,41.998833593969316]]]},"properties":{"NR_PASURIS":"","SIPERFAQJA":120}},
{"type":"Feature","geometry":{"type":"Polygon","coordinates":[[[19.452518167861637,41.99845675079321],[19.45256607931894,41.99842938231115],[19.452582956935778,41.998445822041404],[19.452659615190658,41.99840203241662],[19.452711715740616,41.9984527810992],[19.452587145981045,41.998523939268644],[19.452518167861637,41.99845675079321]]]},"properties":{"NR_PASURIS":"","SIPERFAQJA":104}},
{"type":"Feature","geometry":{"type":"Polygon","coordinates":[[[19.45237363484478,41.99850652123693],[19.452465257986823,41.99859818255532],[19.452339472799686,41.99866814122313],[19.452274543045206,41.99860318432085],[19.452255191462527,41.99861394716959],[19.452228498160927,41.99858724265024],[19.45237363484478,41.99850652123693]]]},"properties":{"NR_PASURIS":"","SIPERFAQJA":172}},
{"type":"Feature","geometry":{"type":"Polygon","coordinates":[[[19.454315483886276,41.99945554990838],[19.454333056687897,41.99943725363603],[19.45429282987846,41.999415756746025],[19.454361012274394,41.9993447672064],[19.454403201345634,41.999367312699924],[19.454422882827277,41.999346820859],[19.454468015348265,41.999370939269156],[19.454448333873497,41.99939143111777],[19.45448757957769,41.9994124036407],[19.454401824458778,41.999501689540544],[19.454315483886276,41.99945554990838]]]},"properties":{"NR_PASURIS":"","SIPERFAQJA":160}},
{"type":"Feature","geometry":{"type":"Polygon","coordinates":[[[19.453958589331656,41.99943717813557],[19.45400362728854,41.9994099968875],[19.454049177341446,41.99945199012583],[19.45400413937395,41.99947917139152],[19.453958589331656,41.99943717813557]]]},"properties":{"NR_PASURIS":"","SIPERFAQJA":29}},
{"type":"Feature","geometry":{"type":"Polygon","coordinates":[[[19.454648452082832,41.99967204521128],[19.45475665303912,41.99958359617145],[19.454883630655626,41.999670021862755],[19.454775429726244,41.99975847102112],[19.454648452082832,41.99967204521128]]]},"properties":{"NR_PASURIS":"","SIPERFAQJA":189}},
{"type":"Feature","geometry":{"type":"Polygon","coordinates":[[[19.455101732854537,41.99851234644621],[19.455204424082527,41.998593554991125],[19.455107846488442,41.99866150682735],[19.455073063951705,41.99863400068864],[19.455046724573634,41.998652532985275],[19.455030161472106,41.99863943481654],[19.45501359837736,41.998626336645415],[19.45503993775408,41.99860780435629],[19.45500515527581,41.99858029819708],[19.455101732854537,41.99851234644621]]]},"properties":{"NR_PASURIS":"","SIPERFAQJA":148}},
{"type":"Feature","geometry":{"type":"Polygon","coordinates":[[[19.454658872739962,41.99991218182492],[19.454625298978485,41.99988887468685],[19.454660656844666,41.99986053647485],[19.45470925045217,41.99989427047248],[19.454797602597402,41.9999556049612],[19.45460354512443,42.00011113570422],[19.454515192953565,42.000049801067654],[19.454506357745817,42.00004366760026],[19.454665057382954,41.99991647524406],[19.454658872739962,41.99991218182492]]]},"properties":{"NR_PASURIS":"","SIPERFAQJA":279}},
{"type":"Feature","geometry":{"type":"Polygon","coordinates":[[[19.45534565198424,42.00023715383333],[19.45548162307052,42.00030412524857],[19.45542708689755,42.00036572966035],[19.455391835088147,42.00034836669954],[19.455371217719847,42.00037165615891],[19.455300714144503,42.0003369301924],[19.45532133152704,42.000313640745645],[19.455291115738692,42.00029875818079],[19.45534565198424,42.00023715383333]]]},"properties":{"NR_PASURIS":"","SIPERFAQJA":132}},
{"type":"Feature","geometry":{"type":"Polygon","coordinates":[[[19.455186205912504,41.99964423807909],[19.455301655028002,41.99973379004737],[19.455186818108043,41.999816161073745],[19.455071369007108,41.99972660899132],[19.455186205912504,41.99964423807909]]]},"properties":{"NR_PASURIS":"","SIPERFAQJA":182}},
{"type":"Feature","geometry":{"type":"Polygon","coordinates":[[[19.455349221430353,41.99945752490701],[19.455469512424177,41.99937159230888],[19.455558002445947,41.99944051310863],[19.455437711439423,41.99952644579841],[19.455349221430353,41.99945752490701]]]},"properties":{"NR_PASURIS":"","SIPERFAQJA":146}},
{"type":"Feature","geometry":{"type":"Polygon","coordinates":[[[19.456244731129715,41.99839627156933],[19.456352649239975,41.99845699161902],[19.45625961842434,41.998548990810434],[19.456151700248924,41.99848827067386],[19.456244731129715,41.99839627156933]]]},"properties":{"NR_PASURIS":"","SIPERFAQJA":143}},
{"type":"Feature","geometry":{"type":"Polygon","coordinates":[[[19.456467104953443,41.998516742943785],[19.45638696099069,41.99861420526527],[19.456309800052484,41.998578901115266],[19.45633630440622,41.998546669505686],[19.45630544006448,41.99853254783835],[19.456328789124186,41.99850415332607],[19.4563596534575,41.99851827498713],[19.456389944087537,41.998481438847506],[19.456467104953443,41.998516742943785]]]},"properties":{"NR_PASURIS":"","SIPERFAQJA":106}},
{"type":"Feature","geometry":{"type":"Polygon","coordinates":[[[19.455561832938645,41.999028341317256],[19.455647159357245,41.998957235915555],[19.45572865968938,41.99901165198199],[19.45571095045181,41.99902640972471],[19.45574332519058,41.99904802562267],[19.45571273649059,41.99907351627112],[19.45571723298415,41.99907651847963],[19.455680204525528,41.99910737557055],[19.455561832938645,41.999028341317256]]]},"properties":{"NR_PASURIS":"","SIPERFAQJA":129}},
{"type":"Feature","geometry":{"type":"Polygon","coordinates":[[[19.456460830694816,41.99866331756365],[19.45659143641718,41.998724867],[19.45651859188503,41.99881087258174],[19.456424008503838,41.99876629908686],[19.456387986058733,41.99874932306282],[19.456460830694816,41.99866331756365]]]},"properties":{"NR_PASURIS":"","SIPERFAQJA":145}},
{"type":"Feature","geometry":{"type":"Polygon","coordinates":[[[19.456305801581234,41.998845443507896],[19.456375917944804,41.99876454791434],[19.456517815307375,41.998832979708254],[19.45644769904658,41.99891387538813],[19.456305801581234,41.998845443507896]]]},"properties":{"NR_PASURIS":"","SIPERFAQJA":150}},
{"type":"Feature","geometry":{"type":"Polygon","coordinates":[[[19.456819127082696,41.999027410997876],[19.45691403512538,41.99894580481877],[19.457017968057787,41.99901305909552],[19.45700135917328,41.99902734019762],[19.457019593044617,41.99903913918649],[19.456961066443306,41.999089463059526],[19.456942832568593,41.999077664061424],[19.456923060046154,41.99909466535979],[19.456819127082696,41.999027410997876]]]},"properties":{"NR_PASURIS":"","SIPERFAQJA":152}},
{"type":"Feature","geometry":{"type":"Polygon","coordinates":[[[19.457223206230033,41.99892357594214],[19.457325234900495,41.999002769406495],[19.45723821152257,41.99906515099793],[19.457204759474838,41.99903918591253],[19.457181263134537,41.99905602892386],[19.457112686523484,41.99900280045461],[19.457223206230033,41.99892357594214]]]},"properties":{"NR_PASURIS":"","SIPERFAQJA":144}},
{"type":"Feature","geometry":{"type":"Polygon","coordinates":[[[19.45754900059357,41.99918925942298],[19.457457447624307,41.99912004878259],[19.457558824265018,41.999045434249304],[19.457650377238885,41.99911464480976],[19.45754900059357,41.99918925942298]]]},"properties":{"NR_PASURIS":"","SIPERFAQJA":127}},
{"type":"Feature","geometry":{"type":"Polygon","coordinates":[[[19.456602656372752,42.00000308503792],[19.456700041241334,41.99997901613575],[19.4567175038517,42.00001832742159],[19.45662011892944,42.000042396338095],[19.456602656372752,42.00000308503792]]]},"properties":{"NR_PASURIS":"","SIPERFAQJA":39}},
{"type":"Feature","geometry":{"type":"Polygon","coordinates":[[[19.457030059817182,41.999914120310834],[19.45708221038,41.99988204890636],[19.457207360359863,41.999995274812136],[19.45715520976622,42.00002734627267],[19.457030059817182,41.999914120310834]]]},"properties":{"NR_PASURIS":"","SIPERFAQJA":91}},
{"type":"Feature","geometry":{"type":"Polygon","coordinates":[[[19.457545870876352,42.00002128919988],[19.457648865679612,42.00011313189215],[19.457567397193085,42.000163963381105],[19.45753564704856,42.000135651096585],[19.457504170557545,42.00015529051111],[19.457473194688493,42.00012766861987],[19.457504671175236,42.00010802921371],[19.457464402426552,42.00007212061675],[19.457545870876352,42.00002128919988]]]},"properties":{"NR_PASURIS":"","SIPERFAQJA":131}},
{"type":"Feature","geometry":{"type":"Polygon","coordinates":[[[19.45809659234512,41.99992085627697],[19.45819416835422,42.000000693586834],[19.458087134965567,42.00007347662466],[19.457989558980987,41.999993639224975],[19.45809659234512,41.99992085627697]]]},"properties":{"NR_PASURIS":"","SIPERFAQJA":144}},
{"type":"Feature","geometry":{"type":"Polygon","coordinates":[[[19.4584637635152,41.999856381016855],[19.458436335368596,41.99982896189645],[19.45846632309116,41.999812271657774],[19.458336400582972,41.99968239155817],[19.458396375925737,41.99964901112373],[19.458553726653612,41.99980631025577],[19.4584637635152,41.999856381016855]]]},"properties":{"NR_PASURIS":"","SIPERFAQJA":147}},
{"type":"Feature","geometry":{"type":"Polygon","coordinates":[[[19.463911453010525,42.005166307122856],[19.463867371356805,42.00512132388797],[19.46381788380602,42.005148301640645],[19.46378166076364,42.005111337656245],[19.463856659976717,42.00507045241432],[19.463820265929833,42.00503331391768],[19.46377620784355,42.00498835453859],[19.463828884118787,42.00495963843155],[19.46386843734436,42.00500000076394],[19.463989641041913,42.00512368342104],[19.463911453010525,42.005166307122856]]]},"properties":{"NR_PASURIS":"","SIPERFAQJA":177}},
{"type":"Feature","geometry":{"type":"Polygon","coordinates":[[[19.463389172839534,42.0053682335779],[19.463451724581372,42.00542660318208],[19.46341023760403,42.005451335443794],[19.463347685876347,42.005392965817315],[19.463389172839534,42.0053682335779]]]},"properties":{"NR_PASURIS":"","SIPERFAQJA":37}},
{"type":"Feature","geometry":{"type":"Polygon","coordinates":[[[19.45879182308398,42.00157562711216],[19.45885651617843,42.00163501979242],[19.45872536663319,42.00171449701337],[19.458660673581758,42.00165510426023],[19.45879182308398,42.00157562711216]]]},"properties":{"NR_PASURIS":"","SIPERFAQJA":119}},
{"type":"Feature","geometry":{"type":"Polygon","coordinates":[[[19.45715616891914,42.001779073515905],[19.457086664285676,42.001706574278],[19.457131827087924,42.00168248569655],[19.457143762220213,42.001694935059014],[19.457187943193826,42.00167137012038],[19.45720689900854,42.0016911426275],[19.457252061754946,42.00166705399835],[19.457290675502033,42.00170733130303],[19.45715616891914,42.001779073515905]]]},"properties":{"NR_PASURIS":"","SIPERFAQJA":108}},
{"type":"Feature","geometry":{"type":"Polygon","coordinates":[[[19.457218895992998,42.001895869274364],[19.457150349690735,42.001829566596186],[19.45721725671595,42.00179108321596],[19.45728580304722,42.001857385854784],[19.457218895992998,42.001895869274364]]]},"properties":{"NR_PASURIS":"","SIPERFAQJA":65}},
{"type":"Feature","geometry":{"type":"Polygon","coordinates":[[[19.457310881201696,42.00210983457159],[19.45718342436416,42.002013925716604],[19.457269146757604,42.001950546845514],[19.45739660359939,42.00204645560639],[19.457310881201696,42.00210983457159]]]},"properties":{"NR_PASURIS":"","SIPERFAQJA":150}},
{"type":"Feature","geometry":{"type":"Polygon","coordinates":[[[19.45609229875479,41.998940853586774],[19.456108485047128,41.9989274958326],[19.45611981544774,41.99891814540327],[19.45617443388828,41.998954970269764],[19.456163103489025,41.99896432070442],[19.456146917198613,41.99897767846622],[19.45609229875479,41.998940853586774]]]},"properties":{"NR_PASURIS":"","SIPERFAQJA":21}},
{"type":"Feature","geometry":{"type":"Polygon","coordinates":[[[19.456293357799712,41.99964415236864],[19.456339833948554,41.999693513974556],[19.45625983013359,41.999735425106685],[19.45620433627105,41.999676485835536],[19.456260635235964,41.99964699284929],[19.456268497986816,41.999655343769646],[19.456293357799712,41.99964415236864]]]},"properties":{"NR_PASURIS":"","SIPERFAQJA":62}},
{"type":"Feature","geometry":{"type":"Polygon","coordinates":[[[19.45804179744403,42.00219189198581],[19.45812472125717,42.00226337810269],[19.458092360146807,42.00228426260177],[19.458009712226218,42.00233759998821],[19.45792678844719,42.00226611378936],[19.458009063200528,42.00221301727213],[19.45804179744403,42.00219189198581]]]},"properties":{"NR_PASURIS":"","SIPERFAQJA":132}},
{"type":"Feature","geometry":{"type":"Polygon","coordinates":[[[19.457713258682958,42.00219877250974],[19.45780786551093,42.002135860743515],[19.457856725103458,42.00217673819111],[19.45776211826222,42.00223964999709],[19.457713258682958,42.00219877250974]]]},"properties":{"NR_PASURIS":"","SIPERFAQJA":64}},
{"type":"Feature","geometry":{"type":"Polygon","coordinates":[[[19.456207357138375,41.99862538120787],[19.456268183219212,41.99856710404153],[19.456319059857222,41.99859665029483],[19.456258233794106,41.998654927487934],[19.456207357138375,41.99862538120787]]]},"properties":{"NR_PASURIS":"","SIPERFAQJA":44}},
{"type":"Feature","geometry":{"type":"Polygon","coordinates":[[[19.460666698680438,42.00396485281647],[19.460648887093285,42.00395140129347],[19.460657475101307,42.00394507509255],[19.460617611099913,42.00391496929594],[19.460657545314103,42.0038855524667],[19.460635492903535,42.003868898197894],[19.460666409688937,42.00384612387458],[19.460688462099824,42.00386277813752],[19.46072839624875,42.003833361282965],[19.460784375498342,42.003875637450676],[19.46079296348278,42.00386931123939],[19.460810775077807,42.003882762740275],[19.460802187093293,42.003889088952874],[19.460810668807824,42.00389549442915],[19.460699883654677,42.00397710252062],[19.46067528668853,42.00395852661425],[19.460666698680438,42.00396485281647]]]},"properties":{"NR_PASURIS":"","SIPERFAQJA":139}},
{"type":"Feature","geometry":{"type":"Polygon","coordinates":[[[19.457598825338884,41.99341678000475],[19.457521740194263,41.993383682052084],[19.457578933254826,41.99330955483625],[19.457656018340426,41.99334265275062],[19.457598825338884,41.99341678000475]]]},"properties":{"NR_PASURIS":"","SIPERFAQJA":70}},
{"type":"Feature","geometry":{"type":"Polygon","coordinates":[[[19.45914583866631,42.000571191644944],[19.459022291737714,42.00045023090067],[19.459071908236577,42.00042203535424],[19.459187516690022,42.000535223729365],[19.459195455205705,42.00054299604595],[19.45914583866631,42.000571191644944]]]},"properties":{"NR_PASURIS":"","SIPERFAQJA":87}},
{"type":"Feature","geometry":{"type":"Polygon","coordinates":[[[19.458984061053542,42.00042370452827],[19.458914591291208,42.00035149886469],[19.458960566065564,42.00032688879595],[19.459030035853676,42.000399094432176],[19.458984061053542,42.00042370452827]]]},"properties":{"NR_PASURIS":"","SIPERFAQJA":46}}
]}