{"type":"FeatureCollection", "features": [
{"type":"Feature","geometry":{"type":"Polygon","coordinates":[[[19.80406158670349,42.20880808026684],[19.80304798170999,42.2088240305739],[19.803824157373423,42.208504671752166],[19.803927391728458,42.208587982191354],[19.804045655671732,42.20862757247018],[19.80406158670349,42.20880808026684]]]},"properties":{"SIPERFAQJA":2658.1,"NR_ZK":2907,"EMRI_ZK":"PEPSUMAJ","VOL":"1","FAQE":"96","NR__PASURI":"508","PRONESIA":"SHTET","SHENIME_NE":"NDUE DED RRUSHINI, GEZIM DAK RRUSHINI, VASEL LIN RRUSHINI, SOKOL PREL RRUSHINI, EMILJANO GJOK RRUSHINI"}},
{"type":"Feature","geometry":{"type":"Polygon","coordinates":[[[19.80304798170999,42.2088240305739],[19.802600320499796,42.20847898110658],[19.803542722033022,42.20829219745585],[19.80370937653931,42.20819461535478],[19.803827725257424,42.20838035109014],[19.803824157373423,42.208504671752166],[19.80304798170999,42.2088240305739]]]},"properties":{"SIPERFAQJA":2752.84,"NR_ZK":2907,"EMRI_ZK":"PEPSUMAJ","VOL":"1","FAQE":"97","NR__PASURI":"509","PRONESIA":"SHTET","SHENIME_NE":"LEKE GJELOSH KRONIKU, ALFRED NIKOLL KRONIKU, ARMANDO MARASH KRONIKU, JOZEF PASHKO KRONIKU, MARKO LULASH KRONIKU"}},
{"type":"Feature","geometry":{"type":"Polygon","coordinates":[[[19.802849575833026,42.20820864257009],[19.80385238659132,42.20800369685192],[19.803518643473026,42.20826064234428],[19.80296138002411,42.2083992425941],[19.802849575833026,42.20820864257009]]]},"properties":{"SIPERFAQJA":1887.15,"NR_ZK":2907,"EMRI_ZK":"PEPSUMAJ","VOL":"1","FAQE":"127","NR__PASURI":"510/1","PRONESIA":"SHTET","SHENIME_NE":"SUBJEKT I PAIDENTIFIKUAR"}},
{"type":"Feature","geometry":{"type":"Polygon","coordinates":[[[19.804045655671732,42.20862757247018],[19.804122625640925,42.208604105682085],[19.8045006333856,42.20868904684856],[19.804505234647927,42.20874758784],[19.804403400104828,42.208821496825315],[19.80406158670349,42.20880808026684],[19.804045655671732,42.20862757247018]]]},"properties":{"SIPERFAQJA":734.91,"NR_ZK":2907,"EMRI_ZK":"PEPSUMAJ","VOL":"1","FAQE":"150","NR__PASURI":"520/4","PRONESIA":"SHTET","SHENIME_NE":"MARJAN MARK KOCEKU"}},
{"type":"Feature","geometry":{"type":"Polygon","coordinates":[[[19.802972653871592,42.207814755841675],[19.803135461885173,42.20808595756997],[19.802891862951526,42.20810830438186],[19.802643329200905,42.20800635008374],[19.802443555275918,42.20782741884072],[19.802972653871592,42.207814755841675]]]},"properties":{"SIPERFAQJA":1332.55,"NR_ZK":2907,"EMRI_ZK":"PEPSUMAJ","VOL":"1","FAQE":"131","NR__PASURI":"511/3","PRONESIA":"SHTET","SHENIME_NE":"SUBJEKT I PAIDENTIFIKUAR"}},
{"type":"Feature","geometry":{"type":"Polygon","coordinates":[[[19.802972653871592,42.207814755841675],[19.803116834087753,42.20774890279261],[19.80319125709752,42.20771491061079],[19.80342944666568,42.207937889288736],[19.803135461885173,42.20808595756997],[19.802972653871592,42.207814755841675]]]},"properties":{"SIPERFAQJA":1003.45,"NR_ZK":2907,"EMRI_ZK":"PEPSUMAJ","VOL":"1","FAQE":"130","NR__PASURI":"511/2","PRONESIA":"SHTET","SHENIME_NE":"MIKEL ZEF THEPINA"}},
{"type":"Feature","geometry":{"type":"Polygon","coordinates":[[[19.804122625640925,42.208604105682085],[19.804426571343168,42.208178392596864],[19.80456500402887,42.208643600384946],[19.8045006333856,42.20868904684856],[19.804122625640925,42.208604105682085]]]},"properties":{"SIPERFAQJA":2121.71,"NR_ZK":2907,"EMRI_ZK":"PEPSUMAJ","VOL":"1","FAQE":"152","NR__PASURI":"532/2","PRONESIA":"SHTET","SHENIME_NE":"_"}},
{"type":"Feature","geometry":{"type":"Polygon","coordinates":[[[19.802145133642288,42.20757745244032],[19.802269127309646,42.20733290808423],[19.802566805037095,42.20759402654121],[19.80242199080953,42.2077660513705],[19.802145133642288,42.20757745244032]]]},"properties":{"SIPERFAQJA":1012.14,"NR_ZK":2907,"EMRI_ZK":"PEPSUMAJ","VOL":"1","FAQE":"134","NR__PASURI":"512/2","PRONESIA":"SHTET","SHENIME_NE":"SUBJEKT I PAIDENTIFIKUAR"}},
{"type":"Feature","geometry":{"type":"Polygon","coordinates":[[[19.80296138002411,42.2083992425941],[19.80253401725136,42.208445859508444],[19.802081827457634,42.20756585680195],[19.802145133642288,42.20757745244032],[19.80242199080953,42.2077660513705],[19.802443555275918,42.20782741884072],[19.802643329200905,42.20800635008374],[19.802820443643448,42.20816659306429],[19.802849575833026,42.20820864257009],[19.80296138002411,42.2083992425941]]]},"properties":{"SIPERFAQJA":4320.78,"NR_ZK":2907,"EMRI_ZK":"PEPSUMAJ","VOL":"1","FAQE":"98","NR__PASURI":"513","PRONESIA":"SHTET","SHENIME_NE":"_"}},
{"type":"Feature","geometry":{"type":"Polygon","coordinates":[[[19.803824157373423,42.208504671752166],[19.803827725257424,42.20838035109014],[19.803927391728458,42.208587982191354],[19.803824157373423,42.208504671752166]]]},"properties":{"SIPERFAQJA":162.011,"NR_ZK":2907,"EMRI_ZK":"PEPSUMAJ","VOL":"1","FAQE":"100","NR__PASURI":"519","PRONESIA":"SHTET","SHENIME_NE":"LEKE GJELOSH KRONIKU, ALFRED NIKOLL KRONIKU, ARMANDO MARASH KRONIKU, JOZEF PASHKO KRONIKU, MARKO LULASH KRONIKU"}},
{"type":"Feature","geometry":{"type":"Polygon","coordinates":[[[19.80370937653931,42.20819461535478],[19.803835935054177,42.20807423527969],[19.803827725257424,42.20838035109014],[19.80370937653931,42.20819461535478]]]},"properties":{"SIPERFAQJA":389.971,"NR_ZK":2907,"EMRI_ZK":"PEPSUMAJ","VOL":"1","FAQE":"99","NR__PASURI":"518","PRONESIA":"SHTET","SHENIME_NE":"FRAN PJETER LIVADHI, MHILL PJETER LIVADHI, NDOC PJETER LIVADHI, ZEF PJETER LIVADHI"}},
{"type":"Feature","geometry":{"type":"Polygon","coordinates":[[[19.8045006333856,42.20868904684856],[19.80456500402887,42.208643600384946],[19.804727310656467,42.20853017232227],[19.804874299602595,42.20864135239275],[19.804531456416864,42.208800374373865],[19.804505234647927,42.20874758784],[19.8045006333856,42.20868904684856]]]},"properties":{"SIPERFAQJA":473.472,"NR_ZK":2907,"EMRI_ZK":"PEPSUMAJ","VOL":"1","FAQE":"148","NR__PASURI":"520/2","PRONESIA":"SHTET","SHENIME_NE":"FRAN PJETER LIVADHI,MHILL PJETER LIVADHI,NDOC PJETER LIVADHI, ZEF PJETER LIVADHI"}},
{"type":"Feature","geometry":{"type":"Polygon","coordinates":[[[19.804727310656467,42.20853017232227],[19.804766684678906,42.208502655671964],[19.80503862657687,42.208557707968446],[19.804874299602595,42.20864135239275],[19.804727310656467,42.20853017232227]]]},"properties":{"SIPERFAQJA":285.828,"NR_ZK":2907,"EMRI_ZK":"PEPSUMAJ","VOL":"1","FAQE":"147","NR__PASURI":"520/1","PRONESIA":"SHTET","SHENIME_NE":"SUBJEKT I PAIDENTIFIKUAR"}},
{"type":"Feature","geometry":{"type":"Polygon","coordinates":[[[19.804505234647927,42.20874758784],[19.804531456416864,42.208800374373865],[19.804403400104828,42.208821496825315],[19.804505234647927,42.20874758784]]]},"properties":{"SIPERFAQJA":38.9615,"NR_ZK":2907,"EMRI_ZK":"PEPSUMAJ","VOL":"1","FAQE":"149","NR__PASURI":"520/3","PRONESIA":"SHTET","SHENIME_NE":"DEDE FRAN SHKOLLARI"}},
{"type":"Feature","geometry":{"type":"Polygon","coordinates":[[[19.804426571343168,42.208178392596864],[19.804766684678906,42.208502655671964],[19.804727310656467,42.20853017232227],[19.80456500402887,42.208643600384946],[19.804426571343168,42.208178392596864]]]},"properties":{"SIPERFAQJA":769.569,"NR_ZK":2907,"EMRI_ZK":"PEPSUMAJ","VOL":"1","FAQE":"151","NR__PASURI":"532/1","PRONESIA":"SHTET","SHENIME_NE":"DEDE SHAN GURINI, GJERGJ SHAN GURINI, VALENTIN GZIM GURINI"}},
{"type":"Feature","geometry":{"type":"Polygon","coordinates":[[[19.80462148671125,42.2076937137259],[19.805240041006453,42.207706781376956],[19.804396868980902,42.20795824690875],[19.80422699164756,42.20779087924941],[19.804247737448733,42.20777169402555],[19.80462148671125,42.2076937137259]]]},"properties":{"SIPERFAQJA":2823.5,"NR_ZK":2907,"EMRI_ZK":"PEPSUMAJ","VOL":"1","FAQE":"102","NR__PASURI":"537","PRONESIA":"SHTET","SHENIME_NE":"SUBJEKT I PAIDENTIFIKUAR"}},
{"type":"Feature","geometry":{"type":"Polygon","coordinates":[[[19.80462148671125,42.2076937137259],[19.80471536637007,42.20744944406919],[19.80477924032094,42.207431377628865],[19.804870934976485,42.20740053577174],[19.805199775537076,42.20754381908081],[19.805240041006453,42.207706781376956],[19.80462148671125,42.2076937137259]]]},"properties":{"SIPERFAQJA":1236.58,"NR_ZK":2907,"EMRI_ZK":"PEPSUMAJ","VOL":"1","FAQE":"169","NR__PASURI":"536/2","PRONESIA":"SHTET","SHENIME_NE":"DEDE SHAN GURINI, GJERGJ SHAN GURINI, VALENTIN GZIM GURINI"}},
{"type":"Feature","geometry":{"type":"Polygon","coordinates":[[[19.804985081209306,42.20702572651238],[19.805016576017263,42.207098363922775],[19.805124865608107,42.207138317980714],[19.80471107382565,42.20726104610405],[19.8046900029856,42.207154285653296],[19.804985081209306,42.20702572651238]]]},"properties":{"SIPERFAQJA":484.414,"NR_ZK":2907,"EMRI_ZK":"PEPSUMAJ","VOL":"1","FAQE":"162","NR__PASURI":"535/2","PRONESIA":"SHTET","SHENIME_NE":"LEKE GJELOSH KRONIKU,ALFRED NIKOLL KRONIKU, ARMANDO MARASH KRONIKU, JOZEF PASHKO KRONIKU,MARKO LULASH KRONIKU"}},
{"type":"Feature","geometry":{"type":"Polygon","coordinates":[[[19.8046900029856,42.207154285653296],[19.804569856076892,42.20702936393477],[19.804985081209306,42.20702572651238],[19.8046900029856,42.207154285653296]]]},"properties":{"SIPERFAQJA":504.06,"NR_ZK":2907,"EMRI_ZK":"PEPSUMAJ","VOL":"1","FAQE":"163","NR__PASURI":"535/3","PRONESIA":"SHTET","SHENIME_NE":"DEDE SHAN GURINI,GJERGJ SHAN GURINI,VALENTIN GZIM GURINI"}},
{"type":"Feature","geometry":{"type":"Polygon","coordinates":[[[19.804985081209306,42.20702572651238],[19.80509247952673,42.20700313832778],[19.805234548047398,42.20708707847501],[19.805124865608107,42.207138317980714],[19.805016576017263,42.207098363922775],[19.804985081209306,42.20702572651238]]]},"properties":{"SIPERFAQJA":175.862,"NR_ZK":2907,"EMRI_ZK":"PEPSUMAJ","VOL":"1","FAQE":"161","NR__PASURI":"535/1","PRONESIA":"SHTET","SHENIME_NE":"MIKEL ZEF THEPINA"}},
{"type":"Feature","geometry":{"type":"Polygon","coordinates":[[[19.804396868980902,42.20795824690875],[19.803887180832668,42.20802893571343],[19.80422699164756,42.20779087924941],[19.804396868980902,42.20795824690875]]]},"properties":{"SIPERFAQJA":764.967,"NR_ZK":2907,"EMRI_ZK":"PEPSUMAJ","VOL":"1","FAQE":"175","NR__PASURI":"539/1","PRONESIA":"SHTET","SHENIME_NE":"SUBJEKT I PAIDENTIFIKUAR"}},
{"type":"Feature","geometry":{"type":"Polygon","coordinates":[[[19.803652357049476,42.20702983422437],[19.80397211980772,42.20689864625665],[19.804021252287342,42.20699305580716],[19.804081991137448,42.20710976693255],[19.80416399882813,42.207244764497226],[19.804031721472533,42.20731285383308],[19.80401517215691,42.20741561897266],[19.8039007242127,42.20748831151257],[19.803652357049476,42.20702983422437]]]},"properties":{"SIPERFAQJA":1644.09,"NR_ZK":2907,"EMRI_ZK":"PEPSUMAJ","VOL":"1","FAQE":"142","NR__PASURI":"515/3","PRONESIA":"SHTET","SHENIME_NE":"VALENTIN VATE QARRICA"}},
{"type":"Feature","geometry":{"type":"Polygon","coordinates":[[[19.8039007242127,42.20748831151257],[19.803728386824684,42.20754716503101],[19.803369945605336,42.207079869251494],[19.803652357049476,42.20702983422437],[19.8039007242127,42.20748831151257]]]},"properties":{"SIPERFAQJA":1120.47,"NR_ZK":2907,"EMRI_ZK":"PEPSUMAJ","VOL":"1","FAQE":"143","NR__PASURI":"516/1","PRONESIA":"LENË MIRASH KODRARI\nKOLË ZEF KODRARI\nFILE ZEF KODRARI\nZEF KOL KODRARI\nDRANDE GJON KODRARI\nFATMIRA GJON KODRARI\nGJERGJ KOLË KODRARI","SHENIME_NE":"KUFIZIM PËR MUNGESË TË ÇERTIFIKATËS AKTUALE DHE TË CERTIFIKATËS FIZIKE TË GUSHT 1991\nKUFIZOHEN VEPRIMET DERI NË PLOTËSIMIN E DOKUMENTACIONIT\r\n"}},
{"type":"Feature","geometry":{"type":"Polygon","coordinates":[[[19.803728386824684,42.20754716503101],[19.803736255160423,42.207565409736965],[19.803654879129237,42.20757601447091],[19.803488232615724,42.20759773126318],[19.80323094326441,42.207253291801784],[19.803369945605336,42.207079869251494],[19.803728386824684,42.20754716503101]]]},"properties":{"SIPERFAQJA":1164.4,"NR_ZK":2907,"EMRI_ZK":"PEPSUMAJ","VOL":"1","FAQE":"144","NR__PASURI":"516/2","PRONESIA":"SHTET","SHENIME_NE":"NDUE ZEF KODRARI"}},
{"type":"Feature","geometry":{"type":"Polygon","coordinates":[[[19.803116834087753,42.20774890279261],[19.802987292171334,42.2075618576287],[19.803129542602008,42.20744412052329],[19.80323094326441,42.207253291801784],[19.803488232615724,42.20759773126318],[19.80319125709752,42.20771491061079],[19.803116834087753,42.20774890279261]]]},"properties":{"SIPERFAQJA":1045.62,"NR_ZK":2907,"EMRI_ZK":"PEPSUMAJ","VOL":"1","FAQE":"145","NR__PASURI":"517/1","PRONESIA":"SHTET","SHENIME_NE":"SUBJEKT I PAIDENTIFIKUAR"}},
{"type":"Feature","geometry":{"type":"Polygon","coordinates":[[[19.803725880230818,42.20766583659986],[19.80424936993958,42.20750166923326],[19.803948062000693,42.207946361976475],[19.803671658494657,42.207842450851444],[19.803725880230818,42.20766583659986]]]},"properties":{"SIPERFAQJA":1377.38,"NR_ZK":2907,"EMRI_ZK":"PEPSUMAJ","VOL":"1","FAQE":"177","NR__PASURI":"539/3","PRONESIA":"SHTET","SHENIME_NE":"SUBJEKT I PAIDENTIFIKUAR"}},
{"type":"Feature","geometry":{"type":"Polygon","coordinates":[[[19.80319125709752,42.20771491061079],[19.803488232615724,42.20759773126318],[19.803654879129237,42.20757601447091],[19.803725880230818,42.20766583659986],[19.803671658494657,42.207842450851444],[19.80342944666568,42.207937889288736],[19.80319125709752,42.20771491061079]]]},"properties":{"SIPERFAQJA":955.15,"NR_ZK":2907,"EMRI_ZK":"PEPSUMAJ","VOL":"1","FAQE":"129","NR__PASURI":"511/1","PRONESIA":"SHTET","SHENIME_NE":"SUBJEKT I PAIDENTIFIKUAR"}},
{"type":"Feature","geometry":{"type":"Polygon","coordinates":[[[19.802891862951526,42.20810830438186],[19.802820443643448,42.20816659306429],[19.802643329200905,42.20800635008374],[19.802891862951526,42.20810830438186]]]},"properties":{"SIPERFAQJA":330.188,"NR_ZK":2907,"EMRI_ZK":"PEPSUMAJ","VOL":"1","FAQE":"132","NR__PASURI":"511/4","PRONESIA":"SHTET","SHENIME_NE":"SUBJEKT I PAIDENTIFIKUAR"}},
{"type":"Feature","geometry":{"type":"Polygon","coordinates":[[[19.802849575833026,42.20820864257009],[19.802820443643448,42.20816659306429],[19.802891862951526,42.20810830438186],[19.803135461885173,42.20808595756997],[19.80342944666568,42.207937889288736],[19.803671658494657,42.207842450851444],[19.803948062000693,42.207946361976475],[19.80385238659132,42.20800369685192],[19.802849575833026,42.20820864257009]]]},"properties":{"SIPERFAQJA":738.161,"NR_ZK":2907,"EMRI_ZK":"PEPSUMAJ","VOL":"1","FAQE":"128","NR__PASURI":"510/2","PRONESIA":"SHTET","SHENIME_NE":"_"}},
{"type":"Feature","geometry":{"type":"Polygon","coordinates":[[[19.80306397088884,42.20702153749882],[19.80307233357628,42.20709677300601],[19.80287848869428,42.20696220434265],[19.802979965669685,42.20695242452883],[19.80306397088884,42.20702153749882]]]},"properties":{"SIPERFAQJA":119.835,"NR_ZK":2907,"EMRI_ZK":"PEPSUMAJ","VOL":"1","FAQE":"138","NR__PASURI":"514/5","PRONESIA":"SHTET","SHENIME_NE":"GJIN ZEF GURINI"}},
{"type":"Feature","geometry":{"type":"Polygon","coordinates":[[[19.804870934976485,42.20740053577174],[19.804852201260836,42.207373477035986],[19.80494088612258,42.20725344267604],[19.805274613628953,42.20711075085899],[19.80530792560344,42.20734360887043],[19.805199775537076,42.20754381908081],[19.804870934976485,42.20740053577174]]]},"properties":{"SIPERFAQJA":910.281,"NR_ZK":2907,"EMRI_ZK":"PEPSUMAJ","VOL":"1","FAQE":"168","NR__PASURI":"536/1","PRONESIA":"SHTET","SHENIME_NE":"SUBJEKT I PAIDENTIFIKUAR"}},
{"type":"Feature","geometry":{"type":"Polygon","coordinates":[[[19.804852201260836,42.207373477035986],[19.804816010459422,42.20727831549296],[19.80494088612258,42.20725344267604],[19.804852201260836,42.207373477035986]]]},"properties":{"SIPERFAQJA":95.6493,"NR_ZK":2907,"EMRI_ZK":"PEPSUMAJ","VOL":"1","FAQE":"170","NR__PASURI":"536/3","PRONESIA":"SHTET","SHENIME_NE":"NDUE DED RRUSHINI, GEZIM DAK RRUSHINI, VASEL LIN RRUSHINI, SOKOL PREL RRUSHINI, EMILJANO GJOK RRUSHINI"}},
{"type":"Feature","geometry":{"type":"Polygon","coordinates":[[[19.80477924032094,42.207431377628865],[19.804704009357486,42.20729551054087],[19.804816010459422,42.20727831549296],[19.804852201260836,42.207373477035986],[19.804870934976485,42.20740053577174],[19.80477924032094,42.207431377628865]]]},"properties":{"SIPERFAQJA":130.141,"NR_ZK":2907,"EMRI_ZK":"PEPSUMAJ","VOL":"1","FAQE":"171","NR__PASURI":"536/4","PRONESIA":"SHTET","SHENIME_NE":"GJIN ZEF GURINI"}},
{"type":"Feature","geometry":{"type":"Polygon","coordinates":[[[19.804247737448733,42.20777169402555],[19.804327179488897,42.20751999523838],[19.804580327272383,42.207398126750526],[19.80471536637007,42.20744944406919],[19.80462148671125,42.2076937137259],[19.804247737448733,42.20777169402555]]]},"properties":{"SIPERFAQJA":847.816,"NR_ZK":2907,"EMRI_ZK":"PEPSUMAJ","VOL":"1","FAQE":"174","NR__PASURI":"536/7","PRONESIA":"SHTET","SHENIME_NE":"SUBJEKT I PAIDENTIFIKUAR"}},
{"type":"Feature","geometry":{"type":"Polygon","coordinates":[[[19.804327179488897,42.20751999523838],[19.804502169669178,42.207320227303775],[19.804580327272383,42.207398126750526],[19.804327179488897,42.20751999523838]]]},"properties":{"SIPERFAQJA":294.525,"NR_ZK":2907,"EMRI_ZK":"PEPSUMAJ","VOL":"1","FAQE":"173","NR__PASURI":"536/6","PRONESIA":"SHTET","SHENIME_NE":"NDUE DED RRUSHINI, GEZIM DAK RRUSHINI, VASEL LIN RRUSHINI, SOKOL PREL RRUSHINI, EMILJANO GJOK RRUSHINI"}},
{"type":"Feature","geometry":{"type":"Polygon","coordinates":[[[19.803927391728458,42.208587982191354],[19.803827725257424,42.20838035109014],[19.803835935054177,42.20807423527969],[19.803887180832668,42.20802893571343],[19.804396868980902,42.20795824690875],[19.805240041006453,42.207706781376956],[19.805199775537076,42.20754381908081],[19.80530792560344,42.20734360887043],[19.805755181802056,42.20827543699952],[19.80503862657687,42.208557707968446],[19.804766684678906,42.208502655671964],[19.804426571343168,42.208178392596864],[19.804122625640925,42.208604105682085],[19.804045655671732,42.20862757247018],[19.803927391728458,42.208587982191354]]]},"properties":{"SIPERFAQJA":4746.18,"NR_ZK":2907,"EMRI_ZK":"PEPSUMAJ","VOL":"1","FAQE":"153","NR__PASURI":"532/3","PRONESIA":"SHTET","SHENIME_NE":"_"}},
{"type":"Feature","geometry":{"type":"Polygon","coordinates":[[[19.804081991137448,42.20710976693255],[19.80416190949881,42.207086735492254],[19.804228532201392,42.20706836347425],[19.80425199163012,42.2070635445344],[19.804325740523804,42.20720323006305],[19.80423766615766,42.20722115405965],[19.80416399882813,42.207244764497226],[19.804081991137448,42.20710976693255]]]},"properties":{"SIPERFAQJA":155.863,"NR_ZK":2907,"EMRI_ZK":"PEPSUMAJ","VOL":"1","FAQE":"155","NR__PASURI":"534/2","PRONESIA":"SHTET","SHENIME_NE":"DEDE FRAN SHKOLLARI"}},
{"type":"Feature","geometry":{"type":"Polygon","coordinates":[[[19.804325740523804,42.20720323006305],[19.804347591253652,42.207308687049924],[19.804276482002678,42.20732643663713],[19.80423766615766,42.20722115405965],[19.804325740523804,42.20720323006305]]]},"properties":{"SIPERFAQJA":81.8928,"NR_ZK":2907,"EMRI_ZK":"PEPSUMAJ","VOL":"1","FAQE":"154","NR__PASURI":"534/1","PRONESIA":"SHTET","SHENIME_NE":"DEDE SHAN GURINI, GJERGJ SHAN GURINI, VALENTIN GZIM GURINI"}},
{"type":"Feature","geometry":{"type":"Polygon","coordinates":[[[19.80416399882813,42.207244764497226],[19.80423766615766,42.20722115405965],[19.804276482002678,42.20732643663713],[19.804059413877358,42.207406791080814],[19.804031721472533,42.20731285383308],[19.80416399882813,42.207244764497226]]]},"properties":{"SIPERFAQJA":266.398,"NR_ZK":2907,"EMRI_ZK":"PEPSUMAJ","VOL":"1","FAQE":"140","NR__PASURI":"515/1","PRONESIA":"SHTET","SHENIME_NE":"SUBJEKT I PAIDENTIFIKUAR"}},
{"type":"Feature","geometry":{"type":"Polygon","coordinates":[[[19.804031721472533,42.20731285383308],[19.804059413877358,42.207406791080814],[19.80401517215691,42.20741561897266],[19.804031721472533,42.20731285383308]]]},"properties":{"SIPERFAQJA":40.8586,"NR_ZK":2907,"EMRI_ZK":"PEPSUMAJ","VOL":"1","FAQE":"141","NR__PASURI":"515/2","PRONESIA":"SHTET","SHENIME_NE":"PJETER ZOGE LIVADHI, LENE MARK LIVADHI, DALINE DOSHE LIVADHI, LULE, SOSE, SOKOL, FRAN AGE, MHILL, NDOC PJETER LIVADHI"}},
{"type":"Feature","geometry":{"type":"Polygon","coordinates":[[[19.803736255160423,42.207565409736965],[19.80424936993958,42.20750166923326],[19.803725880230818,42.20766583659986],[19.803654879129237,42.20757601447091],[19.803736255160423,42.207565409736965]]]},"properties":{"SIPERFAQJA":630.52,"NR_ZK":2907,"EMRI_ZK":"PEPSUMAJ","VOL":"1","FAQE":"178","NR__PASURI":"539/4","PRONESIA":"SHTET","SHENIME_NE":"LEKE GJELOSH KRONIKU,ALFRED NIKOLL KRONIKU,ARMANDO MARASH KRONIKU,JOZEF PASHKO KRONIKU,MARKO LULASH KRONIKU"}},
{"type":"Feature","geometry":{"type":"Polygon","coordinates":[[[19.802600320499796,42.20847898110658],[19.80253401725136,42.208445859508444],[19.80296138002411,42.2083992425941],[19.803518643473026,42.20826064234428],[19.80385238659132,42.20800369685192],[19.803948062000693,42.207946361976475],[19.80424936993958,42.20750166923326],[19.803736255160423,42.207565409736965],[19.803728386824684,42.20754716503101],[19.8039007242127,42.20748831151257],[19.80401517215691,42.20741561897266],[19.804059413877358,42.207406791080814],[19.804276482002678,42.20732643663713],[19.804347591253652,42.207308687049924],[19.80438185077968,42.20731059242411],[19.804510845053585,42.207293177282686],[19.80471107382565,42.20726104610405],[19.805124865608107,42.207138317980714],[19.805234548047398,42.20708707847501],[19.805274613628953,42.20711075085899],[19.80494088612258,42.20725344267604],[19.804816010459422,42.20727831549296],[19.804704009357486,42.20729551054087],[19.804502169669178,42.207320227303775],[19.804327179488897,42.20751999523838],[19.804247737448733,42.20777169402555],[19.80422699164756,42.20779087924941],[19.803887180832668,42.20802893571343],[19.803835935054177,42.20807423527969],[19.80370937653931,42.20819461535478],[19.803542722033022,42.20829219745585],[19.802600320499796,42.20847898110658]]]},"properties":{"SIPERFAQJA":1349.51,"NR_ZK":2907,"EMRI_ZK":"PEPSUMAJ","VOL":"1","FAQE":"176","NR__PASURI":"539/2","PRONESIA":"SHTET","SHENIME_NE":"_"}},
{"type":"Feature","geometry":{"type":"Polygon","coordinates":[[[19.80471107382565,42.20726104610405],[19.804510845053585,42.207293177282686],[19.80438185077968,42.20731059242411],[19.804347591253652,42.207308687049924],[19.804325740523804,42.20720323006305],[19.80425199163012,42.2070635445344],[19.80447760291775,42.2069976948974],[19.804540633927076,42.20704505655806],[19.80451324553135,42.207061884892084],[19.804570897043458,42.20720243010592],[19.8046900029856,42.207154285653296],[19.80471107382565,42.20726104610405]]]},"properties":{"SIPERFAQJA":440.091,"NR_ZK":2907,"EMRI_ZK":"PEPSUMAJ","VOL":"1","FAQE":"166","NR__PASURI":"535/6","PRONESIA":"SHTET","SHENIME_NE":"_"}},
{"type":"Feature","geometry":{"type":"Polygon","coordinates":[[[19.79923622891226,42.22635818529314],[19.799489053881427,42.226539566782144],[19.799058361093955,42.22641042436124],[19.79923622891226,42.22635818529314]]]},"properties":{"SIPERFAQJA":1137.71,"NR_ZK":2907,"EMRI_ZK":"PEPSUMAJ","VOL":"1","FAQE":"85","NR__PASURI":"468","PRONESIA":"SHTET","SHENIME_NE":"KLOD PRELE MILANI"}},
{"type":"Feature","geometry":{"type":"Polygon","coordinates":[[[19.79923622891226,42.22635818529314],[19.799394345462712,42.22631360079619],[19.799489053881427,42.226539566782144],[19.79923622891226,42.22635818529314]]]},"properties":{"SIPERFAQJA":368.748,"NR_ZK":2907,"EMRI_ZK":"PEPSUMAJ","VOL":"1","FAQE":"84","NR__PASURI":"467","PRONESIA":"SHTET","SHENIME_NE":"KLOD PRELE MILANI"}},
{"type":"Feature","geometry":{"type":"Polygon","coordinates":[[[19.799058361093955,42.22641042436124],[19.798849187873348,42.22623523852498],[19.799443505266826,42.22615982253157],[19.799394345462712,42.22631360079619],[19.79923622891226,42.22635818529314],[19.799058361093955,42.22641042436124]]]},"properties":{"SIPERFAQJA":518.25,"NR_ZK":2907,"EMRI_ZK":"PEPSUMAJ","VOL":"1","FAQE":"112","NR__PASURI":"476/2","PRONESIA":"SHTET","SHENIME_NE":"_"}},
{"type":"Feature","geometry":{"type":"Polygon","coordinates":[[[19.79626877966025,42.22604139083164],[19.796838668039328,42.226436871537885],[19.796459668857267,42.22649928746042],[19.79626877966025,42.22604139083164]]]},"properties":{"SIPERFAQJA":3107.34,"NR_ZK":2907,"EMRI_ZK":"PEPSUMAJ","VOL":"1","FAQE":"110","NR__PASURI":"473/3","PRONESIA":"SHTET","SHENIME_NE":"GJERGJ PAL BUNGU, FLORJAN KOL BUNGU"}},
{"type":"Feature","geometry":{"type":"Polygon","coordinates":[[[19.79679150293045,42.22586293950295],[19.797050400979337,42.22610096981102],[19.796923214071136,42.226420422999404],[19.796403265116457,42.2260005552876],[19.79679150293045,42.22586293950295]]]},"properties":{"SIPERFAQJA":681.61,"NR_ZK":2907,"EMRI_ZK":"PEPSUMAJ","VOL":"1","FAQE":"109","NR__PASURI":"473/2","PRONESIA":"SHTET","SHENIME_NE":"_"}},
{"type":"Feature","geometry":{"type":"Polygon","coordinates":[[[19.79679150293045,42.22586293950295],[19.797024456293208,42.225727192524204],[19.797158377168916,42.226020945268885],[19.797050400979337,42.22610096981102],[19.79679150293045,42.22586293950295]]]},"properties":{"SIPERFAQJA":826.823,"NR_ZK":2907,"EMRI_ZK":"PEPSUMAJ","VOL":"1","FAQE":"108","NR__PASURI":"473/1","PRONESIA":"SHTET","SHENIME_NE":"_"}},
{"type":"Feature","geometry":{"type":"Polygon","coordinates":[[[19.796378147956307,42.225524920672946],[19.796606597991758,42.22589945180718],[19.796267122231345,42.22599665711063],[19.796378147956307,42.225524920672946]]]},"properties":{"SIPERFAQJA":1970.44,"NR_ZK":2907,"EMRI_ZK":"PEPSUMAJ","VOL":"1","FAQE":"105","NR__PASURI":"472/1","PRONESIA":"SHTET","SHENIME_NE":"MIKEL GJON SHPATI"}},
{"type":"Feature","geometry":{"type":"Polygon","coordinates":[[[19.795712565499283,42.22591756996184],[19.795951108372318,42.22550827583294],[19.79605096625727,42.225485437396365],[19.79632663337406,42.225498827472464],[19.795712565499283,42.22591756996184]]]},"properties":{"SIPERFAQJA":1104.38,"NR_ZK":2907,"EMRI_ZK":"PEPSUMAJ","VOL":"1","FAQE":"107","NR__PASURI":"472/3","PRONESIA":"SHTET","SHENIME_NE":"MIKEL GJON SHPATI"}},
{"type":"Feature","geometry":{"type":"Polygon","coordinates":[[[19.79626877966025,42.22604139083164],[19.795712565499283,42.22591756996184],[19.79632663337406,42.225498827472464],[19.795887341017956,42.22458800470781],[19.795964230863834,42.22460001530756],[19.796378147956307,42.225524920672946],[19.796267122231345,42.22599665711063],[19.796403265116457,42.2260005552876],[19.796923214071136,42.226420422999404],[19.796838668039328,42.226436871537885],[19.79626877966025,42.22604139083164]]]},"properties":{"SIPERFAQJA":1755.06,"NR_ZK":2907,"EMRI_ZK":"PEPSUMAJ","VOL":"1","FAQE":"106","NR__PASURI":"472/2","PRONESIA":"SHTET","SHENIME_NE":"_"}},
{"type":"Feature","geometry":{"type":"Polygon","coordinates":[[[19.796459668857267,42.22649928746042],[19.794416934406513,42.22556633642989],[19.795887341017956,42.22458800470781],[19.79632663337406,42.225498827472464],[19.79605096625727,42.225485437396365],[19.795951108372318,42.22550827583294],[19.795712565499283,42.22591756996184],[19.79626877966025,42.22604139083164],[19.796459668857267,42.22649928746042]]]},"properties":{"SIPERFAQJA":26522.5,"NR_ZK":2907,"EMRI_ZK":"PEPSUMAJ","VOL":"1","FAQE":"120","NR__PASURI":"482/2","PRONESIA":"SHTET","SHENIME_NE":"_"}},
{"type":"Feature","geometry":{"type":"Polygon","coordinates":[[[19.79698603223238,42.225391404141206],[19.796434132238154,42.22467675993252],[19.79704226085252,42.22475816998517],[19.797075918341925,42.2247824326752],[19.79698603223238,42.225391404141206]]]},"properties":{"SIPERFAQJA":1448.78,"NR_ZK":2907,"EMRI_ZK":"PEPSUMAJ","VOL":"1","FAQE":"121","NR__PASURI":"483/1","PRONESIA":"SHTET","SHENIME_NE":"_"}},
{"type":"Feature","geometry":{"type":"Polygon","coordinates":[[[19.796403265116457,42.2260005552876],[19.796267122231345,42.22599665711063],[19.796606597991758,42.22589945180718],[19.796351411936868,42.22466233575073],[19.796434132238154,42.22467675993252],[19.79698603223238,42.225391404141206],[19.797890231874586,42.225340147579026],[19.798643117230775,42.22513547964147],[19.79893057135717,42.22517933438635],[19.798505817815016,42.2252419941231],[19.7980068096972,42.22538415648747],[19.79734185257652,42.22557421151883],[19.797024456293208,42.225727192524204],[19.79679150293045,42.22586293950295],[19.796403265116457,42.2260005552876]]]},"properties":{"SIPERFAQJA":2366.09,"NR_ZK":2907,"EMRI_ZK":"PEPSUMAJ","VOL":"1","FAQE":"122","NR__PASURI":"483/2","PRONESIA":"SHTET","SHENIME_NE":"_"}},
{"type":"Feature","geometry":{"type":"Polygon","coordinates":[[[19.796378147956307,42.225524920672946],[19.795964230863834,42.22460001530756],[19.796351411936868,42.22466233575073],[19.796606597991758,42.22589945180718],[19.796378147956307,42.225524920672946]]]},"properties":{"SIPERFAQJA":3178.92,"NR_ZK":2907,"EMRI_ZK":"PEPSUMAJ","VOL":"1","FAQE":"124","NR__PASURI":"483/4","PRONESIA":"SHTET","SHENIME_NE":"_"}},
{"type":"Feature","geometry":{"type":"Polygon","coordinates":[[[19.7980068096972,42.22538415648747],[19.798008007836643,42.22542024475611],[19.798012512114198,42.22574173183292],[19.797583436055763,42.226060772987864],[19.79734185257652,42.22557421151883],[19.7980068096972,42.22538415648747]]]},"properties":{"SIPERFAQJA":2673.48,"NR_ZK":2907,"EMRI_ZK":"PEPSUMAJ","VOL":"1","FAQE":"113","NR__PASURI":"477/1","PRONESIA":"SHTET","SHENIME_NE":"KLOD PRELE MILANI"}},
{"type":"Feature","geometry":{"type":"Polygon","coordinates":[[[19.797024456293208,42.225727192524204],[19.79734185257652,42.22557421151883],[19.797583436055763,42.226060772987864],[19.797158377168916,42.226020945268885],[19.797024456293208,42.225727192524204]]]},"properties":{"SIPERFAQJA":1381,"NR_ZK":2907,"EMRI_ZK":"PEPSUMAJ","VOL":"1","FAQE":"114","NR__PASURI":"477/2","PRONESIA":"SHTET","SHENIME_NE":"SUBJEKT I PAIDENTIFIKUAR"}},
{"type":"Feature","geometry":{"type":"Polygon","coordinates":[[[19.798981275802568,42.22536515367484],[19.79845797117508,42.22571204618155],[19.798498357365336,42.225464556703585],[19.79863063574036,42.22543328270308],[19.798981275802568,42.22536515367484]]]},"properties":{"SIPERFAQJA":778.207,"NR_ZK":2907,"EMRI_ZK":"PEPSUMAJ","VOL":"1","FAQE":"115","NR__PASURI":"478/1","PRONESIA":"MARTIN DEDË FIKU\nLEZE PRELË FIKU\nFRAN MARTIN FIKU\nLULË MARTIN FIKU\nLUSH MARTIN FIKU\nGJYSTE MARTIN FIKU","SHENIME_NE":"KJO PASURI KA DIFERENCË FAKT-DOKUMENT BRENDA 20% TË TOTALIT TË AMTP-SË\nKUFIZIM PËR MUNGESË TË ÇERTIFIKATËS AKTUALE DHE TË CERTIFIKATËS FIZIKE TË GUSHT 1991"}},
{"type":"Feature","geometry":{"type":"Polygon","coordinates":[[[19.798008007836643,42.22542024475611],[19.798498357365336,42.225464556703585],[19.79845797117508,42.22571204618155],[19.798012512114198,42.22574173183292],[19.798008007836643,42.22542024475611]]]},"properties":{"SIPERFAQJA":1069.5,"NR_ZK":2907,"EMRI_ZK":"PEPSUMAJ","VOL":"1","FAQE":"116","NR__PASURI":"478/2","PRONESIA":"DEDË LUSH FIKU\nKATRINË TOMË FIKU\nNDUE DEDË FIKU\nNDOC DEDË FIKU\nDRANDE DEDË FIKU\nMIRE DEDË FIKU\nPRENDË DEDË FIKU\nKOLË NDUE FIKU","SHENIME_NE":"KUFIZOHEN VEPRIMET DERI NË PLOTËSIMIN E DOKUMENTACIONIT\nKUFIZIM PËR MUNGESË TË ÇERTIFIKATËS AKTUALE DHE TË CERTIFIKATËS FIZIKE TË GUSHT 1991"}},
{"type":"Feature","geometry":{"type":"Polygon","coordinates":[[[19.79893057135717,42.22517933438635],[19.798981275802568,42.22536515367484],[19.79863063574036,42.22543328270308],[19.798505817815016,42.2252419941231],[19.79893057135717,42.22517933438635]]]},"properties":{"SIPERFAQJA":868.342,"NR_ZK":2907,"EMRI_ZK":"PEPSUMAJ","VOL":"1","FAQE":"117","NR__PASURI":"479/1","PRONESIA":"MARTIN DEDË FIKU\nLEZE PRELË FIKU\nFRAN MARTIN FIKU\nLULË MARTIN FIKU\nLUSH MARTIN FIKU\nGJYSTE MARTIN FIKU","SHENIME_NE":"KJO PASURI KA DIFERENCË FAKT-DOKUMENT BRENDA 20% TË TOTALIT TË AMTP-SË\r\n\nKUFIZIM PËR MUNGESË TË ÇERTIFIKATËS AKTUALE DHE TË CERTIFIKATËS FIZIKE TË GUSHT 1991"}},
{"type":"Feature","geometry":{"type":"Polygon","coordinates":[[[19.798505817815016,42.2252419941231],[19.79863063574036,42.22543328270308],[19.798498357365336,42.225464556703585],[19.798008007836643,42.22542024475611],[19.7980068096972,42.22538415648747],[19.798505817815016,42.2252419941231]]]},"properties":{"SIPERFAQJA":713.915,"NR_ZK":2907,"EMRI_ZK":"PEPSUMAJ","VOL":"1","FAQE":"118","NR__PASURI":"479/2","PRONESIA":"SHTET","SHENIME_NE":"NDUE DEDE FIKU"}},
{"type":"Feature","geometry":{"type":"Polygon","coordinates":[[[19.797075918341925,42.2247824326752],[19.797890231874586,42.225340147579026],[19.79698603223238,42.225391404141206],[19.797075918341925,42.2247824326752]]]},"properties":{"SIPERFAQJA":3521.72,"NR_ZK":2907,"EMRI_ZK":"PEPSUMAJ","VOL":"1","FAQE":"88","NR__PASURI":"484","PRONESIA":"SHTET","SHENIME_NE":"NIKOLIN KOLE LAMI"}},
{"type":"Feature","geometry":{"type":"Polygon","coordinates":[[[19.79704226085252,42.22475816998517],[19.797448346775802,42.22384952661608],[19.79876991380917,42.224079209466446],[19.7992650114535,42.22467729494313],[19.79813076571443,42.224778649787595],[19.798288037400525,42.22464681722141],[19.798427786412503,42.22446616884983],[19.798048308390833,42.224328926036065],[19.797771863259797,42.224378663952116],[19.79792082161903,42.22470732848382],[19.79791735133909,42.22479113734179],[19.79704226085252,42.22475816998517]]]},"properties":{"SIPERFAQJA":11143.4,"NR_ZK":2907,"EMRI_ZK":"PEPSUMAJ","VOL":"1","FAQE":"126","NR__PASURI":"486/2","PRONESIA":"SHTET","SHENIME_NE":"_"}},
{"type":"Feature","geometry":{"type":"Polygon","coordinates":[[[19.798288037400525,42.22464681722141],[19.798084092879773,42.22460686008458],[19.797902629896548,42.22463944348971],[19.797771863259797,42.224378663952116],[19.798048308390833,42.224328926036065],[19.798427786412503,42.22446616884983],[19.798288037400525,42.22464681722141]]]},"properties":{"SIPERFAQJA":911.511,"NR_ZK":2907,"EMRI_ZK":"PEPSUMAJ","VOL":"1","FAQE":"125","NR__PASURI":"486/1","PRONESIA":"SHTET","SHENIME_NE":"MARK MARASH LAMI"}},
{"type":"Feature","geometry":{"type":"Polygon","coordinates":[[[19.79813076571443,42.224778649787595],[19.798084092879773,42.22460686008458],[19.798288037400525,42.22464681722141],[19.79813076571443,42.224778649787595]]]},"properties":{"SIPERFAQJA":230.016,"NR_ZK":2907,"EMRI_ZK":"PEPSUMAJ","VOL":"1","FAQE":"86","NR__PASURI":"480","PRONESIA":"MARASH NIKË LAMI\nKUSHË NDOC LAMI\nLULË MARASH LAMI\nMARK MARASH LAMI\nXHINË MARASH LAMI\nSOKOL MARASH LAMI\nBARDHE MARASH LAMI\nSHKURTE MARASH LAMI\nGRETA MARASH LAMI","SHENIME_NE":"KJO PASURI KA DIFERENCË FAKT-DOKUMENT MBI 20% TË TOTALIT TË AMTP-SË\nKUFIZIM PËR MUNGESË TË ÇERTIFIKATËS AKTUALE DHE TË CERTIFIKATËS FIZIKE TË GUSHT 1991"}},
{"type":"Feature","geometry":{"type":"Polygon","coordinates":[[[19.79792082161903,42.22470732848382],[19.797902629896548,42.22463944348971],[19.798084092879773,42.22460686008458],[19.79813076571443,42.224778649787595],[19.79791735133909,42.22479113734179],[19.79792082161903,42.22470732848382]]]},"properties":{"SIPERFAQJA":291.124,"NR_ZK":2907,"EMRI_ZK":"PEPSUMAJ","VOL":"1","FAQE":"87","NR__PASURI":"481","PRONESIA":"SHTET","SHENIME_NE":"MARK MARASH LAMI"}},
{"type":"Feature","geometry":{"type":"Polygon","coordinates":[[[19.797771863259797,42.224378663952116],[19.797902629896548,42.22463944348971],[19.79792082161903,42.22470732848382],[19.797771863259797,42.224378663952116]]]},"properties":{"SIPERFAQJA":3290.82,"NR_ZK":2907,"EMRI_ZK":"PEPSUMAJ","VOL":"1","FAQE":"89","NR__PASURI":"485","PRONESIA":"SHTET","SHENIME_NE":"NIKOLIN KOLE LAMI"}},
{"type":"Feature","geometry":{"type":"Polygon","coordinates":[[[19.802443555275918,42.20782741884072],[19.80242199080953,42.2077660513705],[19.802566805037095,42.20759402654121],[19.802269127309646,42.20733290808423],[19.802145133642288,42.20757745244032],[19.802081827457634,42.20756585680195],[19.803697149883487,42.2049862899679],[19.80509247952673,42.20700313832778],[19.804985081209306,42.20702572651238],[19.804569856076892,42.20702936393477],[19.804540633927076,42.20704505655806],[19.80447760291775,42.2069976948974],[19.804362027591903,42.206910851029434],[19.80397211980772,42.20689864625665],[19.803652357049476,42.20702983422437],[19.803369945605336,42.207079869251494],[19.80323094326441,42.207253291801784],[19.803129542602008,42.20744412052329],[19.802987292171334,42.2075618576287],[19.803116834087753,42.20774890279261],[19.802972653871592,42.207814755841675],[19.802443555275918,42.20782741884072]],[[19.80306397088884,42.20702153749882],[19.802979965669685,42.20695242452883],[19.80287848869428,42.20696220434265],[19.80307233357628,42.20709677300601],[19.80306397088884,42.20702153749882]]]},"properties":{"SIPERFAQJA":54321.3,"NR_ZK":2907,"EMRI_ZK":"PEPSUMAJ","VOL":"1","FAQE":"160","NR__PASURI":"534/7","PRONESIA":"SHTET","SHENIME_NE":"_"}},
{"type":"Feature","geometry":{"type":"Polygon","coordinates":[[[19.814837535343592,42.20024496815602],[19.80945974760951,42.19784989772796],[19.808869809832146,42.19751117598976],[19.807892571379124,42.19768280181717],[19.808474793782583,42.19360145000636],[19.805826179417043,42.19280394937258],[19.805271622118827,42.19260527805591],[19.81104554427454,42.190876557511494],[19.816102853159915,42.194132838663336],[19.81807923081674,42.19764907846513],[19.817423319694413,42.201148409332916],[19.816156725345166,42.19680839598915],[19.81229186812248,42.19655440718108],[19.814138908533543,42.1989951519397],[19.814837535343592,42.20024496815602]]]},"properties":{"SIPERFAQJA":386487,"NR_ZK":2907,"EMRI_ZK":"PEPSUMAJ","VOL":"1","FAQE":"44","NR__PASURI":"41","PRONESIA":"BASHKIA SHKODËR","SHENIME_NE":"_"}},
{"type":"Feature","geometry":{"type":"Polygon","coordinates":[[[19.798115640098796,42.220407701208764],[19.79947598785151,42.2183463698582],[19.800596821599722,42.220758402615544],[19.801731346099906,42.22134610319547],[19.798115640098796,42.220407701208764]]]},"properties":{"SIPERFAQJA":34904.3,"NR_ZK":2907,"EMRI_ZK":"PEPSUMAJ","VOL":"1","FAQE":"26","NR__PASURI":"9","PRONESIA":"BASHKIA SHKODËR","SHENIME_NE":"_"}},
{"type":"Feature","geometry":{"type":"Polygon","coordinates":[[[19.807892571379124,42.19768280181717],[19.80386598645921,42.199557727519505],[19.800321303372748,42.19719803934213],[19.79728047703726,42.1963667826704],[19.79543007519311,42.19147016682748],[19.796613538346914,42.18731059755751],[19.796196626626443,42.18605319172251],[19.801379448005363,42.18979975297597],[19.805271622118827,42.19260527805591],[19.805826179417043,42.19280394937258],[19.808474793782583,42.19360145000636],[19.807892571379124,42.19768280181717]]]},"properties":{"SIPERFAQJA":829156,"NR_ZK":2907,"EMRI_ZK":"PEPSUMAJ","VOL":"1","FAQE":"54","NR__PASURI":"36","PRONESIA":"BASHKIA SHKODËR","SHENIME_NE":"_"}},
{"type":"Feature","geometry":{"type":"Polygon","coordinates":[[[19.823056328893916,42.21651191814186],[19.82029906890456,42.21675565468742],[19.819526529434214,42.216730070218794],[19.81754141682546,42.21675575018968],[19.817029898374663,42.21664855858319],[19.812972906137624,42.223692151979485],[19.806881615626743,42.22534412034067],[19.804012827011114,42.22321051273918],[19.80853159343655,42.22055806039059],[19.808880911241562,42.21445404225748],[19.811216676011565,42.211003863474886],[19.818935383592795,42.20872559622092],[19.81897417373099,42.20818002247731],[19.810265804804015,42.20830487584111],[19.811672273041054,42.20735942336412],[19.819183684155785,42.20484493358122],[19.81968336621883,42.2056825451211],[19.822289249943832,42.207273683606495],[19.82505255459178,42.21226907687221],[19.82635256931378,42.21477158803541],[19.823056328893916,42.21651191814186]]]},"properties":{"SIPERFAQJA":1614220,"NR_ZK":2907,"EMRI_ZK":"PEPSUMAJ","VOL":"1","FAQE":"58","NR__PASURI":"16","PRONESIA":"BASHKIA SHKODËR","SHENIME_NE":"_"}},
{"type":"Feature","geometry":{"type":"Polygon","coordinates":[[[19.804897949794892,42.200179726235184],[19.805209655745664,42.20136033635646],[19.80509012021178,42.20270743777124],[19.808643720115196,42.20442424810121],[19.81045871618993,42.20618549744914],[19.810265804804015,42.20830487584111],[19.809934570123282,42.20912289716261],[19.806374291870736,42.21639770392146],[19.800938047386744,42.22082834557928],[19.799374657829947,42.217461484086044],[19.80020626343307,42.21550836177647],[19.794909114365662,42.21066685741491],[19.79277524497031,42.20628226263736],[19.795464274100915,42.20266165996786],[19.79558392168949,42.198230256989085],[19.797866510605928,42.19663938174424],[19.804897949794892,42.200179726235184]],[[19.80406158670349,42.20880808026684],[19.804403400104828,42.208821496825315],[19.804531456416864,42.208800374373865],[19.804874299602595,42.20864135239275],[19.80503862657687,42.208557707968446],[19.805755181802056,42.20827543699952],[19.80530792560344,42.20734360887043],[19.805274613628953,42.20711075085899],[19.805234548047398,42.20708707847501],[19.80509247952673,42.20700313832778],[19.803697149883487,42.2049862899679],[19.802081827457634,42.20756585680195],[19.80253401725136,42.208445859508444],[19.802600320499796,42.20847898110658],[19.80304798170999,42.2088240305739],[19.80406158670349,42.20880808026684]]]},"properties":{"SIPERFAQJA":2005880,"NR_ZK":2907,"EMRI_ZK":"PEPSUMAJ","VOL":"1","FAQE":"22","NR__PASURI":"4","PRONESIA":"BASHKIA SHKODËR","SHENIME_NE":"_"}},
{"type":"Feature","geometry":{"type":"Polygon","coordinates":[[[19.798115640098796,42.220407701208764],[19.79356606190067,42.22039600780595],[19.794345753975747,42.22180812058207],[19.80434466887347,42.22361432056559],[19.806487529429514,42.225425678296084],[19.80654019058017,42.228123826797],[19.80092118116782,42.228142620742844],[19.79262169913513,42.230666381813165],[19.791761348246702,42.226071344636175],[19.788357689135086,42.223126100016536],[19.78898769331035,42.220899751182785],[19.788791291357374,42.220364417229575],[19.788181146309668,42.21998550484766],[19.787879133266777,42.21935448262317],[19.786874160727084,42.218318613187186],[19.785934248290403,42.21781859228898],[19.78513490333921,42.21550439292479],[19.784889221075932,42.21132878212217],[19.784716797216923,42.20845577279954],[19.78379121889595,42.20642232457379],[19.782209592869656,42.20451570840918],[19.783268306266542,42.204032123474896],[19.785249881656696,42.20230329845245],[19.788012790577437,42.19814292610934],[19.79385110142153,42.19759707069429],[19.793640719371123,42.201260317590965],[19.79055969160964,42.20554769067539],[19.79172864393138,42.20795807976808],[19.792082292508933,42.21030350828779],[19.800022380463115,42.21548199638796],[19.79916287154581,42.21719451364587],[19.79947598785151,42.2183463698582],[19.798115640098796,42.220407701208764]],[[19.799489053881427,42.226539566782144],[19.799394345462712,42.22631360079619],[19.799443505266826,42.22615982253157],[19.798849187873348,42.22623523852498],[19.799058361093955,42.22641042436124],[19.799489053881427,42.226539566782144]],[[19.796838668039328,42.226436871537885],[19.796923214071136,42.226420422999404],[19.797050400979337,42.22610096981102],[19.797158377168916,42.226020945268885],[19.797583436055763,42.226060772987864],[19.798012512114198,42.22574173183292],[19.79845797117508,42.22571204618155],[19.798981275802568,42.22536515367484],[19.79893057135717,42.22517933438635],[19.798643117230775,42.22513547964147],[19.797890231874586,42.225340147579026],[19.797075918341925,42.2247824326752],[19.79704226085252,42.22475816998517],[19.796434132238154,42.22467675993252],[19.796351411936868,42.22466233575073],[19.795964230863834,42.22460001530756],[19.795887341017956,42.22458800470781],[19.794416934406513,42.22556633642989],[19.796459668857267,42.22649928746042],[19.796838668039328,42.226436871537885]],[[19.79704226085252,42.22475816998517],[19.79791735133909,42.22479113734179],[19.79813076571443,42.224778649787595],[19.7992650114535,42.22467729494313],[19.79876991380917,42.224079209466446],[19.797448346775802,42.22384952661608],[19.79704226085252,42.22475816998517]]]},"properties":{"SIPERFAQJA":2708150,"NR_ZK":2907,"EMRI_ZK":"PEPSUMAJ","VOL":"1","FAQE":"18","NR__PASURI":"2","PRONESIA":"BASHKIA SHKODËR","SHENIME_NE":"_"}},
{"type":"Feature","geometry":{"type":"Polygon","coordinates":[[[19.79385110142153,42.19759707069429],[19.795143820318547,42.202689199708004],[19.792416739998604,42.2051730392009],[19.79172864393138,42.20795807976808],[19.79055969160964,42.20554769067539],[19.793640719371123,42.201260317590965],[19.79385110142153,42.19759707069429]]]},"properties":{"SIPERFAQJA":166950,"NR_ZK":2907,"EMRI_ZK":"PEPSUMAJ","VOL":"1","FAQE":"21","NR__PASURI":"34","PRONESIA":"BASHKIA SHKODËR","SHENIME_NE":"_"}},
{"type":"Feature","geometry":{"type":"Polygon","coordinates":[[[19.822289249943832,42.207273683606495],[19.825870099637463,42.20536259172783],[19.82643532108481,42.20606744608598],[19.828027736464335,42.211053969741506],[19.82505255459178,42.21226907687221],[19.822289249943832,42.207273683606495]]]},"properties":{"SIPERFAQJA":220660,"NR_ZK":2907,"EMRI_ZK":"PEPSUMAJ","VOL":"1","FAQE":"81","NR__PASURI":"19","PRONESIA":"BASHKIA SHKODËR","SHENIME_NE":"_"}},
{"type":"Feature","geometry":{"type":"Polygon","coordinates":[[[19.82505255459178,42.21226907687221],[19.828027736464335,42.211053969741506],[19.82643532108481,42.20606744608598],[19.82935638874145,42.2051728134267],[19.82912887107559,42.20683744487319],[19.83164022483675,42.20792201588042],[19.832465614146994,42.21122521982608],[19.82866948565825,42.21530635223237],[19.826478354805392,42.21497918467502],[19.82635256931378,42.21477158803541],[19.82505255459178,42.21226907687221]]]},"properties":{"SIPERFAQJA":376903,"NR_ZK":2907,"EMRI_ZK":"PEPSUMAJ","VOL":"1","FAQE":"67","NR__PASURI":"18","PRONESIA":"BASHKIA SHKODËR","SHENIME_NE":"_"}},
{"type":"Feature","geometry":{"type":"Polygon","coordinates":[[[19.777979018344272,42.189017874062685],[19.77956328115962,42.185356132795704],[19.777131993250578,42.18550847006805],[19.774926067893293,42.18011909016029],[19.776470624409683,42.17230239202365],[19.778527805143234,42.16988004209916],[19.778299289034894,42.172986187244334],[19.78466723106829,42.176604261544654],[19.784875515221984,42.178057366955706],[19.785239831799107,42.18332953775187],[19.777979018344272,42.189017874062685]]]},"properties":{"SIPERFAQJA":942510,"NR_ZK":2907,"EMRI_ZK":"PEPSUMAJ","VOL":"1","FAQE":"35","NR__PASURI":"77","PRONESIA":"BASHKIA SHKODËR","SHENIME_NE":"_"}},
{"type":"Feature","geometry":{"type":"Polygon","coordinates":[[[19.794909114365662,42.21066685741491],[19.79238931967142,42.21009103326478],[19.79277524497031,42.20628226263736],[19.794909114365662,42.21066685741491]]]},"properties":{"SIPERFAQJA":68543.7,"NR_ZK":2907,"EMRI_ZK":"PEPSUMAJ","VOL":"1","FAQE":"23","NR__PASURI":"27","PRONESIA":"BASHKIA SHKODËR","SHENIME_NE":"_"}},
{"type":"Feature","geometry":{"type":"Polygon","coordinates":[[[19.79356606190067,42.22039600780595],[19.8031283389192,42.222594322869476],[19.80434466887347,42.22361432056559],[19.794345753975747,42.22180812058207],[19.79356606190067,42.22039600780595]]]},"properties":{"SIPERFAQJA":113571,"NR_ZK":2907,"EMRI_ZK":"PEPSUMAJ","VOL":"1","FAQE":"56","NR__PASURI":"3","PRONESIA":"BASHKIA SHKODËR","SHENIME_NE":"_"}},
{"type":"Feature","geometry":{"type":"Polygon","coordinates":[[[19.79728047703726,42.1963667826704],[19.791044585884332,42.19700906402732],[19.786991062335645,42.19721523162611],[19.78671825598498,42.199196592123],[19.786441220403248,42.19947533091356],[19.78489266622172,42.19841334331622],[19.781686445134614,42.19562905649472],[19.7778405778807,42.19517287609977],[19.777979018344272,42.189017874062685],[19.785239831799107,42.18332953775187],[19.784875515221984,42.178057366955706],[19.785359050481418,42.17899603943897],[19.78650592260451,42.180164865338455],[19.79288413493371,42.18556761580257],[19.796613538346914,42.18731059755751],[19.79543007519311,42.19147016682748],[19.79728047703726,42.1963667826704]]]},"properties":{"SIPERFAQJA":1757000,"NR_ZK":2907,"EMRI_ZK":"PEPSUMAJ","VOL":"1","FAQE":"29","NR__PASURI":"30","PRONESIA":"BASHKIA SHKODËR","SHENIME_NE":"_"}},
{"type":"Feature","geometry":{"type":"Polygon","coordinates":[[[19.816102853159915,42.194132838663336],[19.819919389938985,42.195223226867576],[19.81807923081674,42.19764907846513],[19.816102853159915,42.194132838663336]]]},"properties":{"SIPERFAQJA":108169,"NR_ZK":2907,"EMRI_ZK":"PEPSUMAJ","VOL":"1","FAQE":"57","NR__PASURI":"69","PRONESIA":"BASHKIA SHKODËR","SHENIME_NE":"_"}},
{"type":"Feature","geometry":{"type":"Polygon","coordinates":[[[19.81968336621883,42.2056825451211],[19.822550515972207,42.19982214664672],[19.822397065625886,42.19912842381603],[19.82266067168054,42.19781671198772],[19.82270700050166,42.19750654747175],[19.823051574772045,42.196683492608884],[19.82531710150321,42.19585472937908],[19.82642598116268,42.19494337817033],[19.826772640300852,42.19567968282846],[19.8276021201152,42.19661553838434],[19.827899590519955,42.19799360171357],[19.828088065967194,42.198142142160336],[19.831239628215908,42.20105743706255],[19.82770453390396,42.204391433331956],[19.825870099637463,42.20536259172783],[19.822289249943832,42.207273683606495],[19.81968336621883,42.2056825451211]]]},"properties":{"SIPERFAQJA":526042,"NR_ZK":2907,"EMRI_ZK":"PEPSUMAJ","VOL":"1","FAQE":"69","NR__PASURI":"51","PRONESIA":"BASHKIA SHKODËR","SHENIME_NE":"_"}},
{"type":"Feature","geometry":{"type":"Polygon","coordinates":[[[19.804012827011114,42.22321051273918],[19.803398152518394,42.22223462754863],[19.803202430876112,42.22177653023309],[19.802846807367548,42.221461135928706],[19.801876914038875,42.22114312426871],[19.800938047386744,42.22082834557928],[19.806374291870736,42.21639770392146],[19.809934570123282,42.20912289716261],[19.811216676011565,42.211003863474886],[19.808880911241562,42.21445404225748],[19.80853159343655,42.22055806039059],[19.804012827011114,42.22321051273918]]]},"properties":{"SIPERFAQJA":248447,"NR_ZK":2907,"EMRI_ZK":"PEPSUMAJ","VOL":"1","FAQE":"15","NR__PASURI":"11","PRONESIA":"BASHKIA SHKODËR","SHENIME_NE":"_"}},
{"type":"Feature","geometry":{"type":"Polygon","coordinates":[[[19.82912887107559,42.20683744487319],[19.832407446740444,42.20227375601518],[19.833008187667144,42.20257485427889],[19.83164022483675,42.20792201588042],[19.82912887107559,42.20683744487319]]]},"properties":{"SIPERFAQJA":80917,"NR_ZK":2907,"EMRI_ZK":"PEPSUMAJ","VOL":"1","FAQE":"48","NR__PASURI":"57","PRONESIA":"BASHKIA SHKODËR","SHENIME_NE":"_"}},
{"type":"Feature","geometry":{"type":"Polygon","coordinates":[[[19.825870099637463,42.20536259172783],[19.82770453390396,42.204391433331956],[19.82935638874145,42.2051728134267],[19.82643532108481,42.20606744608598],[19.825870099637463,42.20536259172783]]]},"properties":{"SIPERFAQJA":25409.7,"NR_ZK":2907,"EMRI_ZK":"PEPSUMAJ","VOL":"1","FAQE":"64","NR__PASURI":"54","PRONESIA":"BASHKIA SHKODËR","SHENIME_NE":"_"}},
{"type":"Feature","geometry":{"type":"Polygon","coordinates":[[[19.810265804804015,42.20830487584111],[19.81045871618993,42.20618549744914],[19.811672273041054,42.20735942336412],[19.810265804804015,42.20830487584111]]]},"properties":{"SIPERFAQJA":18746.8,"NR_ZK":2907,"EMRI_ZK":"PEPSUMAJ","VOL":"1","FAQE":"38","NR__PASURI":"43","PRONESIA":"BASHKIA SHKODËR","SHENIME_NE":"_"}},
{"type":"Feature","geometry":{"type":"Polygon","coordinates":[[[19.823051574772045,42.196683492608884],[19.823428436258396,42.19644149178603],[19.82383696113136,42.19585768351817],[19.82425885319426,42.195156483131846],[19.824988421561038,42.19506304113917],[19.82531710150321,42.19585472937908],[19.823051574772045,42.196683492608884]]]},"properties":{"SIPERFAQJA":14566.8,"NR_ZK":2907,"EMRI_ZK":"PEPSUMAJ","VOL":"1","FAQE":"70","NR__PASURI":"67","PRONESIA":"BASHKIA SHKODËR","SHENIME_NE":"_"}},
{"type":"Feature","geometry":{"type":"Polygon","coordinates":[[[19.83124864287807,42.19592111036551],[19.83438384279748,42.192994377081064],[19.834539715648535,42.194268311766336],[19.831611700595634,42.19644683702674],[19.83124864287807,42.19592111036551]]]},"properties":{"SIPERFAQJA":36800.1,"NR_ZK":2907,"EMRI_ZK":"PEPSUMAJ","VOL":"1","FAQE":"51","NR__PASURI":"59","PRONESIA":"BASHKIA SHKODËR","SHENIME_NE":"_"}},
{"type":"Feature","geometry":{"type":"Polygon","coordinates":[[[19.834539715648535,42.194268311766336],[19.83437374730614,42.199407745141016],[19.831511196928464,42.19667904994375],[19.831611700595634,42.19644683702674],[19.834539715648535,42.194268311766336]]]},"properties":{"SIPERFAQJA":99002.8,"NR_ZK":2907,"EMRI_ZK":"PEPSUMAJ","VOL":"1","FAQE":"52","NR__PASURI":"58","PRONESIA":"BASHKIA SHKODËR","SHENIME_NE":"_"}},
{"type":"Feature","geometry":{"type":"Polygon","coordinates":[[[19.82642598116268,42.19494337817033],[19.82608031127302,42.19393034566368],[19.827815679043976,42.19476078472823],[19.82642598116268,42.19494337817033]]]},"properties":{"SIPERFAQJA":10751.4,"NR_ZK":2907,"EMRI_ZK":"PEPSUMAJ","VOL":"1","FAQE":"77","NR__PASURI":"64","PRONESIA":"BASHKIA SHKODËR","SHENIME_NE":"_"}},
{"type":"Feature","geometry":{"type":"Polygon","coordinates":[[[19.828088065967194,42.198142142160336],[19.831511196928464,42.19667904994375],[19.83437374730614,42.199407745141016],[19.833008187667144,42.20257485427889],[19.832407446740444,42.20227375601518],[19.831239628215908,42.20105743706255],[19.828088065967194,42.198142142160336]]]},"properties":{"SIPERFAQJA":140110,"NR_ZK":2907,"EMRI_ZK":"PEPSUMAJ","VOL":"1","FAQE":"75","NR__PASURI":"56","PRONESIA":"BASHKIA SHKODËR","SHENIME_NE":"_"}},
{"type":"Feature","geometry":{"type":"Polygon","coordinates":[[[19.826772640300852,42.19567968282846],[19.829991518863675,42.19528554623976],[19.83124864287807,42.19592111036551],[19.831611700595634,42.19644683702674],[19.831511196928464,42.19667904994375],[19.828088065967194,42.198142142160336],[19.827899590519955,42.19799360171357],[19.8276021201152,42.19661553838434],[19.826772640300852,42.19567968282846]]]},"properties":{"SIPERFAQJA":56645,"NR_ZK":2907,"EMRI_ZK":"PEPSUMAJ","VOL":"1","FAQE":"76","NR__PASURI":"61","PRONESIA":"BASHKIA SHKODËR","SHENIME_NE":"_"}},
{"type":"Feature","geometry":{"type":"Polygon","coordinates":[[[19.82642598116268,42.19494337817033],[19.827815679043976,42.19476078472823],[19.82949454187351,42.194779090598665],[19.829991518863675,42.19528554623976],[19.826772640300852,42.19567968282846],[19.82642598116268,42.19494337817033]]]},"properties":{"SIPERFAQJA":16569.8,"NR_ZK":2907,"EMRI_ZK":"PEPSUMAJ","VOL":"1","FAQE":"74","NR__PASURI":"62","PRONESIA":"BASHKIA SHKODËR","SHENIME_NE":"_"}},
{"type":"Feature","geometry":{"type":"Polygon","coordinates":[[[19.82531710150321,42.19585472937908],[19.824988421561038,42.19506304113917],[19.82608031127302,42.19393034566368],[19.82642598116268,42.19494337817033],[19.82531710150321,42.19585472937908]]]},"properties":{"SIPERFAQJA":15465.6,"NR_ZK":2907,"EMRI_ZK":"PEPSUMAJ","VOL":"1","FAQE":"73","NR__PASURI":"65","PRONESIA":"BASHKIA SHKODËR","SHENIME_NE":"_"}},
{"type":"Feature","geometry":{"type":"Polygon","coordinates":[[[19.778527805143234,42.16988004209916],[19.78382645375158,42.171757380177255],[19.78466723106829,42.176604261544654],[19.778299289034894,42.172986187244334],[19.778527805143234,42.16988004209916]]]},"properties":{"SIPERFAQJA":198996,"NR_ZK":2907,"EMRI_ZK":"PEPSUMAJ","VOL":"1","FAQE":"37","NR__PASURI":"79","PRONESIA":"BASHKIA SHKODËR","SHENIME_NE":"_"}},
{"type":"Feature","geometry":{"type":"Polygon","coordinates":[[[19.777979018344272,42.189017874062685],[19.777131993250578,42.18550847006805],[19.77956328115962,42.185356132795704],[19.777979018344272,42.189017874062685]]]},"properties":{"SIPERFAQJA":38359.7,"NR_ZK":2907,"EMRI_ZK":"PEPSUMAJ","VOL":"1","FAQE":"36","NR__PASURI":"78","PRONESIA":"BASHKIA SHKODËR","SHENIME_NE":"_"}},
{"type":"Feature","geometry":{"type":"Polygon","coordinates":[[[19.82935638874145,42.2051728134267],[19.82770453390396,42.204391433331956],[19.831239628215908,42.20105743706255],[19.832407446740444,42.20227375601518],[19.82912887107559,42.20683744487319],[19.82935638874145,42.2051728134267]]]},"properties":{"SIPERFAQJA":138426,"NR_ZK":2907,"EMRI_ZK":"PEPSUMAJ","VOL":"1","FAQE":"71","NR__PASURI":"55","PRONESIA":"BASHKIA SHKODËR","SHENIME_NE":"_"}},
{"type":"Feature","geometry":{"type":"Polygon","coordinates":[[[19.819183684155785,42.20484493358122],[19.81864896726721,42.204225368166384],[19.81726819496558,42.20291210719855],[19.817602419993158,42.201900189847414],[19.81830944255554,42.201719234120276],[19.82270700050166,42.19750654747175],[19.82266067168054,42.19781671198772],[19.822397065625886,42.19912842381603],[19.822550515972207,42.19982214664672],[19.81968336621883,42.2056825451211],[19.819183684155785,42.20484493358122]]]},"properties":{"SIPERFAQJA":159789,"NR_ZK":2907,"EMRI_ZK":"PEPSUMAJ","VOL":"1","FAQE":"68","NR__PASURI":"48","PRONESIA":"BASHKIA SHKODËR","SHENIME_NE":"_"}},
{"type":"Feature","geometry":{"type":"Polygon","coordinates":[[[19.823051574772045,42.196683492608884],[19.81889560272586,42.199111552106],[19.82425885319426,42.195156483131846],[19.82383696113136,42.19585768351817],[19.823428436258396,42.19644149178603],[19.823051574772045,42.196683492608884]]]},"properties":{"SIPERFAQJA":77060.1,"NR_ZK":2907,"EMRI_ZK":"PEPSUMAJ","VOL":"1","FAQE":"46","NR__PASURI":"50","PRONESIA":"BASHKIA SHKODËR","SHENIME_NE":"_"}},
{"type":"Feature","geometry":{"type":"Polygon","coordinates":[[[19.82635256931378,42.21477158803541],[19.826478354805392,42.21497918467502],[19.823056328893916,42.21651191814186],[19.82635256931378,42.21477158803541]]]},"properties":{"SIPERFAQJA":21774.7,"NR_ZK":2907,"EMRI_ZK":"PEPSUMAJ","VOL":"1","FAQE":"42","NR__PASURI":"20","PRONESIA":"BASHKIA SHKODËR","SHENIME_NE":"_"}},
{"type":"Feature","geometry":{"type":"Polygon","coordinates":[[[19.83124864287807,42.19592111036551],[19.829991518863675,42.19528554623976],[19.82949454187351,42.194779090598665],[19.833937189048363,42.19150122805786],[19.83438384279748,42.192994377081064],[19.83124864287807,42.19592111036551]]]},"properties":{"SIPERFAQJA":98251.7,"NR_ZK":2907,"EMRI_ZK":"PEPSUMAJ","VOL":"1","FAQE":"50","NR__PASURI":"60","PRONESIA":"BASHKIA SHKODËR","SHENIME_NE":"_"}},
{"type":"Feature","geometry":{"type":"Polygon","coordinates":[[[19.801731346099906,42.22134610319547],[19.8031283389192,42.222594322869476],[19.79356606190067,42.22039600780595],[19.798115640098796,42.220407701208764],[19.801731346099906,42.22134610319547]]]},"properties":{"SIPERFAQJA":70516.4,"NR_ZK":2907,"EMRI_ZK":"PEPSUMAJ","VOL":"1","FAQE":"28","NR__PASURI":"6","PRONESIA":"BASHKIA SHKODËR","SHENIME_NE":"_"}},
{"type":"Feature","geometry":{"type":"Polygon","coordinates":[[[19.804897949794892,42.200179726235184],[19.80947804332166,42.19884040635272],[19.808643720115196,42.20442424810121],[19.80509012021178,42.20270743777124],[19.805209655745664,42.20136033635646],[19.804897949794892,42.200179726235184]]]},"properties":{"SIPERFAQJA":188297,"NR_ZK":2907,"EMRI_ZK":"PEPSUMAJ","VOL":"1","FAQE":"79","NR__PASURI":"40","PRONESIA":"BASHKIA SHKODËR","SHENIME_NE":"_"}},
{"type":"Feature","geometry":{"type":"Polygon","coordinates":[[[19.817423319694413,42.201148409332916],[19.814837535343592,42.20024496815602],[19.814138908533543,42.1989951519397],[19.81229186812248,42.19655440718108],[19.816156725345166,42.19680839598915],[19.817423319694413,42.201148409332916]]]},"properties":{"SIPERFAQJA":126591,"NR_ZK":2907,"EMRI_ZK":"PEPSUMAJ","VOL":"1","FAQE":"55","NR__PASURI":"46","PRONESIA":"BASHKIA SHKODËR","SHENIME_NE":"_"}},
{"type":"Feature","geometry":{"type":"Polygon","coordinates":[[[19.805271622118827,42.19260527805591],[19.801379448005363,42.18979975297597],[19.81104554427454,42.190876557511494],[19.805271622118827,42.19260527805591]]]},"properties":{"SIPERFAQJA":126615,"NR_ZK":2907,"EMRI_ZK":"PEPSUMAJ","VOL":"1","FAQE":"59","NR__PASURI":"72","PRONESIA":"BASHKIA SHKODËR","SHENIME_NE":"_"}},
{"type":"Feature","geometry":{"type":"Polygon","coordinates":[[[19.808643720115196,42.20442424810121],[19.80947804332166,42.19884040635272],[19.817602419993158,42.201900189847414],[19.81726819496558,42.20291210719855],[19.81312633906897,42.20583614476803],[19.811672273041054,42.20735942336412],[19.81045871618993,42.20618549744914],[19.808643720115196,42.20442424810121]]]},"properties":{"SIPERFAQJA":335187,"NR_ZK":2907,"EMRI_ZK":"PEPSUMAJ","VOL":"1","FAQE":"80","NR__PASURI":"42","PRONESIA":"BASHKIA SHKODËR","SHENIME_NE":"_"}},
{"type":"Feature","geometry":{"type":"Polygon","coordinates":[[[19.81864896726721,42.204225368166384],[19.81312633906897,42.20583614476803],[19.81726819496558,42.20291210719855],[19.81864896726721,42.204225368166384]]]},"properties":{"SIPERFAQJA":47126.9,"NR_ZK":2907,"EMRI_ZK":"PEPSUMAJ","VOL":"1","FAQE":"60","NR__PASURI":"47","PRONESIA":"BASHKIA SHKODËR","SHENIME_NE":"_"}},
{"type":"Feature","geometry":{"type":"Polygon","coordinates":[[[19.811672273041054,42.20735942336412],[19.81312633906897,42.20583614476803],[19.81864896726721,42.204225368166384],[19.819183684155785,42.20484493358122],[19.811672273041054,42.20735942336412]]]},"properties":{"SIPERFAQJA":104280,"NR_ZK":2907,"EMRI_ZK":"PEPSUMAJ","VOL":"1","FAQE":"62","NR__PASURI":"45","PRONESIA":"BASHKIA SHKODËR","SHENIME_NE":"_"}},
{"type":"Feature","geometry":{"type":"Polygon","coordinates":[[[19.811216676011565,42.211003863474886],[19.809934570123282,42.20912289716261],[19.810265804804015,42.20830487584111],[19.81897417373099,42.20818002247731],[19.818935383592795,42.20872559622092],[19.811216676011565,42.211003863474886]]]},"properties":{"SIPERFAQJA":112004,"NR_ZK":2907,"EMRI_ZK":"PEPSUMAJ","VOL":"1","FAQE":"40","NR__PASURI":"23","PRONESIA":"BASHKIA SHKODËR","SHENIME_NE":"_"}},
{"type":"Feature","geometry":{"type":"Polygon","coordinates":[[[19.791044585884332,42.19700906402732],[19.787565489103795,42.198167744948094],[19.78671825598498,42.199196592123],[19.786991062335645,42.19721523162611],[19.791044585884332,42.19700906402732]]]},"properties":{"SIPERFAQJA":43565.4,"NR_ZK":2907,"EMRI_ZK":"PEPSUMAJ","VOL":"1","FAQE":"30","NR__PASURI":"32","PRONESIA":"BASHKIA SHKODËR","SHENIME_NE":"_"}},
{"type":"Feature","geometry":{"type":"Polygon","coordinates":[[[19.82270700050166,42.19750654747175],[19.81830944255554,42.201719234120276],[19.81889560272586,42.199111552106],[19.823051574772045,42.196683492608884],[19.82270700050166,42.19750654747175]]]},"properties":{"SIPERFAQJA":73425.4,"NR_ZK":2907,"EMRI_ZK":"PEPSUMAJ","VOL":"1","FAQE":"66","NR__PASURI":"49","PRONESIA":"BASHKIA SHKODËR","SHENIME_NE":"_"}},
{"type":"Feature","geometry":{"type":"Polygon","coordinates":[[[19.796613538346914,42.18731059755751],[19.79288413493371,42.18556761580257],[19.796196626626443,42.18605319172251],[19.796613538346914,42.18731059755751]]]},"properties":{"SIPERFAQJA":40389.2,"NR_ZK":2907,"EMRI_ZK":"PEPSUMAJ","VOL":"1","FAQE":"43","NR__PASURI":"74","PRONESIA":"BASHKIA SHKODËR","SHENIME_NE":"_"}},
{"type":"Feature","geometry":{"type":"Polygon","coordinates":[[[19.81807923081674,42.19764907846513],[19.819919389938985,42.195223226867576],[19.833937189048363,42.19150122805786],[19.82949454187351,42.194779090598665],[19.827815679043976,42.19476078472823],[19.82608031127302,42.19393034566368],[19.824988421561038,42.19506304113917],[19.82425885319426,42.195156483131846],[19.81889560272586,42.199111552106],[19.81830944255554,42.201719234120276],[19.817602419993158,42.201900189847414],[19.80947804332166,42.19884040635272],[19.804897949794892,42.200179726235184],[19.797866510605928,42.19663938174424],[19.79558392168949,42.198230256989085],[19.795464274100915,42.20266165996786],[19.79277524497031,42.20628226263736],[19.79238931967142,42.21009103326478],[19.794909114365662,42.21066685741491],[19.80020626343307,42.21550836177647],[19.799374657829947,42.217461484086044],[19.800938047386744,42.22082834557928],[19.801876914038875,42.22114312426871],[19.802846807367548,42.221461135928706],[19.803202430876112,42.22177653023309],[19.803398152518394,42.22223462754863],[19.804012827011114,42.22321051273918],[19.806881615626743,42.22534412034067],[19.806487529429514,42.225425678296084],[19.80434466887347,42.22361432056559],[19.8031283389192,42.222594322869476],[19.801731346099906,42.22134610319547],[19.800596821599722,42.220758402615544],[19.79947598785151,42.2183463698582],[19.79916287154581,42.21719451364587],[19.800022380463115,42.21548199638796],[19.792082292508933,42.21030350828779],[19.79172864393138,42.20795807976808],[19.792416739998604,42.2051730392009],[19.795143820318547,42.202689199708004],[19.79385110142153,42.19759707069429],[19.788012790577437,42.19814292610934],[19.785249881656696,42.20230329845245],[19.783268306266542,42.204032123474896],[19.782209592869656,42.20451570840918],[19.78379121889595,42.20642232457379],[19.784716797216923,42.20845577279954],[19.784889221075932,42.21132878212217],[19.78513490333921,42.21550439292479],[19.785934248290403,42.21781859228898],[19.786874160727084,42.218318613187186],[19.787879133266777,42.21935448262317],[19.788181146309668,42.21998550484766],[19.788791291357374,42.220364417229575],[19.78898769331035,42.220899751182785],[19.788357689135086,42.223126100016536],[19.791761348246702,42.226071344636175],[19.79262169913513,42.230666381813165],[19.791121386744763,42.22561352466558],[19.787922816558975,42.223293541725376],[19.78866618424867,42.22155595626893],[19.788722901075644,42.22046627787073],[19.78773608407361,42.21972313343823],[19.78754688871378,42.219139134188374],[19.78566191895514,42.21779600289658],[19.784972955212382,42.216457981802776],[19.784719311159403,42.208905760626884],[19.78384353165881,42.20661027463519],[19.782725261209546,42.20630506653325],[19.782063133366254,42.20423440153463],[19.783248579171854,42.20385812149641],[19.785998659250797,42.20113411646044],[19.786441220403248,42.19947533091356],[19.78671825598498,42.199196592123],[19.787565489103795,42.198167744948094],[19.791044585884332,42.19700906402732],[19.79728047703726,42.1963667826704],[19.800321303372748,42.19719803934213],[19.80386598645921,42.199557727519505],[19.807892571379124,42.19768280181717],[19.808869809832146,42.19751117598976],[19.80945974760951,42.19784989772796],[19.814837535343592,42.20024496815602],[19.817423319694413,42.201148409332916],[19.81807923081674,42.19764907846513]]]},"properties":{"SIPERFAQJA":393149,"NR_ZK":2907,"EMRI_ZK":"PEPSUMAJ","VOL":"1","FAQE":"91","NR__PASURI":"500","PRONESIA":"SHTET","SHENIME_NE":"_"}},
{"type":"Feature","geometry":{"type":"Polygon","coordinates":[[[19.804021252287342,42.20699305580716],[19.80416190949881,42.207086735492254],[19.804081991137448,42.20710976693255],[19.804021252287342,42.20699305580716]]]},"properties":{"SIPERFAQJA":100.466,"NR_ZK":2907,"EMRI_ZK":"PEPSUMAJ","VOL":"1","FAQE":"157","NR__PASURI":"534/4","PRONESIA":"PRONËSI E PASAKTËSUAR","SHENIME_NE":"PASURIA POSEDOHET NGA RROK TOM FUSHAZI ME AMTP 2"}},
{"type":"Feature","geometry":{"type":"Polygon","coordinates":[[[19.80397211980772,42.20689864625665],[19.804362027591903,42.206910851029434],[19.80447760291775,42.2069976948974],[19.80425199163012,42.2070635445344],[19.804228532201392,42.20706836347425],[19.80416190949881,42.207086735492254],[19.804021252287342,42.20699305580716],[19.80397211980772,42.20689864625665]]]},"properties":{"SIPERFAQJA":514.182,"NR_ZK":2907,"EMRI_ZK":"PEPSUMAJ","VOL":"1","FAQE":"158","NR__PASURI":"534/5","PRONESIA":"PRONËSI E PASAKTËSUAR","SHENIME_NE":"PASURIA POSEDOHET NGA RROK TOM FUSHAZI ME AMTP 2"}},
{"type":"Feature","geometry":{"type":"Polygon","coordinates":[[[19.8046900029856,42.207154285653296],[19.804570897043458,42.20720243010592],[19.80451324553135,42.207061884892084],[19.804540633927076,42.20704505655806],[19.804569856076892,42.20702936393477],[19.8046900029856,42.207154285653296]]]},"properties":{"SIPERFAQJA":112.494,"NR_ZK":2907,"EMRI_ZK":"PEPSUMAJ","VOL":"1","FAQE":"165","NR__PASURI":"535/5","PRONESIA":"SHTET","SHENIME_NE":"FRAN, MHILL, NDOC, ZEF PJETER LIVADHI"}},
{"type":"Feature","geometry":{"type":"Polygon","coordinates":[[[19.80471536637007,42.20744944406919],[19.804580327272383,42.207398126750526],[19.804502169669178,42.207320227303775],[19.804704009357486,42.20729551054087],[19.80477924032094,42.207431377628865],[19.80471536637007,42.20744944406919]]]},"properties":{"SIPERFAQJA":247.123,"NR_ZK":2907,"EMRI_ZK":"PEPSUMAJ","VOL":"1","FAQE":"172","NR__PASURI":"536/5","PRONESIA":"SHTET","SHENIME_NE":"DEDE SHAN GURINI, GJERGJ SHAN GURINI, VALENTIN GZIM GURINI"}}
]}