{"type":"FeatureCollection", "features": [
{"type":"Feature","geometry":{"type":"Polygon","coordinates":[[[19.990294500187613,39.928508343315244],[19.99030034249012,39.92849971601445],[19.99030618713043,39.928491088733715],[19.990334392797827,39.92849834548965],[19.99034982851797,39.92847503616492],[19.990443215001676,39.928512522531115],[19.990431078346756,39.928530956828936],[19.99045867927258,39.928542035835015],[19.99043628106523,39.92857510986106],[19.990408473151586,39.92856394619258],[19.990396463330676,39.92858168069398],[19.99030307790846,39.92854419700221],[19.990318171513287,39.928521908914895],[19.990294500187613,39.928508343315244]]]},"properties":{"STRING":"1634/30-ND","AREA":95,"Zk_Numer":2806,"Zk_Emer":"NIVICE","Nr_Pasurie":"1634/30-ND","Vol":7,"Faqe":48,"Pronaret":"ADRIAN ANASTAS VJERI","Kufizimet":"NDERTESA POZICIONOHET MBI PASURINE NR. 943/1 VOL. 7, FQ. 173","Siperfaqe":95}},
{"type":"Feature","geometry":{"type":"Polygon","coordinates":[[[19.93927260016433,39.935668643827164],[19.939379812666736,39.93562922144028],[19.939404529256702,39.935669055143],[19.939297316706266,39.935708477552446],[19.93927260016433,39.935668643827164]]]},"properties":{"STRING":"","AREA":50,"Zk_Numer":2806,"Zk_Emer":"NIVICE","Nr_Pasurie":"","Vol":0,"Faqe":0,"Pronaret":"","Kufizimet":"","Siperfaqe":0}},
{"type":"Feature","geometry":{"type":"Polygon","coordinates":[[[19.940340250827028,39.92790690962701],[19.940494455258133,39.927913096555834],[19.940488976115695,39.927994043492134],[19.940436372397084,39.92799193296982],[19.940437499778547,39.92797527763403],[19.940395051319282,39.92797357453504],[19.940396261766388,39.92795442192505],[19.940336893511706,39.92795162411277],[19.940340250827028,39.92790690962701]]]},"properties":{"STRING":"","AREA":92,"Zk_Numer":2806,"Zk_Emer":"NIVICE","Nr_Pasurie":"","Vol":0,"Faqe":0,"Pronaret":"","Kufizimet":"","Siperfaqe":0}},
{"type":"Feature","geometry":{"type":"Polygon","coordinates":[[[19.939738960093656,39.9279833435747],[19.939741034890645,39.92803735781],[19.939496649968962,39.92804292171582],[19.93925226500836,39.928048485106544],[19.93925192356458,39.928039482636144],[19.939136001934386,39.92804208860974],[19.939134273332826,39.92799707673834],[19.939250190595185,39.927994470862885],[19.93949457536388,39.92798890747635],[19.939738960093656,39.9279833435747]]]},"properties":{"STRING":"","AREA":300,"Zk_Numer":2806,"Zk_Emer":"NIVICE","Nr_Pasurie":"","Vol":0,"Faqe":0,"Pronaret":"","Kufizimet":"","Siperfaqe":0}},
{"type":"Feature","geometry":{"type":"Polygon","coordinates":[[[19.939107623609466,39.92800951016452],[19.939109368613884,39.92804249362995],[19.939050925603045,39.9280443146003],[19.939049180626633,39.928011331134016],[19.939107623609466,39.92800951016452]]]},"properties":{"STRING":"","AREA":18,"Zk_Numer":2806,"Zk_Emer":"NIVICE","Nr_Pasurie":"","Vol":0,"Faqe":0,"Pronaret":"","Kufizimet":"","Siperfaqe":0}},
{"type":"Feature","geometry":{"type":"Polygon","coordinates":[[[19.938741117504705,39.92809601093511],[19.93877034400403,39.928081053696246],[19.93879300974277,39.92810730507216],[19.9387637832372,39.92812226231668],[19.938741117504705,39.92809601093511]]]},"properties":{"STRING":"","AREA":11,"Zk_Numer":2806,"Zk_Emer":"NIVICE","Nr_Pasurie":"","Vol":0,"Faqe":0,"Pronaret":"","Kufizimet":"","Siperfaqe":0}},
{"type":"Feature","geometry":{"type":"Polygon","coordinates":[[[19.93954819392319,39.92821633802474],[19.939589137613922,39.928216359363674],[19.93958911216673,39.92824530989206],[19.939548168458753,39.928245288553114],[19.93954819392319,39.92821633802474]]]},"properties":{"STRING":"","AREA":11,"Zk_Numer":2806,"Zk_Emer":"NIVICE","Nr_Pasurie":"","Vol":0,"Faqe":0,"Pronaret":"","Kufizimet":"","Siperfaqe":0}},
{"type":"Feature","geometry":{"type":"Polygon","coordinates":[[[19.989197057993724,39.928934576651635],[19.989029234917854,39.928852113645405],[19.989157874281034,39.928724597429024],[19.989321155516457,39.9288048286185],[19.989197057993724,39.928934576651635]]]},"properties":{"STRING":"","AREA":300,"Zk_Numer":2806,"Zk_Emer":"NIVICE","Nr_Pasurie":"","Vol":0,"Faqe":0,"Pronaret":"","Kufizimet":"","Siperfaqe":0}},
{"type":"Feature","geometry":{"type":"Polygon","coordinates":[[[19.98838633203867,39.932107313073665],[19.988357132389073,39.93208113028558],[19.988467597315918,39.932008118532195],[19.98849679697659,39.93203430129279],[19.98838633203867,39.932107313073665]]]},"properties":{"STRING":"","AREA":48,"Zk_Numer":2806,"Zk_Emer":"NIVICE","Nr_Pasurie":"","Vol":0,"Faqe":0,"Pronaret":"","Kufizimet":"","Siperfaqe":0}},
{"type":"Feature","geometry":{"type":"Polygon","coordinates":[[[19.97717331553092,39.93354952687227],[19.977060441247534,39.933489913449264],[19.9771190530275,39.93342414408487],[19.977146817432036,39.93343880759061],[19.977134447177594,39.93345350899723],[19.97721905981707,39.93349819628046],[19.97717331553092,39.93354952687227]]]},"properties":{"STRING":"","AREA":87,"Zk_Numer":2806,"Zk_Emer":"NIVICE","Nr_Pasurie":"","Vol":0,"Faqe":0,"Pronaret":"","Kufizimet":"","Siperfaqe":0}},
{"type":"Feature","geometry":{"type":"Polygon","coordinates":[[[19.949997486357613,39.9313653169384],[19.949916078503456,39.931416232077545],[19.9499012386877,39.93140217077105],[19.949890677057958,39.931408776517394],[19.949860183390847,39.93137987830956],[19.94982234364608,39.93140354481029],[19.94978164581145,39.93136498075969],[19.949758101240004,39.93137970582892],[19.949694085917038,39.93131904050565],[19.949748259438966,39.93128515873969],[19.949786264584084,39.93132117402637],[19.94981600057325,39.93130257749247],[19.94988544829907,39.93125914349942],[19.94995122001584,39.931321470022766],[19.949997486357613,39.9313653169384]]]},"properties":{"STRING":"","AREA":229,"Zk_Numer":2806,"Zk_Emer":"NIVICE","Nr_Pasurie":"","Vol":0,"Faqe":0,"Pronaret":"","Kufizimet":"","Siperfaqe":0}},
{"type":"Feature","geometry":{"type":"Polygon","coordinates":[[[19.950089466766595,39.931234704034],[19.950046491878116,39.931194641569796],[19.950107453276477,39.93115588489106],[19.950112294300492,39.93115280542881],[19.950155271568075,39.931192866089134],[19.950089466766595,39.931234704034]]]},"properties":{"STRING":"","AREA":42,"Zk_Numer":2806,"Zk_Emer":"NIVICE","Nr_Pasurie":"","Vol":0,"Faqe":0,"Pronaret":"","Kufizimet":"","Siperfaqe":0}},
{"type":"Feature","geometry":{"type":"Polygon","coordinates":[[[19.949969104327756,39.93119843306571],[19.949970771886854,39.93120682017166],[19.949814810067828,39.93122943864005],[19.949803370065343,39.93117716129668],[19.949957764218798,39.93115553642409],[19.949960488028903,39.93116706989522],[19.949967933375437,39.93116879712407],[19.949973403830114,39.93117352439103],[19.94997688263763,39.931178979323],[19.949978107166988,39.931183975249056],[19.949977872505247,39.93118815552499],[19.94997553838141,39.93119376496038],[19.949969104327756,39.93119843306571]]]},"properties":{"STRING":"","AREA":82,"Zk_Numer":2806,"Zk_Emer":"NIVICE","Nr_Pasurie":"","Vol":0,"Faqe":0,"Pronaret":"","Kufizimet":"","Siperfaqe":0}},
{"type":"Feature","geometry":{"type":"Polygon","coordinates":[[[19.986408563213143,39.93002459213395],[19.986344023062482,39.92980491561972],[19.986480985926875,39.929781065311744],[19.9864422625364,39.92964925827762],[19.986686858890153,39.92960666675504],[19.986637807043593,39.92943971100132],[19.988154334180834,39.929175616988665],[19.988166261514145,39.92921621470294],[19.988322628933425,39.92918898228816],[19.98845327061496,39.92963360668442],[19.987426039541525,39.929812496498464],[19.987435798868788,39.92984571205666],[19.98690309486528,39.929938476868614],[19.98693639813666,39.930051828726434],[19.986736859924406,39.93008657559085],[19.98672671141516,39.93005203363851],[19.986431717405207,39.93010340213631],[19.986408563213143,39.93002459213395]]]},"properties":{"STRING":"","AREA":9865,"Zk_Numer":2806,"Zk_Emer":"NIVICE","Nr_Pasurie":"","Vol":0,"Faqe":0,"Pronaret":"","Kufizimet":"","Siperfaqe":0}},
{"type":"Feature","geometry":{"type":"Polygon","coordinates":[[[19.985974411117695,39.92984598100352],[19.9859673249064,39.92982263764547],[19.985891496918107,39.92957281472788],[19.985754958877173,39.92959737952781],[19.985757503551522,39.92960575844603],[19.985705121068197,39.9296151825515],[19.985670635694103,39.929501566593984],[19.985729072679792,39.92949105350159],[19.985736331673483,39.92951496756661],[19.98588699494281,39.92948786324784],[19.985869123512277,39.92942898337368],[19.98566099224918,39.92946642550909],[19.98565899206749,39.92945983453803],[19.98551597967672,39.92948556363539],[19.985525427212583,39.92951669535167],[19.985288960148093,39.92955923488339],[19.985268098437107,39.92949050230635],[19.98510620774928,39.9295196257705],[19.985060166590188,39.92936793110433],[19.986098213461993,39.929181187405476],[19.986140762719106,39.92932137477808],[19.98599433529682,39.929347717631806],[19.98603060487584,39.929467214696885],[19.986099738750923,39.929454776709285],[19.986205842244342,39.929804345276104],[19.985974411117695,39.92984598100352]]]},"properties":{"STRING":"","AREA":3004,"Zk_Numer":2806,"Zk_Emer":"NIVICE","Nr_Pasurie":"","Vol":0,"Faqe":0,"Pronaret":"","Kufizimet":"","Siperfaqe":0}},
{"type":"Feature","geometry":{"type":"Polygon","coordinates":[[[19.979754414218448,39.94135305051341],[19.979839509720225,39.94140743328348],[19.97978500717332,39.9414579628474],[19.979736471376217,39.94142694437558],[19.979753742027114,39.94141093326635],[19.97971718113257,39.94138756803859],[19.979754414218448,39.94135305051341]]]},"properties":{"STRING":"","AREA":60,"Zk_Numer":2806,"Zk_Emer":"NIVICE","Nr_Pasurie":"","Vol":0,"Faqe":0,"Pronaret":"","Kufizimet":"","Siperfaqe":0}},
{"type":"Feature","geometry":{"type":"Polygon","coordinates":[[[19.97971718113257,39.94138756803859],[19.9796271319845,39.94133001980654],[19.979664366443476,39.94129549906696],[19.979754414218448,39.94135305051341],[19.97971718113257,39.94138756803859]]]},"properties":{"STRING":"","AREA":50,"Zk_Numer":2806,"Zk_Emer":"NIVICE","Nr_Pasurie":"","Vol":0,"Faqe":0,"Pronaret":"","Kufizimet":"","Siperfaqe":0}},
{"type":"Feature","geometry":{"type":"Polygon","coordinates":[[[19.981245996160347,39.93305264285678],[19.981378157684194,39.93308643702347],[19.981341638785715,39.933171078782244],[19.981209477077012,39.93313728727583],[19.981245996160347,39.93305264285678]]]},"properties":{"STRING":"","AREA":118,"Zk_Numer":2806,"Zk_Emer":"NIVICE","Nr_Pasurie":"","Vol":0,"Faqe":0,"Pronaret":"","Kufizimet":"","Siperfaqe":0}},
{"type":"Feature","geometry":{"type":"Polygon","coordinates":[[[19.985841835755,39.93052642494313],[19.98567172653416,39.930384291324685],[19.985679374819416,39.93037886605087],[19.985653759766713,39.930358703707114],[19.985708072297985,39.93032017734958],[19.985787911424957,39.93038731585352],[19.985801389049733,39.9303777555407],[19.98591619352558,39.9304736794723],[19.985841835755,39.93052642494313]]]},"properties":{"STRING":"","AREA":194,"Zk_Numer":2806,"Zk_Emer":"NIVICE","Nr_Pasurie":"","Vol":0,"Faqe":0,"Pronaret":"","Kufizimet":"","Siperfaqe":0}},
{"type":"Feature","geometry":{"type":"Polygon","coordinates":[[[19.9774991590316,39.92690424995074],[19.97750367491492,39.9268339844276],[19.977650169053202,39.92683956509533],[19.977645653319268,39.92690983062414],[19.9774991590316,39.92690424995074]]]},"properties":{"STRING":"","AREA":98,"Zk_Numer":2806,"Zk_Emer":"NIVICE","Nr_Pasurie":"","Vol":0,"Faqe":0,"Pronaret":"","Kufizimet":"","Siperfaqe":0}},
{"type":"Feature","geometry":{"type":"Polygon","coordinates":[[[19.976849738699144,39.92696285769086],[19.97683120283858,39.927038399366616],[19.976549259712456,39.92700103731305],[19.97656779587279,39.92692549568195],[19.976849738699144,39.92696285769086]]]},"properties":{"STRING":"","AREA":209,"Zk_Numer":2806,"Zk_Emer":"NIVICE","Nr_Pasurie":"","Vol":0,"Faqe":0,"Pronaret":"","Kufizimet":"","Siperfaqe":0}},
{"type":"Feature","geometry":{"type":"Polygon","coordinates":[[[19.996946580164323,39.909511363040124],[19.996912236430546,39.90947715193675],[19.997005900320254,39.909421388382505],[19.99704024407278,39.90945559945845],[19.996946580164323,39.909511363040124]]]},"properties":{"STRING":"","AREA":49,"Zk_Numer":2806,"Zk_Emer":"NIVICE","Nr_Pasurie":"","Vol":0,"Faqe":0,"Pronaret":"","Kufizimet":"","Siperfaqe":0}},
{"type":"Feature","geometry":{"type":"Polygon","coordinates":[[[19.99637138640707,39.909552161535935],[19.996255084593304,39.90949161495191],[19.996307499033897,39.90943190589795],[19.99642380079284,39.90949245243001],[19.99637138640707,39.909552161535935]]]},"properties":{"STRING":"","AREA":96,"Zk_Numer":2806,"Zk_Emer":"NIVICE","Nr_Pasurie":"","Vol":0,"Faqe":0,"Pronaret":"","Kufizimet":"","Siperfaqe":0}},
{"type":"Feature","geometry":{"type":"Polygon","coordinates":[[[19.996457377906875,39.90933504871563],[19.996500687495146,39.909352920507786],[19.996453721547198,39.90942041748225],[19.99641041426726,39.909402545693005],[19.996457377906875,39.90933504871563]]]},"properties":{"STRING":"","AREA":36,"Zk_Numer":2806,"Zk_Emer":"NIVICE","Nr_Pasurie":"","Vol":0,"Faqe":0,"Pronaret":"","Kufizimet":"","Siperfaqe":0}},
{"type":"Feature","geometry":{"type":"Polygon","coordinates":[[[19.996374793371405,39.909261245916014],[19.99641289363278,39.90921746430702],[19.996459540271893,39.90924153862681],[19.996420706507337,39.90928494051387],[19.996374793371405,39.909261245916014]]]},"properties":{"STRING":"","AREA":28,"Zk_Numer":2806,"Zk_Emer":"NIVICE","Nr_Pasurie":"","Vol":0,"Faqe":0,"Pronaret":"","Kufizimet":"","Siperfaqe":0}},
{"type":"Feature","geometry":{"type":"Polygon","coordinates":[[[19.99684899294066,39.9091865949735],[19.99683768454935,39.909242041701496],[19.996746384961654,39.9092309982649],[19.996779417530917,39.909069018292776],[19.996844946738072,39.909076944174544],[19.996823220392287,39.90918347741937],[19.99684899294066,39.9091865949735]]]},"properties":{"STRING":"","AREA":117,"Zk_Numer":2806,"Zk_Emer":"NIVICE","Nr_Pasurie":"","Vol":0,"Faqe":0,"Pronaret":"","Kufizimet":"","Siperfaqe":0}},
{"type":"Feature","geometry":{"type":"Polygon","coordinates":[[[19.98096398199001,39.92766334965308],[19.980723049473298,39.92755225315231],[19.980759247780778,39.927505724811255],[19.98091986772059,39.927579790638454],[19.98094836720708,39.92754315521724],[19.981028677286066,39.927580187577355],[19.98096398199001,39.92766334965308]]]},"properties":{"STRING":"","AREA":183,"Zk_Numer":2806,"Zk_Emer":"NIVICE","Nr_Pasurie":"","Vol":0,"Faqe":0,"Pronaret":"","Kufizimet":"","Siperfaqe":0}},
{"type":"Feature","geometry":{"type":"Polygon","coordinates":[[[19.98158529354059,39.92729545516194],[19.981482713493644,39.92722335744017],[19.981575965234846,39.927148903433526],[19.98167998281535,39.927222014467105],[19.981646249648474,39.92725046933357],[19.98164209646042,39.927247550205635],[19.98158529354059,39.92729545516194]]]},"properties":{"STRING":"","AREA":137,"Zk_Numer":2806,"Zk_Emer":"NIVICE","Nr_Pasurie":"","Vol":0,"Faqe":0,"Pronaret":"","Kufizimet":"","Siperfaqe":0}},
{"type":"Feature","geometry":{"type":"Polygon","coordinates":[[[19.983006771363947,39.92837274742619],[19.98299972877184,39.92821276974465],[19.98347291412605,39.92820042521243],[19.983479991328004,39.92836122180477],[19.983380760200717,39.92836380928251],[19.983376720073927,39.92827204867136],[19.983099159642972,39.9282792909761],[19.983103162398866,39.92837023172639],[19.983006771363947,39.92837274742619]]]},"properties":{"STRING":"","AREA":480,"Zk_Numer":2806,"Zk_Emer":"NIVICE","Nr_Pasurie":"","Vol":0,"Faqe":0,"Pronaret":"","Kufizimet":"","Siperfaqe":0}},
{"type":"Feature","geometry":{"type":"Polygon","coordinates":[[[19.985141205661012,39.92972760308966],[19.984978547947243,39.92975982853599],[19.984976943670183,39.92975502870828],[19.98496416435444,39.929716794475006],[19.98512681258926,39.929684570767655],[19.985141205661012,39.92972760308966]]]},"properties":{"STRING":"","AREA":71,"Zk_Numer":2806,"Zk_Emer":"NIVICE","Nr_Pasurie":"","Vol":0,"Faqe":0,"Pronaret":"","Kufizimet":"","Siperfaqe":0}},
{"type":"Feature","geometry":{"type":"Polygon","coordinates":[[[19.984615973990415,39.92952534434541],[19.984554197654475,39.92953755588692],[19.98452792937796,39.92945880078546],[19.98458116927127,39.92944827518059],[19.9845957305593,39.929491930462056],[19.984604268137126,39.929490242747484],[19.984615973990415,39.92952534434541]]]},"properties":{"STRING":"","AREA":45,"Zk_Numer":2806,"Zk_Emer":"NIVICE","Nr_Pasurie":"","Vol":0,"Faqe":0,"Pronaret":"","Kufizimet":"","Siperfaqe":0}},
{"type":"Feature","geometry":{"type":"Polygon","coordinates":[[[19.98188998388668,39.92558060724585],[19.981838802293776,39.92561005057427],[19.981815061145078,39.925585584435005],[19.981753194178594,39.9256211732576],[19.981698543892794,39.925564103206405],[19.981800344260392,39.92550554493011],[19.981826326292538,39.92553232097676],[19.981837106016904,39.925526119533785],[19.98188998388668,39.92558060724585]]]},"properties":{"STRING":"","AREA":109,"Zk_Numer":2806,"Zk_Emer":"NIVICE","Nr_Pasurie":"","Vol":0,"Faqe":0,"Pronaret":"","Kufizimet":"","Siperfaqe":0}},
{"type":"Feature","geometry":{"type":"Polygon","coordinates":[[[19.982508630971928,39.92503087679867],[19.982413156544748,39.92507830034509],[19.98237300276808,39.925030380941514],[19.98236208970137,39.92503580044294],[19.982331514064207,39.924999311749424],[19.982437901512885,39.924946466961],[19.982508630971928,39.92503087679867]]]},"properties":{"STRING":"","AREA":114,"Zk_Numer":2806,"Zk_Emer":"NIVICE","Nr_Pasurie":"","Vol":0,"Faqe":0,"Pronaret":"","Kufizimet":"","Siperfaqe":0}},
{"type":"Feature","geometry":{"type":"Polygon","coordinates":[[[19.98313398451033,39.92464450777318],[19.983069534387205,39.924596422366726],[19.983162283633156,39.92452273269184],[19.983226732569225,39.92457081893757],[19.98313398451033,39.92464450777318]]]},"properties":{"STRING":"","AREA":87,"Zk_Numer":2806,"Zk_Emer":"NIVICE","Nr_Pasurie":"","Vol":0,"Faqe":0,"Pronaret":"","Kufizimet":"","Siperfaqe":0}},
{"type":"Feature","geometry":{"type":"Polygon","coordinates":[[[19.986949106405437,39.92841865308843],[19.98690833677566,39.928310983280596],[19.98731447957684,39.9282302690217],[19.987353300152982,39.928329972972435],[19.986949106405437,39.92841865308843]]]},"properties":{"STRING":"","AREA":431,"Zk_Numer":2806,"Zk_Emer":"NIVICE","Nr_Pasurie":"","Vol":0,"Faqe":0,"Pronaret":"","Kufizimet":"","Siperfaqe":0}},
{"type":"Feature","geometry":{"type":"Polygon","coordinates":[[[19.989948616279843,39.928505565001046],[19.989826780584433,39.92849333356756],[19.989843226615744,39.928396227445766],[19.989965064481215,39.92840845888254],[19.989960569815842,39.92843499100741],[19.989948616279843,39.928505565001046]]]},"properties":{"STRING":"","AREA":114,"Zk_Numer":2806,"Zk_Emer":"NIVICE","Nr_Pasurie":"","Vol":0,"Faqe":0,"Pronaret":"","Kufizimet":"","Siperfaqe":0}},
{"type":"Feature","geometry":{"type":"Polygon","coordinates":[[[19.989856590289943,39.929099438449974],[19.989739595044803,39.92906264174297],[19.989785619414107,39.928975905904565],[19.98990261453626,39.929012702565686],[19.989856590289943,39.929099438449974]]]},"properties":{"STRING":"","AREA":112,"Zk_Numer":2806,"Zk_Emer":"NIVICE","Nr_Pasurie":"","Vol":0,"Faqe":0,"Pronaret":"","Kufizimet":"","Siperfaqe":0}},
{"type":"Feature","geometry":{"type":"Polygon","coordinates":[[[19.98811370010731,39.928639313473],[19.988027373223787,39.92856658789556],[19.988113723192484,39.92850583429107],[19.988200050091105,39.92857855980499],[19.98811370010731,39.928639313473]]]},"properties":{"STRING":"","AREA":109,"Zk_Numer":2806,"Zk_Emer":"NIVICE","Nr_Pasurie":"","Vol":0,"Faqe":0,"Pronaret":"","Kufizimet":"","Siperfaqe":0}},
{"type":"Feature","geometry":{"type":"Polygon","coordinates":[[[19.988602388617025,39.928926303519034],[19.988624056969552,39.92887222415766],[19.98871319463853,39.9288933932152],[19.988691526349463,39.92894747259303],[19.988602388617025,39.928926303519034]]]},"properties":{"STRING":"","AREA":50,"Zk_Numer":2806,"Zk_Emer":"NIVICE","Nr_Pasurie":"","Vol":0,"Faqe":0,"Pronaret":"","Kufizimet":"","Siperfaqe":0}},
{"type":"Feature","geometry":{"type":"Polygon","coordinates":[[[19.99086389413953,39.928385923324306],[19.9902763321097,39.92814382412507],[19.99032914494102,39.92806785229503],[19.990916706507495,39.928309951229785],[19.99086389413953,39.928385923324306]]]},"properties":{"STRING":"","AREA":545,"Zk_Numer":2806,"Zk_Emer":"NIVICE","Nr_Pasurie":"","Vol":0,"Faqe":0,"Pronaret":"","Kufizimet":"","Siperfaqe":0}},
{"type":"Feature","geometry":{"type":"Polygon","coordinates":[[[19.994489916393483,39.92853222455338],[19.994415146006258,39.92847081399728],[19.994490999692875,39.92841607264518],[19.994565770088336,39.92847748315295],[19.994489916393483,39.92853222455338]]]},"properties":{"STRING":"","AREA":83,"Zk_Numer":2806,"Zk_Emer":"NIVICE","Nr_Pasurie":"","Vol":0,"Faqe":0,"Pronaret":"","Kufizimet":"","Siperfaqe":0}},
{"type":"Feature","geometry":{"type":"Polygon","coordinates":[[[19.979290604501372,39.941737934910265],[19.979190185563155,39.94166512021955],[19.97926962579227,39.94160020889884],[19.979370044719854,39.94167302352158],[19.979290604501372,39.941737934910265]]]},"properties":{"STRING":"","AREA":117,"Zk_Numer":2806,"Zk_Emer":"NIVICE","Nr_Pasurie":"","Vol":0,"Faqe":0,"Pronaret":"","Kufizimet":"","Siperfaqe":0}},
{"type":"Feature","geometry":{"type":"Polygon","coordinates":[[[19.982288832138607,39.92844132996357],[19.982326384840615,39.92840725842266],[19.98237340800171,39.92843797808475],[19.982280886840943,39.92852191976117],[19.982071925025505,39.928385405390685],[19.982166336343496,39.92829974501328],[19.98220961021366,39.928328015524244],[19.98217016508369,39.92836380497261],[19.982288832138607,39.92844132996357]]]},"properties":{"STRING":"","AREA":222,"Zk_Numer":2806,"Zk_Emer":"NIVICE","Nr_Pasurie":"","Vol":0,"Faqe":0,"Pronaret":"","Kufizimet":"","Siperfaqe":0}},
{"type":"Feature","geometry":{"type":"Polygon","coordinates":[[[19.981288278864305,39.92881334677773],[19.98115383618493,39.928801421453684],[19.98116677548485,39.928714519173866],[19.981301217996485,39.92872644448307],[19.981288278864305,39.92881334677773]]]},"properties":{"STRING":"","AREA":112,"Zk_Numer":2806,"Zk_Emer":"NIVICE","Nr_Pasurie":"","Vol":0,"Faqe":0,"Pronaret":"","Kufizimet":"","Siperfaqe":0}},
{"type":"Feature","geometry":{"type":"Polygon","coordinates":[[[19.982364294123833,39.928886953631896],[19.982625149426166,39.92895396775561],[19.982612925276182,39.928982168159095],[19.982352071048386,39.92891515401845],[19.982364294123833,39.928886953631896]]]},"properties":{"STRING":"","AREA":78,"Zk_Numer":2806,"Zk_Emer":"NIVICE","Nr_Pasurie":"","Vol":0,"Faqe":0,"Pronaret":"","Kufizimet":"","Siperfaqe":0}},
{"type":"Feature","geometry":{"type":"Polygon","coordinates":[[[19.982796407828378,39.928764422707374],[19.983139390283416,39.92884173304932],[19.983110076661823,39.928918811393544],[19.98276709513141,39.92884149377224],[19.982796407828378,39.928764422707374]]]},"properties":{"STRING":"","AREA":272,"Zk_Numer":2806,"Zk_Emer":"NIVICE","Nr_Pasurie":"","Vol":0,"Faqe":0,"Pronaret":"","Kufizimet":"","Siperfaqe":0}},
{"type":"Feature","geometry":{"type":"Polygon","coordinates":[[[19.98314505172573,39.92878933193176],[19.98297328677125,39.92875393181863],[19.98299012221486,39.928705517209615],[19.983161885887565,39.92874091731657],[19.98314505172573,39.92878933193176]]]},"properties":{"STRING":"","AREA":85,"Zk_Numer":2806,"Zk_Emer":"NIVICE","Nr_Pasurie":"","Vol":0,"Faqe":0,"Pronaret":"","Kufizimet":"","Siperfaqe":0}},
{"type":"Feature","geometry":{"type":"Polygon","coordinates":[[[20.018710632898554,39.879380687273645],[20.01861795519911,39.879330533271535],[20.018693352172097,39.879247833615175],[20.018786029815097,39.87929798755778],[20.018710632898554,39.879380687273645]]]},"properties":{"STRING":"","AREA":109,"Zk_Numer":2806,"Zk_Emer":"NIVICE","Nr_Pasurie":"","Vol":0,"Faqe":0,"Pronaret":"","Kufizimet":"","Siperfaqe":0}},
{"type":"Feature","geometry":{"type":"Polygon","coordinates":[[[19.947596471561422,39.9276287668636],[19.947393462963543,39.92754977385929],[19.947450329667454,39.92746314810663],[19.94765333807504,39.927542141012445],[19.947596471561422,39.9276287668636]]]},"properties":{"STRING":"","AREA":210,"Zk_Numer":2806,"Zk_Emer":"NIVICE","Nr_Pasurie":"","Vol":0,"Faqe":0,"Pronaret":"","Kufizimet":"","Siperfaqe":0}},
{"type":"Feature","geometry":{"type":"Polygon","coordinates":[[[19.947263777360572,39.92747728487647],[19.94710427112092,39.927362637661275],[19.947192610575783,39.92728978677882],[19.94735211679399,39.92740443387391],[19.947263777360572,39.92747728487647]]]},"properties":{"STRING":"","AREA":206,"Zk_Numer":2806,"Zk_Emer":"NIVICE","Nr_Pasurie":"","Vol":0,"Faqe":0,"Pronaret":"","Kufizimet":"","Siperfaqe":0}},
{"type":"Feature","geometry":{"type":"Polygon","coordinates":[[[19.948622351284406,39.92790762129008],[19.948550333947594,39.92775264103409],[19.94866613613157,39.92772074484446],[19.948738153696244,39.92787572502952],[19.948622351284406,39.92790762129008]]]},"properties":{"STRING":"","AREA":192,"Zk_Numer":2806,"Zk_Emer":"NIVICE","Nr_Pasurie":"","Vol":0,"Faqe":0,"Pronaret":"","Kufizimet":"","Siperfaqe":0}},
{"type":"Feature","geometry":{"type":"Polygon","coordinates":[[[19.948463508114703,39.927680903689556],[19.94829657358852,39.927561025379006],[19.948386895298153,39.92748647307582],[19.948553829801074,39.92760635125786],[19.948463508114703,39.927680903689556]]]},"properties":{"STRING":"","AREA":221,"Zk_Numer":2806,"Zk_Emer":"NIVICE","Nr_Pasurie":"","Vol":0,"Faqe":0,"Pronaret":"","Kufizimet":"","Siperfaqe":0}},
{"type":"Feature","geometry":{"type":"Polygon","coordinates":[[[19.949287380155152,39.927597841954714],[19.949099616194886,39.92753289022039],[19.94915519151448,39.92743766172356],[19.949342955267298,39.92750261336883],[19.949287380155152,39.927597841954714]]]},"properties":{"STRING":"","AREA":204,"Zk_Numer":2806,"Zk_Emer":"NIVICE","Nr_Pasurie":"","Vol":0,"Faqe":0,"Pronaret":"","Kufizimet":"","Siperfaqe":0}},
{"type":"Feature","geometry":{"type":"Polygon","coordinates":[[[19.947800124805035,39.92716232133036],[19.947584065707204,39.927136653024235],[19.947603933811394,39.927037524611414],[19.94781999260511,39.92706319288076],[19.947800124805035,39.92716232133036]]]},"properties":{"STRING":"","AREA":208,"Zk_Numer":2806,"Zk_Emer":"NIVICE","Nr_Pasurie":"","Vol":0,"Faqe":0,"Pronaret":"","Kufizimet":"","Siperfaqe":0}},
{"type":"Feature","geometry":{"type":"Polygon","coordinates":[[[19.949859793335808,39.93114992],[19.949824922513073,39.93111298986673],[19.949873454199825,39.93108583015249],[19.949908325034887,39.93112276027134],[19.949859793335808,39.93114992]]]},"properties":{"STRING":"","AREA":26,"Zk_Numer":2806,"Zk_Emer":"NIVICE","Nr_Pasurie":"","Vol":0,"Faqe":0,"Pronaret":"","Kufizimet":"","Siperfaqe":0}},
{"type":"Feature","geometry":{"type":"Polygon","coordinates":[[[19.93942830424416,39.927906600379195],[19.939315942872355,39.9279099621874],[19.939314362376333,39.92787866432257],[19.939116265647367,39.9278845928143],[19.9391113629852,39.92778751769818],[19.93930398120762,39.927781750745574],[19.93934488971822,39.92778052636876],[19.93934579140353,39.92779835398291],[19.939422722343917,39.92779605232449],[19.93942830424416,39.927906600379195]]]},"properties":{"STRING":"","AREA":307,"Zk_Numer":2806,"Zk_Emer":"NIVICE","Nr_Pasurie":"","Vol":0,"Faqe":0,"Pronaret":"","Kufizimet":"","Siperfaqe":0}},
{"type":"Feature","geometry":{"type":"Polygon","coordinates":[[[19.93837474543406,39.92572355595158],[19.938644649893224,39.92584748149056],[19.938692035367502,39.92586913256968],[19.938663802478356,39.925905790861144],[19.938616287789948,39.92588409806074],[19.938612098502965,39.925889503872256],[19.93834219624901,39.925765580080686],[19.93837474543406,39.92572355595158]]]},"properties":{"STRING":"","AREA":168,"Zk_Numer":2806,"Zk_Emer":"NIVICE","Nr_Pasurie":"","Vol":0,"Faqe":0,"Pronaret":"","Kufizimet":"","Siperfaqe":0}},
{"type":"Feature","geometry":{"type":"Polygon","coordinates":[[[19.93782258854277,39.9255350982415],[19.937953252211702,39.925591111340076],[19.93792470288314,39.92563059175608],[19.93779403562593,39.9255745803945],[19.93779065992565,39.925573131017536],[19.93778474325009,39.925581313752886],[19.937652437747087,39.92552459825892],[19.93768735682245,39.9254763125076],[19.937667556823445,39.92546782392327],[19.937692978127444,39.92543267203999],[19.937783445325213,39.925471453231154],[19.937848460420902,39.92549932273057],[19.93782258854277,39.9255350982415]]]},"properties":{"STRING":"","AREA":213,"Zk_Numer":2806,"Zk_Emer":"NIVICE","Nr_Pasurie":"","Vol":0,"Faqe":0,"Pronaret":"","Kufizimet":"","Siperfaqe":0}},
{"type":"Feature","geometry":{"type":"Polygon","coordinates":[[[19.98250581992575,39.926577382856756],[19.9823938882509,39.926626131369346],[19.98236220180117,39.926583005114985],[19.98231385196794,39.92651719873313],[19.982303666638572,39.926503335327375],[19.98245236536024,39.926438574245],[19.98251089927877,39.92651824210563],[19.982474132300933,39.9265342548156],[19.98250581992575,39.926577382856756]]]},"properties":{"STRING":"","AREA":209,"Zk_Numer":2806,"Zk_Emer":"NIVICE","Nr_Pasurie":"","Vol":0,"Faqe":0,"Pronaret":"","Kufizimet":"","Siperfaqe":0}},
{"type":"Feature","geometry":{"type":"Polygon","coordinates":[[[19.982497669127824,39.92621360212652],[19.982353789588167,39.926279110130984],[19.98227131868331,39.92617173900455],[19.98241519807673,39.92610623110118],[19.9824215726688,39.92611453034855],[19.98245779095338,39.926098040211755],[19.982472860710267,39.92611765989768],[19.98250783417226,39.92610173650714],[19.98255011248056,39.92615677956625],[19.982515139000345,39.926172702969396],[19.982533887446355,39.92619711196625],[19.982497669127824,39.92621360212652]]]},"properties":{"STRING":"","AREA":269,"Zk_Numer":2806,"Zk_Emer":"NIVICE","Nr_Pasurie":"","Vol":0,"Faqe":0,"Pronaret":"","Kufizimet":"","Siperfaqe":0}},
{"type":"Feature","geometry":{"type":"Polygon","coordinates":[[[19.957120046486764,39.89613663993301],[19.95713122904439,39.896145354979],[19.957089881433614,39.896176828755],[19.957023285508125,39.89612492707046],[19.95706454829435,39.896093515588106],[19.957103729663853,39.896063686885185],[19.95709312448907,39.89605542103466],[19.95713471973388,39.89602375689543],[19.957124033059156,39.89601542645613],[19.95716562664096,39.89598376254246],[19.95715526536307,39.89597568796944],[19.95723205059376,39.895917237126156],[19.95726099025844,39.89593979223436],[19.957252838632858,39.895945998915465],[19.9572807099595,39.8959677195046],[19.95721357713732,39.89601882589456],[19.957224263823427,39.896027156325616],[19.957182919575445,39.896058629661745],[19.957192704468294,39.89606625554167],[19.95715135886528,39.896097730354555],[19.957161141828085,39.89610535522259],[19.957120046486764,39.89613663993301]]]},"properties":{"STRING":"","AREA":202,"Zk_Numer":2806,"Zk_Emer":"NIVICE","Nr_Pasurie":"","Vol":0,"Faqe":0,"Pronaret":"","Kufizimet":"","Siperfaqe":0}},
{"type":"Feature","geometry":{"type":"Polygon","coordinates":[[[19.957237121259094,39.89546004010718],[19.95709992886442,39.89543722178128],[19.957119677997042,39.89536677200919],[19.957256869061467,39.89538959210238],[19.957237121259094,39.89546004010718]]]},"properties":{"STRING":"","AREA":96,"Zk_Numer":2806,"Zk_Emer":"NIVICE","Nr_Pasurie":"","Vol":0,"Faqe":0,"Pronaret":"","Kufizimet":"","Siperfaqe":0}},
{"type":"Feature","geometry":{"type":"Polygon","coordinates":[[[19.955901564966144,39.894025314348305],[19.955791098870062,39.894035331750466],[19.955794298672405,39.8940562673269],[19.955746674785185,39.894060587616146],[19.955722360552308,39.89390150409054],[19.955773120398778,39.89389690101647],[19.955776922814206,39.8939217746859],[19.9558842504779,39.893912042007166],[19.955901564966144,39.894025314348305]]]},"properties":{"STRING":"","AREA":194,"Zk_Numer":2806,"Zk_Emer":"NIVICE","Nr_Pasurie":"","Vol":0,"Faqe":0,"Pronaret":"","Kufizimet":"","Siperfaqe":0}},
{"type":"Feature","geometry":{"type":"Polygon","coordinates":[[[19.95622220122083,39.89260628484868],[19.95609235564401,39.892554536344015],[19.956151472389823,39.89246651916663],[19.95628132018318,39.89251826762689],[19.95622220122083,39.89260628484868]]]},"properties":{"STRING":"","AREA":138,"Zk_Numer":2806,"Zk_Emer":"NIVICE","Nr_Pasurie":"","Vol":0,"Faqe":0,"Pronaret":"","Kufizimet":"","Siperfaqe":0}},
{"type":"Feature","geometry":{"type":"Polygon","coordinates":[[[19.95573728904327,39.89480299086122],[19.9557574505748,39.894645913478755],[19.955835890144815,39.89465188694825],[19.95581682457897,39.894800427060055],[19.95573728904327,39.89480299086122]]]},"properties":{"STRING":"","AREA":115,"Zk_Numer":2806,"Zk_Emer":"NIVICE","Nr_Pasurie":"","Vol":0,"Faqe":0,"Pronaret":"","Kufizimet":"","Siperfaqe":0}},
{"type":"Feature","geometry":{"type":"Polygon","coordinates":[[[19.956139854687304,39.8935520801291],[19.956029251014634,39.89355660176742],[19.95602122748471,39.8934401506922],[19.956131830970723,39.893435629061344],[19.956139854687304,39.8935520801291]]]},"properties":{"STRING":"","AREA":123,"Zk_Numer":2806,"Zk_Emer":"NIVICE","Nr_Pasurie":"","Vol":0,"Faqe":0,"Pronaret":"","Kufizimet":"","Siperfaqe":0}},
{"type":"Feature","geometry":{"type":"Polygon","coordinates":[[[19.956789269219804,39.896209295192676],[19.956726396873698,39.89615208632364],[19.956803272767665,39.89610196161676],[19.956866145131958,39.896159170444626],[19.956789269219804,39.896209295192676]]]},"properties":{"STRING":"","AREA":72,"Zk_Numer":2806,"Zk_Emer":"NIVICE","Nr_Pasurie":"","Vol":0,"Faqe":0,"Pronaret":"","Kufizimet":"","Siperfaqe":0}},
{"type":"Feature","geometry":{"type":"Polygon","coordinates":[[[19.95671080906633,39.89657179236209],[19.956647936454537,39.896514583453964],[19.95672481281086,39.89646445880248],[19.956787685440855,39.89652166766944],[19.95671080906633,39.89657179236209]]]},"properties":{"STRING":"","AREA":72,"Zk_Numer":2806,"Zk_Emer":"NIVICE","Nr_Pasurie":"","Vol":0,"Faqe":0,"Pronaret":"","Kufizimet":"","Siperfaqe":0}},
{"type":"Feature","geometry":{"type":"Polygon","coordinates":[[[19.95567162889375,39.893707652037925],[19.955701671804054,39.8936712793753],[19.95577684326351,39.89367133124169],[19.955776800962113,39.8937077246176],[19.95577670889686,39.89378693139715],[19.955671536707438,39.893786858817315],[19.95567162889375,39.893707652037925]]]},"properties":{"STRING":"","AREA":110,"Zk_Numer":2806,"Zk_Emer":"NIVICE","Nr_Pasurie":"","Vol":0,"Faqe":0,"Pronaret":"","Kufizimet":"","Siperfaqe":0}},
{"type":"Feature","geometry":{"type":"Polygon","coordinates":[[[19.939082690171624,39.926087475654626],[19.939132049256635,39.92608803361076],[19.939132447349515,39.926067056683],[19.939174315272272,39.92606752924604],[19.93917393306913,39.926087609723076],[19.939210856678784,39.92608802520876],[19.939211163733432,39.926071878942274],[19.939228573205458,39.926072076159905],[19.939228133356984,39.926095237048116],[19.939224230816453,39.92615728844892],[19.939172098360416,39.92615669953853],[19.939172225938805,39.92615009353267],[19.93908151845243,39.92614906974935],[19.939082690171624,39.926087475654626]]]},"properties":{"STRING":"","AREA":99,"Zk_Numer":2806,"Zk_Emer":"NIVICE","Nr_Pasurie":"","Vol":0,"Faqe":0,"Pronaret":"","Kufizimet":"","Siperfaqe":0}},
{"type":"Feature","geometry":{"type":"Polygon","coordinates":[[[19.939421303341167,39.92682691946026],[19.939193928410326,39.9268867024973],[19.939163390424522,39.926817856299756],[19.939321280157973,39.9267763428686],[19.939311908638388,39.926755215376694],[19.939381393615555,39.92673694583537],[19.939421303341167,39.92682691946026]]]},"properties":{"STRING":"","AREA":181,"Zk_Numer":2806,"Zk_Emer":"NIVICE","Nr_Pasurie":"","Vol":0,"Faqe":0,"Pronaret":"","Kufizimet":"","Siperfaqe":0}}
]}