{"type":"FeatureCollection", "features": [
{"type":"Feature","geometry":{"type":"Polygon","coordinates":[[[19.531779126546553,40.53226003920538],[19.53170246509624,40.5321670660268],[19.531749907510825,40.53214429225069],[19.53174676565096,40.53214048187471],[19.531835657664807,40.53209781095922],[19.531882785646292,40.53215496655451],[19.53184233477892,40.53217438424313],[19.531867469723768,40.53220486722803],[19.531793559416304,40.53224034644018],[19.53180109989802,40.53224949133932],[19.531779126546553,40.53226003920538]]]},"properties":{"Zk_Numer":1826,"Zk_Emer":"GRABIAN","Nr_Pas":"340/3-ND","Vol":2,"Faqe":39,"Pronaret":"ALTIN BARAJ QAZIM","Kufizimet":"KUFIZOHET PASURIA DERI NE PLOTESIMIN E DOKUMENTACIONIT TEKNIKO-LIGJOR (MUNGON MARREDHENIA LIGJORE ME TRUALLIN)  KJO NDERTESE BIE MBI PASURINE ME NR. 340/3","Siperfaqe":141}},
{"type":"Feature","geometry":{"type":"Polygon","coordinates":[[[19.531805738661117,40.53241268071911],[19.531630372195888,40.53250732683706],[19.53161128833371,40.53248674158171],[19.531646939792253,40.532467500365655],[19.531628537502243,40.53244765030059],[19.53166756136686,40.53242658896277],[19.53163995794335,40.53239681386885],[19.531740649014285,40.53234247037876],[19.531805738661117,40.53241268071911]]]},"properties":{"Zk_Numer":1826,"Zk_Emer":"GRABIAN","Nr_Pas":"339/2-ND","Vol":1,"Faqe":228,"Pronaret":"HEKTOR QAMILI BARDHYL","Kufizimet":"KUFIZOHET PASURIA DERI NE PLOTESIMIN E DOKUMENTACIONIT TEKNIKO-LIGJOR (MUNGON MARREDHENIA LIGJORE ME TRUALLIN)  KJO NDERTESE BIE MBI PASURINE ME NR.339/2","Siperfaqe":132}},
{"type":"Feature","geometry":{"type":"Polygon","coordinates":[[[19.532091267806475,40.53285395419783],[19.53198015059153,40.53292523341531],[19.53192888319567,40.532878706927555],[19.532040000387145,40.53280742775867],[19.532091267806475,40.53285395419783]]]},"properties":{"Zk_Numer":1826,"Zk_Emer":"GRABIAN","Nr_Pas":"337/1-ND","Vol":1,"Faqe":225,"Pronaret":"ARDIAN HATJA FASLLI","Kufizimet":"KUFIZOHET PASURIA DERI NE PLOTESIMIN E DOKUMENTACIONIT TEKNIKO-LIGJOR (MUNGON MARREDHENIA LIGJORE ME TRUALLIN)  KJO NDERTESE BIE MBI PASURINE ME NR.337/1","Siperfaqe":83}},
{"type":"Feature","geometry":{"type":"Polygon","coordinates":[[[19.53086828222655,40.53156859662307],[19.53096296346244,40.53152277397585],[19.530990778585135,40.53155623363446],[19.531010711466536,40.53154658674663],[19.531029676342843,40.53156940014315],[19.530999777012447,40.5315838704784],[19.531023167036615,40.531612007002416],[19.530938452176038,40.5316530062599],[19.53086828222655,40.53156859662307]]]},"properties":{"Zk_Numer":1826,"Zk_Emer":"GRABIAN","Nr_Pas":"339/15-ND","Vol":1,"Faqe":229,"Pronaret":"KASTRIOT LUMAJ MUJO","Kufizimet":"KUFIZOHET PASURIA DERI NE PLOTESIMIN E DOKUMENTACIONIT TEKNIKO-LIGJOR (MUNGON MARREDHENIA LIGJORE ME TRUALLIN)  KJO NDERTESE BIE MBI PASURINE ME NR.339/15","Siperfaqe":108}},
{"type":"Feature","geometry":{"type":"Polygon","coordinates":[[[19.531447523526904,40.53136768361558],[19.53140687090697,40.531268878343276],[19.531546499149364,40.53123543240625],[19.531587151955108,40.531334237631],[19.531447523526904,40.53136768361558]]]},"properties":{"Zk_Numer":1826,"Zk_Emer":"GRABIAN","Nr_Pas":"376/7-ND","Vol":1,"Faqe":78,"Pronaret":"FUAT BAKO KASEM","Kufizimet":"KUFIZOHET PASURIA DERI NE PLOTESIMIN E DOKUMENTACIONIT TEKNIKO-LIGJOR (MUNGON MARREDHENIA LIGJORE ME TRUALLIN)  KJO NDERTESE BIE MBI PASURINE ME NR 376/7","Siperfaqe":143}},
{"type":"Feature","geometry":{"type":"Polygon","coordinates":[[[19.52969474479422,40.52983135714639],[19.5297827760384,40.52986806101407],[19.529788359600328,40.52987038902844],[19.52979520398653,40.52987324273119],[19.529742573644107,40.5299467348419],[19.52973662739169,40.529944255606814],[19.52973014568656,40.529941553119116],[19.529716556640743,40.52996052859527],[19.529715714763455,40.52996170417574],[19.52966962776145,40.52994248860311],[19.529670234807757,40.5299416409367],[19.529678399505876,40.52993023992537],[19.529636455184026,40.529912751582515],[19.52969474479422,40.52983135714639]]]},"properties":{"Zk_Numer":1826,"Zk_Emer":"GRABIAN","Nr_Pas":"380/17-ND","Vol":1,"Faqe":227,"Pronaret":"ERJON BRAHIMAJ REUF","Kufizimet":"KUFIZOHET PASURIA DERI NE PLOTESIMIN E DOKUMENTACIONIT TEKNIKO-LIGJOR (MUNGON MARREDHENIA LIGJORE ME TRUALLIN)  KJO NDERTESE BIE MBI PASURINE ME NR.380/17","Siperfaqe":106}},
{"type":"Feature","geometry":{"type":"Polygon","coordinates":[[[19.5307843252605,40.529816869169345],[19.530769285407963,40.52981455534677],[19.530755402468092,40.529812419508815],[19.530647809714505,40.529795866708334],[19.53065923969543,40.52975261172131],[19.530688162455572,40.52975706140576],[19.53068874561656,40.529754854518465],[19.5306984260832,40.52971822018897],[19.530806018725695,40.52973477294194],[19.5307843252605,40.529816869169345]]]},"properties":{"Zk_Numer":1826,"Zk_Emer":"GRABIAN","Nr_Pas":"381/11-ND","Vol":1,"Faqe":76,"Pronaret":"ARMANDO KAPLLANI VASIL","Kufizimet":"KUFIZOHET PASURIA DERI NE PLOTESIMIN E DOKUMENTACIONIT TEKNIKO-LIGJOR (MUNGON MARREDHENIA LIGJORE ME TRUALLIN)  KJO NDERTESE BIE MBI PASURINE ME NR.381/11","Siperfaqe":99}},
{"type":"Feature","geometry":{"type":"Polygon","coordinates":[[[19.532690054522938,40.530838311496524],[19.532552994547114,40.53082549922196],[19.532565767731917,40.530745947767095],[19.532647769325052,40.53075361324053],[19.532649922089874,40.53074020569007],[19.532688579982878,40.53074381939238],[19.53268642722563,40.530757226943564],[19.53270282754838,40.53075876002577],[19.532690054522938,40.530838311496524]]]},"properties":{"Zk_Numer":1826,"Zk_Emer":"GRABIAN","Nr_Pas":"342/27-ND","Vol":2,"Faqe":144,"Pronaret":"JETNOR ELMAZI LAVDOSH","Kufizimet":"KUFIZOHET PASURIA DERI NE PLOTESIMIN E DOKUMENTACIONIT TEKNIKO-LIGJOR (MUNGON MARREDHENIA LIGJORE ME TRUALLIN)  KJO NDERTESE BIE MBI PASURINE ME NR. 342/27","Siperfaqe":109}},
{"type":"Feature","geometry":{"type":"Polygon","coordinates":[[[19.53341658329726,40.53170793310896],[19.53341992195549,40.53181866771865],[19.533338507702947,40.531820096726925],[19.533337612000413,40.5317903874412],[19.533288055519325,40.531791257243974],[19.533285612757307,40.53171023191774],[19.53341658329726,40.53170793310896]]]},"properties":{"Zk_Numer":1826,"Zk_Emer":"GRABIAN","Nr_Pas":"342/19-ND","Vol":1,"Faqe":233,"Pronaret":"DELI SADIKAJ TOFIK","Kufizimet":"KUFIZOHET PASURIA DERI NE PLOTESIMIN E DOKUMENTACIONIT TEKNIKO-LIGJOR (MUNGON MARREDHENIA LIGJORE ME TRUALLIN)  KJO NDERTESE BIE MBI PASURINE ME NR.342/19","Siperfaqe":123}},
{"type":"Feature","geometry":{"type":"Polygon","coordinates":[[[19.533580080870973,40.53181669710262],[19.533576159159445,40.53173795847645],[19.533679354566704,40.53173496614755],[19.533683276398914,40.53181370477092],[19.533580080870973,40.53181669710262]]]},"properties":{"Zk_Numer":1826,"Zk_Emer":"GRABIAN","Nr_Pas":"342/20-ND","Vol":1,"Faqe":234,"Pronaret":"SILVANA AJBIKAJ ALEM, ENVER AJBIKAJ HYSENJ","Kufizimet":"KUFIZOHET PASURIA DERI NE PLOTESIMIN E DOKUMENTACIONIT TEKNIKO-LIGJOR (MUNGON MARREDHENIA LIGJORE ME TRUALLIN)  KJO NDERTESE BIE MBI PASURINE ME NR.342/20","Siperfaqe":77}},
{"type":"Feature","geometry":{"type":"Polygon","coordinates":[[[19.532810015670105,40.53204313476718],[19.53279914062078,40.53194352210323],[19.53290264246932,40.53193694371524],[19.532913517671034,40.53203655637041],[19.532810015670105,40.53204313476718]]]},"properties":{"Zk_Numer":1826,"Zk_Emer":"GRABIAN","Nr_Pas":"335/6-ND","Vol":1,"Faqe":13,"Pronaret":"ISMAIL VEIZAJ RUSTEM","Kufizimet":"KUFIZOHET PASURIA DERI NE PLOTESIMIN E DOKUMENTACIONIT TEKNIKO-LIGJOR (MUNGON MARREDHENIA LIGJORE ME TRUALLIN)  KJO NDERTESE BIE MBI PASURINE ME NR.335/6","Siperfaqe":98}},
{"type":"Feature","geometry":{"type":"Polygon","coordinates":[[[19.53296362061506,40.531977109652374],[19.532968199770337,40.5320093395277],[19.53293299903641,40.53201225111089],[19.53292841989782,40.5319800212343],[19.53296362061506,40.531977109652374]]]},"properties":{"Zk_Numer":1826,"Zk_Emer":"GRABIAN","Nr_Pas":"335/6-ND1","Vol":1,"Faqe":14,"Pronaret":"ISMAIL VEIZAJ RUSTEM","Kufizimet":"KUFIZOHET PASURIA DERI NE PLOTESIMIN E DOKUMENTACIONIT TEKNIKO-LIGJOR (MUNGON MARREDHENIA LIGJORE ME TRUALLIN)  KJO NDERTESE BIE MBI PASURINE ME NR.335/6","Siperfaqe":11}},
{"type":"Feature","geometry":{"type":"Polygon","coordinates":[[[19.53208719841004,40.531978986731936],[19.53197834695361,40.53196044220494],[19.532013067947144,40.53184179374552],[19.53212191922178,40.53186033823917],[19.53208719841004,40.531978986731936]]]},"properties":{"Zk_Numer":1826,"Zk_Emer":"GRABIAN","Nr_Pas":"341/2-ND","Vol":1,"Faqe":77,"Pronaret":"FILO BARAJ SELAM","Kufizimet":"KUFIZOHET PASURIA DERI NE PLOTESIMIN E DOKUMENTACIONIT TEKNIKO-LIGJOR (MUNGON MARREDHENIA LIGJORE ME TRUALLIN)  KJO NDERTESE BIE MBI PASURINE ME NR.341/2","Siperfaqe":128}},
{"type":"Feature","geometry":{"type":"Polygon","coordinates":[[[19.536997733554443,40.52673719345021],[19.536993533094787,40.52677336016871],[19.536880681906407,40.52676572854372],[19.536890370737552,40.52668230709487],[19.537003221787284,40.52668993870973],[19.536997733554443,40.52673719345021]]]},"properties":{"Zk_Numer":1826,"Zk_Emer":"GRABIAN","Nr_Pas":"383/125-ND","Vol":1,"Faqe":75,"Pronaret":"ALTIN BARAJ QAZIM, MARINELA BAKO SOTIR","Kufizimet":"KUFIZOHET PASURIA DERI NE PLOTESIMIN E DOKUMENTACIONIT TEKNIKO-LIGJOR (MUNGON MARREDHENIA LIGJORE ME TRUALLIN)  KJO NDERTESE BIE MBI PASURINE ME NR.383/125","Siperfaqe":89}},
{"type":"Feature","geometry":{"type":"Polygon","coordinates":[[[19.537449520305874,40.526395219866984],[19.537422674422835,40.52641213363093],[19.537452729379577,40.52643991015823],[19.537372646654422,40.52649036475888],[19.53732380738004,40.52644522786467],[19.53729375247448,40.52641745130418],[19.537400681048073,40.52635008300465],[19.537449520305874,40.526395219866984]]]},"properties":{"Zk_Numer":1826,"Zk_Emer":"GRABIAN","Nr_Pas":"383/124-ND","Vol":1,"Faqe":197,"Pronaret":"JANI BARAJ OSMAN","Kufizimet":"KUFIZOHET PASURIA DERI NE PLOTESIMIN E DOKUMENTACIONIT TEKNIKO-LIGJOR (MUNGON MARREDHENIA LIGJORE ME TRUALLIN)  KJO NDERTESE BIE MBI PASURINE ME NR. 383/124","Siperfaqe":112}},
{"type":"Feature","geometry":{"type":"Polygon","coordinates":[[[19.537413248621966,40.52530087384495],[19.537520667731844,40.525182378962924],[19.537617720934666,40.5252336097133],[19.537510301912224,40.52535210468497],[19.537413248621966,40.52530087384495]]]},"properties":{"Zk_Numer":1826,"Zk_Emer":"GRABIAN","Nr_Pas":"383/67-ND","Vol":1,"Faqe":198,"Pronaret":"DERVISH ARIZAJ SYBI","Kufizimet":"KUFIZOHET PASURIA DERI NE PLOTESIMIN E DOKUMENTACIONIT TEKNIKO-LIGJOR (MUNGON MARREDHENIA LIGJORE ME TRUALLIN)  KJO NDERTESE BIE MBI PASURINE ME NR. 383/67","Siperfaqe":160}},
{"type":"Feature","geometry":{"type":"Polygon","coordinates":[[[19.53781434744993,40.524230018116526],[19.537801996153554,40.524251450813125],[19.537851147862035,40.52426794484376],[19.537811481185365,40.524336776780466],[19.537762329436653,40.52432028273295],[19.53775116573513,40.52433965458792],[19.537673387175396,40.524313554067064],[19.53773656899162,40.52420391763824],[19.53781434744993,40.524230018116526]]]},"properties":{"Zk_Numer":1826,"Zk_Emer":"GRABIAN","Nr_Pas":"383/72-ND","Vol":1,"Faqe":199,"Pronaret":"EDUART BRAHIMAJ REUF","Kufizimet":"KUFIZOHET PASURIA DERI NE PLOTESIMIN E DOKUMENTACIONIT TEKNIKO-LIGJOR (MUNGON MARREDHENIA LIGJORE ME TRUALLIN)  KJO NDERTESE BIE MBI PASURINE ME NR. 383/72","Siperfaqe":134}},
{"type":"Feature","geometry":{"type":"Polygon","coordinates":[[[19.53735474054999,40.522758909462596],[19.53739987922474,40.52274328929098],[19.537386964168387,40.522721555699995],[19.537427803893216,40.522707423152895],[19.53748092629699,40.52279681789558],[19.537394947817603,40.52282657064794],[19.53735474054999,40.522758909462596]]]},"properties":{"Zk_Numer":1826,"Zk_Emer":"GRABIAN","Nr_Pas":"383/13-ND","Vol":1,"Faqe":200,"Pronaret":"AVDI BUSHAJ REIS","Kufizimet":"KUFIZOHET PASURIA DERI NE PLOTESIMIN E DOKUMENTACIONIT TEKNIKO-LIGJOR (MUNGON MARREDHENIA LIGJORE ME TRUALLIN)  KJO NDERTESE BIE MBI PASURINE ME NR. 383/13","Siperfaqe":76}},
{"type":"Feature","geometry":{"type":"Polygon","coordinates":[[[19.538441693690515,40.52271671256033],[19.53841628355207,40.52283216326546],[19.538297578914506,40.52281694896618],[19.538322989250382,40.52270149828792],[19.538441693690515,40.52271671256033]]]},"properties":{"Zk_Numer":1826,"Zk_Emer":"GRABIAN","Nr_Pas":"423-ND","Vol":1,"Faqe":202,"Pronaret":"BUBAREQ HAMZAJ REMZI","Kufizimet":"KUFIZOHET PASURIA DERI NE PLOTESIMIN E DOKUMENTACIONIT TEKNIKO-LIGJOR (MUNGON MARREDHENIA LIGJORE ME TRUALLIN)  KJO NDERTESE BIE MBI PASURINE ME NR. 423","Siperfaqe":133}},
{"type":"Feature","geometry":{"type":"Polygon","coordinates":[[[19.538093054275986,40.52115436732648],[19.538089523466493,40.52107696935802],[19.538189766212906,40.521074306190556],[19.538193297137614,40.521151704156615],[19.538093054275986,40.52115436732648]]]},"properties":{"Zk_Numer":1826,"Zk_Emer":"GRABIAN","Nr_Pas":"423/2-ND","Vol":1,"Faqe":203,"Pronaret":"ALEKSANDRA BUSHI MYFTAR","Kufizimet":"KUFIZOHET PASURIA DERI NE PLOTESIMIN E DOKUMENTACIONIT TEKNIKO-LIGJOR (MUNGON MARREDHENIA LIGJORE ME TRUALLIN)  KJO NDERTESE BIE MBI PASURINE ME NR. 423/2","Siperfaqe":73}},
{"type":"Feature","geometry":{"type":"Polygon","coordinates":[[[19.5365129932923,40.529791552598525],[19.53654746331796,40.52974958464057],[19.536520462404965,40.52973667295475],[19.536547411675574,40.52970386164091],[19.53669041658768,40.529772245650165],[19.536628997376425,40.52984702498958],[19.5365129932923,40.529791552598525]]]},"properties":{"Zk_Numer":1826,"Zk_Emer":"GRABIAN","Nr_Pas":"383/156-ND","Vol":2,"Faqe":41,"Pronaret":"VERO HOXHAJ NOVRUS","Kufizimet":"KUFIZOHET PASURIA DERI NE PLOTESIMIN E DOKUMENTACIONIT TEKNIKO-LIGJOR (MUNGON MARREDHENIA LIGJORE ME TRUALLIN)  KJO NDERTESE BIE MBI PASURINE ME NR. 383/156","Siperfaqe":125}},
{"type":"Feature","geometry":{"type":"Polygon","coordinates":[[[19.53435177105511,40.532146759762604],[19.53436066507553,40.532241521902634],[19.53425412650873,40.53224734314011],[19.534249068380152,40.53219344997599],[19.53423141006656,40.532194414811805],[19.534227574334874,40.532153545828045],[19.53435177105511,40.532146759762604]]]},"properties":{"Zk_Numer":1826,"Zk_Emer":"GRABIAN","Nr_Pas":"335/12-ND","Vol":2,"Faqe":43,"Pronaret":"SELAMET VEIZAJ ASAF","Kufizimet":"KUFIZOHET PASURIA DERI NE PLOTESIMIN E DOKUMENTACIONIT TEKNIKO-LIGJOR (MUNGON MARREDHENIA LIGJORE ME TRUALLIN)  KJO NDERTESE BIE MBI PASURINE ME NR. 335/12","Siperfaqe":102}},
{"type":"Feature","geometry":{"type":"Polygon","coordinates":[[[19.53283483328309,40.52947532485803],[19.5328417676869,40.52939851243107],[19.532795849234855,40.52939609890792],[19.53279860679165,40.52936555361611],[19.532897508032654,40.52937075194841],[19.532887816176835,40.529478109673256],[19.53283483328309,40.52947532485803]]]},"properties":{"Zk_Numer":1826,"Zk_Emer":"GRABIAN","Nr_Pas":"383/175-ND1","Vol":2,"Faqe":40,"Pronaret":"FREDERIK ELMAZI NEXHIP","Kufizimet":"KUFIZOHET PASURIA DERI NE PLOTESIMIN E DOKUMENTACIONIT TEKNIKO-LIGJOR (MUNGON MARREDHENIA LIGJORE ME TRUALLIN)  KJO NDERTESE BIE MBI PASURINE ME NR. 383/175","Siperfaqe":67}},
{"type":"Feature","geometry":{"type":"Polygon","coordinates":[[[19.532783342366926,40.52933051416436],[19.53281456600122,40.52933727110767],[19.532806837673,40.529358063533714],[19.532775614029834,40.52935130658829],[19.532783342366926,40.52933051416436]]]},"properties":{"Zk_Numer":1826,"Zk_Emer":"GRABIAN","Nr_Pas":"383/175-ND2","Vol":2,"Faqe":45,"Pronaret":"FREDERIK ELMAZI NEXHIP","Kufizimet":"KUFIZOHET PASURIA DERI NE PLOTESIMIN E DOKUMENTACIONIT TEKNIKO-LIGJOR (MUNGON MARREDHENIA LIGJORE ME TRUALLIN)  KJO NDERTESE BIE MBI PASURINE ME NR. 383/175","Siperfaqe":7}},
{"type":"Feature","geometry":{"type":"Polygon","coordinates":[[[19.53267034659673,40.53165874932575],[19.532670878353205,40.53158220624053],[19.53277119603881,40.53158261193007],[19.53277066439647,40.53165915501638],[19.53267034659673,40.53165874932575]]]},"properties":{"Zk_Numer":1826,"Zk_Emer":"GRABIAN","Nr_Pas":"342/6-ND","Vol":2,"Faqe":44,"Pronaret":"QEMAL BARAJ RAKIP","Kufizimet":"KUFIZOHET PASURIA DERI NE PLOTESIMIN E DOKUMENTACIONIT TEKNIKO-LIGJOR (MUNGON MARREDHENIA LIGJORE ME TRUALLIN)  KJO NDERTESE BIE MBI PASURINE ME NR. 342/6","Siperfaqe":72}},
{"type":"Feature","geometry":{"type":"Polygon","coordinates":[[[19.531563883402242,40.5322997943242],[19.53161965310036,40.53236342071477],[19.53151762293758,40.53241548454312],[19.531461853293745,40.53235185810418],[19.531563883402242,40.5322997943242]]]},"properties":{"Zk_Numer":1826,"Zk_Emer":"GRABIAN","Nr_Pas":"339/3-ND","Vol":2,"Faqe":37,"Pronaret":"NIKO DHIMA BARDHYL","Kufizimet":"KUFIZOHET PASURIA DERI NE PLOTESIMIN E DOKUMENTACIONIT TEKNIKO-LIGJOR (MUNGON MARREDHENIA LIGJORE ME TRUALLIN)  KJO NDERTESE BIE MBI PASURINE ME NR. 339/3","Siperfaqe":88}},
{"type":"Feature","geometry":{"type":"Polygon","coordinates":[[[19.5315614197263,40.53186772796925],[19.53167733185917,40.531838316064174],[19.531710106657567,40.53191351259357],[19.531562836488533,40.53195088136291],[19.531544959397078,40.53190986505331],[19.531576317300267,40.531901908225606],[19.5315614197263,40.53186772796925]]]},"properties":{"Zk_Numer":1826,"Zk_Emer":"GRABIAN","Nr_Pas":"340/5-ND","Vol":3,"Faqe":43,"Pronaret":"XHEZMI BARAJ HAIR","Kufizimet":"KUFIZOHET PASURIA DERI NE PLOTESIMIN E DOKUMENTACIONIT TEKNIKO-LIGJOR (MUNGON MARREDHENIA LIGJORE ME TRUALLIN)  KJO NDERTESE BIE MBI PASURINE ME NR. 340/5","Siperfaqe":105}},
{"type":"Feature","geometry":{"type":"Polygon","coordinates":[[[19.531648007306433,40.5317707757426],[19.53154429722768,40.53179819875849],[19.53150062731762,40.53170204998922],[19.5316043372652,40.53167462701135],[19.531648007306433,40.5317707757426]]]},"properties":{"Zk_Numer":1826,"Zk_Emer":"GRABIAN","Nr_Pas":"340/6-ND","Vol":2,"Faqe":16,"Pronaret":"PELIVAN BARAJ RAKIP","Kufizimet":"KUFIZOHET PASURIA DERI NE PLOTESIMIN E DOKUMENTACIONIT TEKNIKO-LIGJOR (MUNGON MARREDHENIA LIGJORE ME TRUALLIN)  KJO NDERTESE BIE MBI PASURINE ME NR. 340/6","Siperfaqe":105}},
{"type":"Feature","geometry":{"type":"Polygon","coordinates":[[[19.530914879932254,40.53146612495764],[19.53084145228066,40.531496931193736],[19.530785155232056,40.53141881055546],[19.530858582823466,40.53138800435438],[19.53088054605456,40.53141848162568],[19.530914879932254,40.53146612495764]]]},"properties":{"Zk_Numer":1826,"Zk_Emer":"GRABIAN","Nr_Pas":"377/2-ND","Vol":2,"Faqe":36,"Pronaret":"NUMAN CUNAJ ALI","Kufizimet":"KUFIZOHET PASURIA DERI NE PLOTESIMIN E DOKUMENTACIONIT TEKNIKO-LIGJOR (MUNGON MARREDHENIA LIGJORE ME TRUALLIN)  KJO NDERTESE BIE MBI PASURINE ME NR. 377/2","Siperfaqe":70}},
{"type":"Feature","geometry":{"type":"Polygon","coordinates":[[[19.530537899437675,40.530891590939476],[19.530448279765086,40.53082243340211],[19.530523391055425,40.530765765673316],[19.53061301073086,40.53083492315306],[19.530537899437675,40.530891590939476]]]},"properties":{"Zk_Numer":1826,"Zk_Emer":"GRABIAN","Nr_Pas":"380/5-ND","Vol":2,"Faqe":128,"Pronaret":"MARIGLEN KAPLLANI SEFE","Kufizimet":"KUFIZOHET PASURIA DERI NE PLOTESIMIN E DOKUMENTACIONIT TEKNIKO-LIGJOR (MUNGON MARREDHENIA LIGJORE ME TRUALLIN)  KJO NDERTESE BIE MBI PASURINE ME NR. 380/5","Siperfaqe":97}},
{"type":"Feature","geometry":{"type":"Polygon","coordinates":[[[19.530378748641954,40.530277092912534],[19.530415465639116,40.5302395711843],[19.53040033482655,40.530230950914905],[19.530423635978828,40.53020713904565],[19.530438766789125,40.530215759312],[19.53044512164534,40.53020926516417],[19.530533069553236,40.530259370418456],[19.53046669658812,40.53032719821696],[19.530378748641954,40.530277092912534]]]},"properties":{"Zk_Numer":1826,"Zk_Emer":"GRABIAN","Nr_Pas":"380/13-ND","Vol":1,"Faqe":191,"Pronaret":"RAMADAN KAPLLANI VASIL","Kufizimet":"KUFIZOHET PASURIA DERI NE PLOTESIMIN E DOKUMENTACIONIT TEKNIKO-LIGJOR (MUNGON MARREDHENIA LIGJORE ME TRUALLIN)  KJO NDERTESE BIE MBI PASURINE ME NR. 380/13","Siperfaqe":93}},
{"type":"Feature","geometry":{"type":"Polygon","coordinates":[[[19.528051104412157,40.53033851938614],[19.52814816646608,40.530373809952486],[19.528096003578074,40.53046353494325],[19.527996751708002,40.53042994108679],[19.5279905304242,40.530440642225415],[19.52795654746557,40.530429139959736],[19.527972339962268,40.53040197553488],[19.528006322909963,40.53041347779589],[19.528051104412157,40.53033851938614]]]},"properties":{"Zk_Numer":1826,"Zk_Emer":"GRABIAN","Nr_Pas":"229/6-ND","Vol":1,"Faqe":192,"Pronaret":"MUHAMET BAKAJ FECOR","Kufizimet":"KUFIZOHET PASURIA DERI NE PLOTESIMIN E DOKUMENTACIONIT TEKNIKO-LIGJOR (MUNGON MARREDHENIA LIGJORE ME TRUALLIN)  KJO NDERTESE BIE MBI PASURINE ME NR. 229/6","Siperfaqe":111}},
{"type":"Feature","geometry":{"type":"Polygon","coordinates":[[[19.530835879969086,40.53176808747637],[19.53093299572053,40.53182236635002],[19.530960131032103,40.531837532491345],[19.530919679812925,40.531879667662956],[19.530892544493664,40.531864501512175],[19.530861857322158,40.53189646610814],[19.530764741522283,40.53184218717515],[19.530835879969086,40.53176808747637]]]},"properties":{"Zk_Numer":1826,"Zk_Emer":"GRABIAN","Nr_Pas":"339/12-ND","Vol":1,"Faqe":240,"Pronaret":"SOTIR BAKO LUTO","Kufizimet":"KUFIZOHET PASURIA DERI NE PLOTESIMIN E DOKUMENTACIONIT TEKNIKO-LIGJOR (MUNGON MARREDHENIA LIGJORE ME TRUALLIN)  KJO NDERTESE BIE MBI PASURINE ME NR. 339/12","Siperfaqe":121}},
{"type":"Feature","geometry":{"type":"Polygon","coordinates":[[[19.53030764913794,40.53098946366706],[19.53039909163275,40.53105759087283],[19.53030805981667,40.531128299659095],[19.530273147672297,40.531102737487345],[19.530263750336943,40.53111020965093],[19.5302075471905,40.531069058445475],[19.53020626984706,40.53106812319051],[19.53017317486535,40.5310944381789],[19.530176581114688,40.53109693219315],[19.530152883457603,40.53111577501905],[19.53011839519414,40.531090523113356],[19.530198068300944,40.53102717223685],[19.530230427656516,40.53105086536114],[19.53030764913794,40.53098946366706]]]},"properties":{"Zk_Numer":1826,"Zk_Emer":"GRABIAN","Nr_Pas":"380/2-ND","Vol":2,"Faqe":69,"Pronaret":"LEFTER SADIKU BANUSH","Kufizimet":"KUFIZOHET PASURIA DERI NE PLOTESIMIN E DOKUMENTACIONIT TEKNIKO-LIGJOR (MUNGON MARREDHENIA LIGJORE ME TRUALLIN)  KJO NDERTESE BIE MBI PASURINE ME NR. 380/2","Siperfaqe":164}},
{"type":"Feature","geometry":{"type":"Polygon","coordinates":[[[19.53003989385899,40.53065645613943],[19.530019348230326,40.53067504145099],[19.52995574773482,40.53063410789412],[19.52992011344852,40.53061117347468],[19.529985174590948,40.53055232003041],[19.530018553533893,40.53057380288604],[19.530048230504693,40.53054695743423],[19.530114086312324,40.53058934248283],[19.53003989385899,40.53065645613943]]]},"properties":{"Zk_Numer":1826,"Zk_Emer":"GRABIAN","Nr_Pas":"380/9-ND","Vol":1,"Faqe":226,"Pronaret":"BEHAR SADIKAJ TOFIK","Kufizimet":"KUFIZOHET PASURIA DERI NE PLOTESIMIN E DOKUMENTACIONIT TEKNIKO-LIGJOR (MUNGON MARREDHENIA LIGJORE ME TRUALLIN)  KJO NDERTESE BIE MBI PASURINE ME NR.380/9","Siperfaqe":123}},
{"type":"Feature","geometry":{"type":"Polygon","coordinates":[[[19.538020293634204,40.520999584881146],[19.53796734934309,40.52099277735552],[19.53797849227083,40.52094299154297],[19.53803153256635,40.520948680963784],[19.538020293634204,40.520999584881146]]]},"properties":{"Zk_Numer":null,"Zk_Emer":"","Nr_Pas":"","Vol":null,"Faqe":null,"Pronaret":"","Kufizimet":"","Siperfaqe":26}},
{"type":"Feature","geometry":{"type":"Polygon","coordinates":[[[19.53039484694329,40.52961375903437],[19.530365499427774,40.529605229692784],[19.5303774939308,40.52958120151854],[19.53040684143742,40.529589730857076],[19.53039484694329,40.52961375903437]]]},"properties":{"Zk_Numer":null,"Zk_Emer":"","Nr_Pas":"","Vol":null,"Faqe":null,"Pronaret":"","Kufizimet":"","Siperfaqe":8}},
{"type":"Feature","geometry":{"type":"Polygon","coordinates":[[[19.527304819874615,40.52980338437013],[19.527304271627496,40.5298814101914],[19.52720131634597,40.529880988966596],[19.527201864712485,40.52980296314649],[19.527304819874615,40.52980338437013]]]},"properties":{"Zk_Numer":null,"Zk_Emer":"","Nr_Pas":"","Vol":null,"Faqe":null,"Pronaret":"","Kufizimet":"","Siperfaqe":76}},
{"type":"Feature","geometry":{"type":"Polygon","coordinates":[[[19.530468719803753,40.53135142186912],[19.530355774172307,40.53143861596442],[19.53025565847487,40.531363116316086],[19.53036860410745,40.53127592231747],[19.530468719803753,40.53135142186912]]]},"properties":{"Zk_Numer":null,"Zk_Emer":"","Nr_Pas":"","Vol":null,"Faqe":null,"Pronaret":"","Kufizimet":"","Siperfaqe":162}},
{"type":"Feature","geometry":{"type":"Polygon","coordinates":[[[19.53013513091753,40.53112461462293],[19.53022656911327,40.531193570801584],[19.530143605141763,40.531257618872935],[19.530052166945268,40.53118866262935],[19.53013513091753,40.53112461462293]]]},"properties":{"Zk_Numer":null,"Zk_Emer":"","Nr_Pas":"","Vol":null,"Faqe":null,"Pronaret":"","Kufizimet":"","Siperfaqe":109}},
{"type":"Feature","geometry":{"type":"Polygon","coordinates":[[[19.53084940136745,40.53134946978687],[19.530794843753718,40.53137291365285],[19.530746601821395,40.531307553752974],[19.530729630242387,40.53128454709346],[19.53084945445743,40.53123305758322],[19.53087975841227,40.53127411441829],[19.53081448449354,40.531302163220715],[19.53084940136745,40.53134946978687]]]},"properties":{"Zk_Numer":null,"Zk_Emer":"","Nr_Pas":"","Vol":null,"Faqe":null,"Pronaret":"","Kufizimet":"","Siperfaqe":93}},
{"type":"Feature","geometry":{"type":"Polygon","coordinates":[[[19.530735173558426,40.531411040417495],[19.530795382396846,40.531494589367625],[19.530747631214567,40.53151462309376],[19.530687422418,40.531431074119254],[19.530735173558426,40.531411040417495]]]},"properties":{"Zk_Numer":null,"Zk_Emer":"","Nr_Pas":"","Vol":null,"Faqe":null,"Pronaret":"","Kufizimet":"","Siperfaqe":49}},
{"type":"Feature","geometry":{"type":"Polygon","coordinates":[[[19.53120111693262,40.53176392673289],[19.531223680136858,40.53179435914535],[19.531129909249636,40.531834834077905],[19.5311073460746,40.5318044016475],[19.53120111693262,40.53176392673289]]]},"properties":{"Zk_Numer":null,"Zk_Emer":"","Nr_Pas":"","Vol":null,"Faqe":null,"Pronaret":"","Kufizimet":"","Siperfaqe":35}},
{"type":"Feature","geometry":{"type":"Polygon","coordinates":[[[19.530761659626812,40.531639955541436],[19.530847314653723,40.53171348608065],[19.53073746657854,40.53178798202748],[19.530651811578405,40.531714451407915],[19.530761659626812,40.531639955541436]]]},"properties":{"Zk_Numer":null,"Zk_Emer":"","Nr_Pas":"","Vol":null,"Faqe":null,"Pronaret":"","Kufizimet":"","Siperfaqe":136}},
{"type":"Feature","geometry":{"type":"Polygon","coordinates":[[[19.53060620955184,40.53150869279656],[19.530654849554168,40.53157207798065],[19.530511626479544,40.53163606256393],[19.530462986567063,40.531572677320746],[19.53060620955184,40.53150869279656]]]},"properties":{"Zk_Numer":null,"Zk_Emer":"","Nr_Pas":"","Vol":null,"Faqe":null,"Pronaret":"","Kufizimet":"","Siperfaqe":115}},
{"type":"Feature","geometry":{"type":"Polygon","coordinates":[[[19.531433476046242,40.53214794313413],[19.531502335354954,40.532231863034134],[19.531398690701725,40.53228137303855],[19.531329831472814,40.532197453077956],[19.531433476046242,40.53214794313413]]]},"properties":{"Zk_Numer":null,"Zk_Emer":"","Nr_Pas":"","Vol":null,"Faqe":null,"Pronaret":"","Kufizimet":"","Siperfaqe":114}},
{"type":"Feature","geometry":{"type":"Polygon","coordinates":[[[19.531255939858912,40.532382325912124],[19.53115489238464,40.53244143841211],[19.53108235137846,40.53236924846339],[19.53118339880682,40.53231013602584],[19.531255939858912,40.532382325912124]]]},"properties":{"Zk_Numer":null,"Zk_Emer":"","Nr_Pas":"","Vol":null,"Faqe":null,"Pronaret":"","Kufizimet":"","Siperfaqe":109}},
{"type":"Feature","geometry":{"type":"Polygon","coordinates":[[[19.531679754277462,40.532640097461126],[19.531624683033016,40.532570485190924],[19.531718998350037,40.53252704762469],[19.531774069657388,40.53259665985081],[19.531679754277462,40.532640097461126]]]},"properties":{"Zk_Numer":null,"Zk_Emer":"","Nr_Pas":"","Vol":null,"Faqe":null,"Pronaret":"","Kufizimet":"","Siperfaqe":84}},
{"type":"Feature","geometry":{"type":"Polygon","coordinates":[[[19.531864114242147,40.53265511524713],[19.531926003850195,40.53271992984092],[19.53187037159988,40.53275085512983],[19.531808482017556,40.532686040506725],[19.531864114242147,40.53265511524713]]]},"properties":{"Zk_Numer":null,"Zk_Emer":"","Nr_Pas":"","Vol":null,"Faqe":null,"Pronaret":"","Kufizimet":"","Siperfaqe":52}},
{"type":"Feature","geometry":{"type":"Polygon","coordinates":[[[19.53203173590066,40.53266733178063],[19.532099782687492,40.53273366072204],[19.532055789158626,40.53275993528469],[19.53198774238909,40.53269360631778],[19.53203173590066,40.53266733178063]]]},"properties":{"Zk_Numer":null,"Zk_Emer":"","Nr_Pas":"","Vol":null,"Faqe":null,"Pronaret":"","Kufizimet":"","Siperfaqe":44}},
{"type":"Feature","geometry":{"type":"Polygon","coordinates":[[[19.529952592501388,40.531327255371885],[19.530035278064275,40.531396541077044],[19.529937849893948,40.53146423191285],[19.52985516434954,40.53139494613889],[19.529952592501388,40.531327255371885]]]},"properties":{"Zk_Numer":null,"Zk_Emer":"","Nr_Pas":"","Vol":null,"Faqe":null,"Pronaret":"","Kufizimet":"","Siperfaqe":116}},
{"type":"Feature","geometry":{"type":"Polygon","coordinates":[[[19.52985927992425,40.530752280684545],[19.529926751206105,40.53078443559177],[19.529986961957814,40.530854895391776],[19.529966736449804,40.53086989631391],[19.5299655443892,40.53089407659626],[19.5299209229746,40.53093524381776],[19.529765517129647,40.5308459619586],[19.52985927992425,40.530752280684545]]]},"properties":{"Zk_Numer":null,"Zk_Emer":"","Nr_Pas":"","Vol":null,"Faqe":null,"Pronaret":"","Kufizimet":"","Siperfaqe":203}},
{"type":"Feature","geometry":{"type":"Polygon","coordinates":[[[19.529541795463235,40.53125999980897],[19.52959587820063,40.53118512546304],[19.529656967487078,40.53121081473485],[19.529602884796475,40.5312856891093],[19.529541795463235,40.53125999980897]]]},"properties":{"Zk_Numer":null,"Zk_Emer":"","Nr_Pas":"","Vol":null,"Faqe":null,"Pronaret":"","Kufizimet":"","Siperfaqe":56}},
{"type":"Feature","geometry":{"type":"Polygon","coordinates":[[[19.529602382939046,40.530740962691794],[19.5296706583103,40.53069110920416],[19.529712556291695,40.530724515581376],[19.529644280917108,40.53077436909347],[19.529602382939046,40.530740962691794]]]},"properties":{"Zk_Numer":null,"Zk_Emer":"","Nr_Pas":"","Vol":null,"Faqe":null,"Pronaret":"","Kufizimet":"","Siperfaqe":41}},
{"type":"Feature","geometry":{"type":"Polygon","coordinates":[[[19.5293938133145,40.52966927339481],[19.529469846335182,40.52971459521925],[19.529364286778964,40.52981769871693],[19.529288253714203,40.52977237682359],[19.5293938133145,40.52966927339481]]]},"properties":{"Zk_Numer":null,"Zk_Emer":"","Nr_Pas":"","Vol":null,"Faqe":null,"Pronaret":"","Kufizimet":"","Siperfaqe":119}},
{"type":"Feature","geometry":{"type":"Polygon","coordinates":[[[19.5292360828079,40.53022074507283],[19.529226812611643,40.53013248051674],[19.52933039598622,40.5301261466169],[19.529339666317675,40.53021441116556],[19.5292360828079,40.53022074507283]]]},"properties":{"Zk_Numer":null,"Zk_Emer":"","Nr_Pas":"","Vol":null,"Faqe":null,"Pronaret":"","Kufizimet":"","Siperfaqe":87}},
{"type":"Feature","geometry":{"type":"Polygon","coordinates":[[[19.529753436971834,40.53016051124571],[19.529818583512842,40.5300949308159],[19.529922896177993,40.53015526024644],[19.529857749679124,40.530220840734636],[19.529753436971834,40.53016051124571]]]},"properties":{"Zk_Numer":null,"Zk_Emer":"","Nr_Pas":"","Vol":null,"Faqe":null,"Pronaret":"","Kufizimet":"","Siperfaqe":101}},
{"type":"Feature","geometry":{"type":"Polygon","coordinates":[[[19.529984084270296,40.530333843335995],[19.53008250951816,40.5302347622161],[19.530189792581304,40.53029680906473],[19.53009136739892,40.53039589027533],[19.529984084270296,40.530333843335995]]]},"properties":{"Zk_Numer":null,"Zk_Emer":"","Nr_Pas":"","Vol":null,"Faqe":null,"Pronaret":"","Kufizimet":"","Siperfaqe":157}},
{"type":"Feature","geometry":{"type":"Polygon","coordinates":[[[19.52984442187163,40.52963362493606],[19.52999822448499,40.52968200651868],[19.529952447939802,40.529766731023365],[19.52979864516683,40.52971834937964],[19.52984442187163,40.52963362493606]]]},"properties":{"Zk_Numer":null,"Zk_Emer":"","Nr_Pas":"","Vol":null,"Faqe":null,"Pronaret":"","Kufizimet":"","Siperfaqe":143}},
{"type":"Feature","geometry":{"type":"Polygon","coordinates":[[[19.529797454746163,40.52957110959255],[19.52982349224998,40.52947440700886],[19.529905083447943,40.52948719750325],[19.5298790460561,40.529583900105735],[19.529797454746163,40.52957110959255]]]},"properties":{"Zk_Numer":null,"Zk_Emer":"","Nr_Pas":"","Vol":null,"Faqe":null,"Pronaret":"","Kufizimet":"","Siperfaqe":77}},
{"type":"Feature","geometry":{"type":"Polygon","coordinates":[[[19.530625357167,40.530603815388965],[19.53061539481509,40.53052228448426],[19.530715375313353,40.53051517189269],[19.530725337785547,40.530596702789566],[19.530625357167,40.530603815388965]]]},"properties":{"Zk_Numer":null,"Zk_Emer":"","Nr_Pas":"","Vol":null,"Faqe":null,"Pronaret":"","Kufizimet":"","Siperfaqe":77}},
{"type":"Feature","geometry":{"type":"Polygon","coordinates":[[[19.530629083372187,40.53036190679111],[19.530749584523406,40.53035333431704],[19.530760398546875,40.5304418339588],[19.530639897238288,40.53045040644315],[19.530629083372187,40.53036190679111]]]},"properties":{"Zk_Numer":null,"Zk_Emer":"","Nr_Pas":"","Vol":null,"Faqe":null,"Pronaret":"","Kufizimet":"","Siperfaqe":101}},
{"type":"Feature","geometry":{"type":"Polygon","coordinates":[[[19.528371792868036,40.53053439719992],[19.528423514072866,40.53046450154851],[19.52847309341256,40.53048586098859],[19.5284213722424,40.530555756662146],[19.528371792868036,40.53053439719992]]]},"properties":{"Zk_Numer":null,"Zk_Emer":"","Nr_Pas":"","Vol":null,"Faqe":null,"Pronaret":"","Kufizimet":"","Siperfaqe":43}},
{"type":"Feature","geometry":{"type":"Polygon","coordinates":[[[19.52889514719425,40.53100940063676],[19.52895219556808,40.530955673932766],[19.528993338185508,40.53098110762144],[19.52893628982258,40.53103483434557],[19.52889514719425,40.53100940063676]]]},"properties":{"Zk_Numer":null,"Zk_Emer":"","Nr_Pas":"","Vol":null,"Faqe":null,"Pronaret":"","Kufizimet":"","Siperfaqe":34}},
{"type":"Feature","geometry":{"type":"Polygon","coordinates":[[[19.53179294043743,40.53178225412576],[19.531822388076744,40.53168843898482],[19.531949773378837,40.53171171723445],[19.531920325906377,40.5318055324084],[19.53179294043743,40.53178225412576]]]},"properties":{"Zk_Numer":null,"Zk_Emer":"","Nr_Pas":"","Vol":null,"Faqe":null,"Pronaret":"","Kufizimet":"","Siperfaqe":119}},
{"type":"Feature","geometry":{"type":"Polygon","coordinates":[[[19.53162777215205,40.53139656388409],[19.531618914097713,40.53133436265803],[19.531739803472124,40.53132433983389],[19.531748661637106,40.53138654105142],[19.53162777215205,40.53139656388409]]]},"properties":{"Zk_Numer":null,"Zk_Emer":"","Nr_Pas":"","Vol":null,"Faqe":null,"Pronaret":"","Kufizimet":"","Siperfaqe":72}},
{"type":"Feature","geometry":{"type":"Polygon","coordinates":[[[19.531722628867662,40.53141073812777],[19.53173286727576,40.53151797367622],[19.531622650264655,40.53152409995783],[19.531622216946662,40.53151749587336],[19.531615670729007,40.53141772656029],[19.531722628867662,40.53141073812777]]]},"properties":{"Zk_Numer":null,"Zk_Emer":"","Nr_Pas":"","Vol":null,"Faqe":null,"Pronaret":"","Kufizimet":"","Siperfaqe":110}},
{"type":"Feature","geometry":{"type":"Polygon","coordinates":[[[19.531958058691323,40.531391717965704],[19.531948446427112,40.53132422302533],[19.532057658480532,40.53131516804588],[19.5320672708532,40.531382662977904],[19.531958058691323,40.531391717965704]]]},"properties":{"Zk_Numer":null,"Zk_Emer":"","Nr_Pas":"","Vol":null,"Faqe":null,"Pronaret":"","Kufizimet":"","Siperfaqe":70}},
{"type":"Feature","geometry":{"type":"Polygon","coordinates":[[[19.532185803926463,40.53253846572099],[19.53214342419373,40.53245080367415],[19.532268490620076,40.532415604425076],[19.5323108704945,40.53250326642735],[19.532185803926463,40.53253846572099]]]},"properties":{"Zk_Numer":null,"Zk_Emer":"","Nr_Pas":"","Vol":null,"Faqe":null,"Pronaret":"","Kufizimet":"","Siperfaqe":117}},
{"type":"Feature","geometry":{"type":"Polygon","coordinates":[[[19.532292286789097,40.5321144227865],[19.532304065517664,40.53207030285125],[19.532361889720562,40.53207929001603],[19.532350111028233,40.532123409957315],[19.532292286789097,40.5321144227865]]]},"properties":{"Zk_Numer":null,"Zk_Emer":"","Nr_Pas":"","Vol":null,"Faqe":null,"Pronaret":"","Kufizimet":"","Siperfaqe":25}},
{"type":"Feature","geometry":{"type":"Polygon","coordinates":[[[19.531965647254285,40.53113461259747],[19.53196915815391,40.53115926530185],[19.53189692037626,40.53116525464447],[19.531893409502842,40.531140601938084],[19.53184827629849,40.53114434397644],[19.53184185977618,40.531099288080725],[19.531959230654167,40.531089556707755],[19.531965647254285,40.53113461259747]]]},"properties":{"Zk_Numer":null,"Zk_Emer":"","Nr_Pas":"","Vol":null,"Faqe":null,"Pronaret":"","Kufizimet":"","Siperfaqe":67}},
{"type":"Feature","geometry":{"type":"Polygon","coordinates":[[[19.531768700439574,40.53124098692608],[19.531695698630177,40.531247039479375],[19.53168266211445,40.53124812032717],[19.531671687370963,40.53117105598709],[19.531684723871912,40.53116997514044],[19.53168129781541,40.53114591746545],[19.53175429951619,40.531139864920526],[19.531768700439574,40.53124098692608]]]},"properties":{"Zk_Numer":null,"Zk_Emer":"","Nr_Pas":"","Vol":null,"Faqe":null,"Pronaret":"","Kufizimet":"","Siperfaqe":80}},
{"type":"Feature","geometry":{"type":"Polygon","coordinates":[[[19.531416355743325,40.53107747709687],[19.531412355766694,40.53106121865031],[19.53148295283044,40.531051106822375],[19.531495390576833,40.53110166148477],[19.53142479346176,40.53111177331993],[19.531373618115303,40.5311191032884],[19.531365180422117,40.53108480706178],[19.531416355743325,40.53107747709687]]]},"properties":{"Zk_Numer":null,"Zk_Emer":"","Nr_Pas":"","Vol":null,"Faqe":null,"Pronaret":"","Kufizimet":"","Siperfaqe":52}},
{"type":"Feature","geometry":{"type":"Polygon","coordinates":[[[19.531248255362744,40.53102468102847],[19.531232474358205,40.530960536229784],[19.531183732128667,40.53096751763011],[19.53116899547939,40.53090761751826],[19.531284258582822,40.53089110822807],[19.5312989953314,40.530951008325914],[19.531314776397313,40.53101515311597],[19.531248255362744,40.53102468102847]]]},"properties":{"Zk_Numer":null,"Zk_Emer":"","Nr_Pas":"","Vol":null,"Faqe":null,"Pronaret":"","Kufizimet":"","Siperfaqe":109}},
{"type":"Feature","geometry":{"type":"Polygon","coordinates":[[[19.530930299759312,40.53109483872538],[19.530896286998825,40.53102165944461],[19.531004270264727,40.53099243980199],[19.531038283128517,40.53106561905188],[19.530930299759312,40.53109483872538]]]},"properties":{"Zk_Numer":null,"Zk_Emer":"","Nr_Pas":"","Vol":null,"Faqe":null,"Pronaret":"","Kufizimet":"","Siperfaqe":84}},
{"type":"Feature","geometry":{"type":"Polygon","coordinates":[[[19.531855465915523,40.53074132528927],[19.53171975691486,40.53077445206256],[19.531702977099414,40.53073443126741],[19.531838686027232,40.53070130451319],[19.531855465915523,40.53074132528927]]]},"properties":{"Zk_Numer":null,"Zk_Emer":"","Nr_Pas":"","Vol":null,"Faqe":null,"Pronaret":"","Kufizimet":"","Siperfaqe":56}},
{"type":"Feature","geometry":{"type":"Polygon","coordinates":[[[19.53183378511221,40.53108286086234],[19.53178157730227,40.53108466490693],[19.531774728066843,40.530969267173376],[19.53182693578735,40.53096746313134],[19.53183378511221,40.53108286086234]]]},"properties":{"Zk_Numer":null,"Zk_Emer":"","Nr_Pas":"","Vol":null,"Faqe":null,"Pronaret":"","Kufizimet":"","Siperfaqe":57}},
{"type":"Feature","geometry":{"type":"Polygon","coordinates":[[[19.53171405215773,40.53084632223402],[19.53164822441218,40.53086277748211],[19.531618872401765,40.53079441626358],[19.531684700087283,40.530777961031674],[19.53171405215773,40.53084632223402]]]},"properties":{"Zk_Numer":null,"Zk_Emer":"","Nr_Pas":"","Vol":null,"Faqe":null,"Pronaret":"","Kufizimet":"","Siperfaqe":47}},
{"type":"Feature","geometry":{"type":"Polygon","coordinates":[[[19.53154382884981,40.530892592059935],[19.531552166479486,40.53092325612997],[19.531505769175382,40.53093060077298],[19.531478945582844,40.53083194882038],[19.531525342821627,40.53082460418766],[19.531533650693543,40.5308551588772],[19.531563522626577,40.53085043017178],[19.5315737007988,40.53088786335203],[19.53154382884981,40.530892592059935]]]},"properties":{"Zk_Numer":null,"Zk_Emer":"","Nr_Pas":"","Vol":null,"Faqe":null,"Pronaret":"","Kufizimet":"","Siperfaqe":56}},
{"type":"Feature","geometry":{"type":"Polygon","coordinates":[[[19.53127875049563,40.53039130117067],[19.531220817742557,40.530386774224155],[19.53123432453539,40.53028614066131],[19.531292257202843,40.53029066760067],[19.53127875049563,40.53039130117067]]]},"properties":{"Zk_Numer":null,"Zk_Emer":"","Nr_Pas":"","Vol":null,"Faqe":null,"Pronaret":"","Kufizimet":"","Siperfaqe":55}},
{"type":"Feature","geometry":{"type":"Polygon","coordinates":[[[19.53114424569962,40.53084160375285],[19.531078584476866,40.5308559492905],[19.531039305714643,40.53075128037918],[19.53110496684318,40.530736934863064],[19.53114424569962,40.53084160375285]]]},"properties":{"Zk_Numer":null,"Zk_Emer":"","Nr_Pas":"","Vol":null,"Faqe":null,"Pronaret":"","Kufizimet":"","Siperfaqe":70}},
{"type":"Feature","geometry":{"type":"Polygon","coordinates":[[[19.53166564618643,40.53064244383849],[19.531670814909507,40.53065761607283],[19.531633611816257,40.530664994800524],[19.531628443101035,40.530649822564605],[19.53157109999736,40.530661195762754],[19.531556829194265,40.530619305135616],[19.5317126528165,40.530588399636535],[19.531726923710444,40.530630290245156],[19.53166564618643,40.53064244383849]]]},"properties":{"Zk_Numer":null,"Zk_Emer":"","Nr_Pas":"","Vol":null,"Faqe":null,"Pronaret":"","Kufizimet":"","Siperfaqe":71}},
{"type":"Feature","geometry":{"type":"Polygon","coordinates":[[[19.53125858613458,40.53071843827012],[19.53115681636721,40.53075900150011],[19.53107363455852,40.53063749935888],[19.531175404190833,40.530596936200546],[19.53125858613458,40.53071843827012]]]},"properties":{"Zk_Numer":null,"Zk_Emer":"","Nr_Pas":"","Vol":null,"Faqe":null,"Pronaret":"","Kufizimet":"","Siperfaqe":148}},
{"type":"Feature","geometry":{"type":"Polygon","coordinates":[[[19.53101903345322,40.53030996072589],[19.531010625635425,40.53026468588496],[19.531168543766345,40.5302724689661],[19.531160435082043,40.53036825678426],[19.531046657960403,40.53036264923787],[19.531050984959826,40.530311535487556],[19.53101903345322,40.53030996072589]]]},"properties":{"Zk_Numer":null,"Zk_Emer":"","Nr_Pas":"","Vol":null,"Faqe":null,"Pronaret":"","Kufizimet":"","Siperfaqe":119}},
{"type":"Feature","geometry":{"type":"Polygon","coordinates":[[[19.531268004303524,40.5295833697426],[19.53114348435231,40.52956983222906],[19.531156834267005,40.52949833981035],[19.531281354088854,40.529511877308956],[19.531268004303524,40.5295833697426]]]},"properties":{"Zk_Numer":null,"Zk_Emer":"","Nr_Pas":"","Vol":null,"Faqe":null,"Pronaret":"","Kufizimet":"","Siperfaqe":85}},
{"type":"Feature","geometry":{"type":"Polygon","coordinates":[[[19.53088798730211,40.52966335271432],[19.530758125600688,40.5296294526626],[19.530790795083593,40.52955659004286],[19.53092065666153,40.529590490057615],[19.53088798730211,40.52966335271432]]]},"properties":{"Zk_Numer":null,"Zk_Emer":"","Nr_Pas":"","Vol":null,"Faqe":null,"Pronaret":"","Kufizimet":"","Siperfaqe":99}},
{"type":"Feature","geometry":{"type":"Polygon","coordinates":[[[19.5313248583973,40.5297239676307],[19.531275601409806,40.529721271825004],[19.531272497952344,40.529754286297674],[19.53122346452709,40.52975160270619],[19.531231498111886,40.52966614230204],[19.531280531475225,40.52966882588979],[19.531329788424557,40.5296715216932],[19.5313248583973,40.5297239676307]]]},"properties":{"Zk_Numer":null,"Zk_Emer":"","Nr_Pas":"","Vol":null,"Faqe":null,"Pronaret":"","Kufizimet":"","Siperfaqe":64}},
{"type":"Feature","geometry":{"type":"Polygon","coordinates":[[[19.531380655386304,40.53004259395821],[19.531330384276917,40.53005381831234],[19.53133949677059,40.53007757968819],[19.531285515411696,40.5300896324252],[19.531274584758666,40.530061130027576],[19.53124813824677,40.530067034885654],[19.531237910349017,40.53004036491866],[19.53126435685128,40.53003446006284],[19.5312519773618,40.53000217967206],[19.531305958656226,40.52999012695016],[19.531316521609895,40.53001767054018],[19.531366792694474,40.53000644619186],[19.531380655386304,40.53004259395821]]]},"properties":{"Zk_Numer":null,"Zk_Emer":"","Nr_Pas":"","Vol":null,"Faqe":null,"Pronaret":"","Kufizimet":"","Siperfaqe":74}},
{"type":"Feature","geometry":{"type":"Polygon","coordinates":[[[19.53135176795103,40.53018845856234],[19.531298104983566,40.53019688009371],[19.531279182439267,40.530126679735574],[19.53133284535293,40.530118258212575],[19.53135176795103,40.53018845856234]]]},"properties":{"Zk_Numer":null,"Zk_Emer":"","Nr_Pas":"","Vol":null,"Faqe":null,"Pronaret":"","Kufizimet":"","Siperfaqe":37}},
{"type":"Feature","geometry":{"type":"Polygon","coordinates":[[[19.53153374495313,40.53019407664133],[19.531446265062005,40.53020780531828],[19.531416239974273,40.53009641675994],[19.531503719726246,40.530082688104706],[19.53153374495313,40.53019407664133]]]},"properties":{"Zk_Numer":null,"Zk_Emer":"","Nr_Pas":"","Vol":null,"Faqe":null,"Pronaret":"","Kufizimet":"","Siperfaqe":96}},
{"type":"Feature","geometry":{"type":"Polygon","coordinates":[[[19.531133117605343,40.52876956865124],[19.531085318750122,40.52875189025816],[19.531117527632414,40.52870118601793],[19.53116532646033,40.528718864397696],[19.531133117605343,40.52876956865124]]]},"properties":{"Zk_Numer":null,"Zk_Emer":"","Nr_Pas":"","Vol":null,"Faqe":null,"Pronaret":"","Kufizimet":"","Siperfaqe":28}},
{"type":"Feature","geometry":{"type":"Polygon","coordinates":[[[19.53120866717719,40.529073065615876],[19.531107395407297,40.52910913361714],[19.53106253564622,40.52903579819261],[19.531163807329015,40.528999730229714],[19.53120866717719,40.529073065615876]]]},"properties":{"Zk_Numer":null,"Zk_Emer":"","Nr_Pas":"","Vol":null,"Faqe":null,"Pronaret":"","Kufizimet":"","Siperfaqe":85}},
{"type":"Feature","geometry":{"type":"Polygon","coordinates":[[[19.531199556366673,40.52942767239628],[19.53115024557029,40.529419660842805],[19.5311783091755,40.52931909419348],[19.53122761990174,40.52932710573475],[19.531199556366673,40.52942767239628]]]},"properties":{"Zk_Numer":null,"Zk_Emer":"","Nr_Pas":"","Vol":null,"Faqe":null,"Pronaret":"","Kufizimet":"","Siperfaqe":49}},
{"type":"Feature","geometry":{"type":"Polygon","coordinates":[[[19.530961692131914,40.52935196423012],[19.530862283522556,40.529356085350365],[19.530856052942326,40.52926858127495],[19.530955461422664,40.5292644601593],[19.530961692131914,40.52935196423012]]]},"properties":{"Zk_Numer":null,"Zk_Emer":"","Nr_Pas":"","Vol":null,"Faqe":null,"Pronaret":"","Kufizimet":"","Siperfaqe":82}},
{"type":"Feature","geometry":{"type":"Polygon","coordinates":[[[19.530987653403677,40.52922278828586],[19.53090472850555,40.52922677107714],[19.530899728144266,40.5291661546794],[19.5309826529679,40.52916217189123],[19.530987653403677,40.52922278828586]]]},"properties":{"Zk_Numer":null,"Zk_Emer":"","Nr_Pas":"","Vol":null,"Faqe":null,"Pronaret":"","Kufizimet":"","Siperfaqe":47}},
{"type":"Feature","geometry":{"type":"Polygon","coordinates":[[[19.530491024687027,40.52964063633906],[19.530420104455242,40.52963341035395],[19.530432322449006,40.52956359443032],[19.530503242608646,40.52957082040761],[19.530491024687027,40.52964063633906]]]},"properties":{"Zk_Numer":null,"Zk_Emer":"","Nr_Pas":"","Vol":null,"Faqe":null,"Pronaret":"","Kufizimet":"","Siperfaqe":47}},
{"type":"Feature","geometry":{"type":"Polygon","coordinates":[[[19.530573110647587,40.52940780881818],[19.53047227987689,40.529459996438874],[19.530415167866852,40.529395751502186],[19.53051599858461,40.52934356393049],[19.530573110647587,40.52940780881818]]]},"properties":{"Zk_Numer":null,"Zk_Emer":"","Nr_Pas":"","Vol":null,"Faqe":null,"Pronaret":"","Kufizimet":"","Siperfaqe":89}},
{"type":"Feature","geometry":{"type":"Polygon","coordinates":[[[19.530485880490584,40.52922201033082],[19.53041189607833,40.52927087046341],[19.530342322222328,40.52920953384085],[19.530416306616804,40.52916067375219],[19.530485880490584,40.52922201033082]]]},"properties":{"Zk_Numer":null,"Zk_Emer":"","Nr_Pas":"","Vol":null,"Faqe":null,"Pronaret":"","Kufizimet":"","Siperfaqe":75}},
{"type":"Feature","geometry":{"type":"Polygon","coordinates":[[[19.53035618299343,40.52904881202222],[19.530309780901092,40.52897121507206],[19.53043439948556,40.52892782731803],[19.53048080169267,40.52900542421938],[19.53035618299343,40.52904881202222]]]},"properties":{"Zk_Numer":null,"Zk_Emer":"","Nr_Pas":"","Vol":null,"Faqe":null,"Pronaret":"","Kufizimet":"","Siperfaqe":110}},
{"type":"Feature","geometry":{"type":"Polygon","coordinates":[[[19.530669135068763,40.52898644952571],[19.530639983965013,40.52899103983922],[19.530651379941617,40.529033176011964],[19.53059080393865,40.52904271465932],[19.530571165107514,40.5289701005828],[19.530539780058742,40.52898256624603],[19.53049334549256,40.52892865822157],[19.5306217822412,40.52886424584062],[19.53064957195191,40.528914115666794],[19.530669135068763,40.52898644952571]]]},"properties":{"Zk_Numer":null,"Zk_Emer":"","Nr_Pas":"","Vol":null,"Faqe":null,"Pronaret":"","Kufizimet":"","Siperfaqe":155}},
{"type":"Feature","geometry":{"type":"Polygon","coordinates":[[[19.530787091758484,40.52887326095808],[19.530744642294252,40.52887875724139],[19.53075122354696,40.52890835128954],[19.530705049601227,40.52891432979348],[19.5306984683683,40.52888473574284],[19.530681191686355,40.52880704698457],[19.530769814976885,40.52879557221236],[19.53078371123544,40.528793772945164],[19.530791349384078,40.52882811950526],[19.53077745311862,40.52882991877334],[19.530787091758484,40.52887326095808]]]},"properties":{"Zk_Numer":null,"Zk_Emer":"","Nr_Pas":"","Vol":null,"Faqe":null,"Pronaret":"","Kufizimet":"","Siperfaqe":84}},
{"type":"Feature","geometry":{"type":"Polygon","coordinates":[[[19.530389146689085,40.5287604810707],[19.53026169198325,40.52876496411828],[19.530256758454456,40.52868329812317],[19.5303842130058,40.52867881508012],[19.530389146689085,40.5287604810707]]]},"properties":{"Zk_Numer":null,"Zk_Emer":"","Nr_Pas":"","Vol":null,"Faqe":null,"Pronaret":"","Kufizimet":"","Siperfaqe":98}},
{"type":"Feature","geometry":{"type":"Polygon","coordinates":[[[19.530620050663934,40.52863848933491],[19.530526396612906,40.528650939719114],[19.53051063516727,40.528581909868336],[19.530604289124874,40.528569459496225],[19.530620050663934,40.52863848933491]]]},"properties":{"Zk_Numer":null,"Zk_Emer":"","Nr_Pas":"","Vol":null,"Faqe":null,"Pronaret":"","Kufizimet":"","Siperfaqe":63}},
{"type":"Feature","geometry":{"type":"Polygon","coordinates":[[[19.53304280936285,40.53166324246379],[19.53291932109382,40.53166518844318],[19.532916726236888,40.53156932081304],[19.533040214329947,40.531567374835426],[19.53304280936285,40.53166324246379]]]},"properties":{"Zk_Numer":null,"Zk_Emer":"","Nr_Pas":"","Vol":null,"Faqe":null,"Pronaret":"","Kufizimet":"","Siperfaqe":111}},
{"type":"Feature","geometry":{"type":"Polygon","coordinates":[[[19.532537316705522,40.53180252958439],[19.53244867305222,40.53181176367924],[19.53243339493578,40.53172637913365],[19.53252203847844,40.53171714504979],[19.532537316705522,40.53180252958439]]]},"properties":{"Zk_Numer":null,"Zk_Emer":"","Nr_Pas":"","Vol":null,"Faqe":null,"Pronaret":"","Kufizimet":"","Siperfaqe":73}},
{"type":"Feature","geometry":{"type":"Polygon","coordinates":[[[19.533071372550804,40.53131597661362],[19.532953693603922,40.53132047353128],[19.532950235008308,40.53126778087253],[19.533067913863174,40.53126328395784],[19.533071372550804,40.53131597661362]]]},"properties":{"Zk_Numer":null,"Zk_Emer":"","Nr_Pas":"","Vol":null,"Faqe":null,"Pronaret":"","Kufizimet":"","Siperfaqe":58}},
{"type":"Feature","geometry":{"type":"Polygon","coordinates":[[[19.532838029949723,40.53132303396807],[19.532781914114675,40.531325178248466],[19.53278327989917,40.53134598714132],[19.5327250926624,40.5313482105444],[19.532723726895874,40.531327401650984],[19.532719977117527,40.53127026976141],[19.53283428007447,40.53126590208163],[19.532838029949723,40.53132303396807]]]},"properties":{"Zk_Numer":null,"Zk_Emer":"","Nr_Pas":"","Vol":null,"Faqe":null,"Pronaret":"","Kufizimet":"","Siperfaqe":73}},
{"type":"Feature","geometry":{"type":"Polygon","coordinates":[[[19.532497653061714,40.53135811081069],[19.532390868665146,40.53135741147889],[19.532391812744088,40.53127349198917],[19.532498597007464,40.531274191319355],[19.532497653061714,40.53135811081069]]]},"properties":{"Zk_Numer":null,"Zk_Emer":"","Nr_Pas":"","Vol":null,"Faqe":null,"Pronaret":"","Kufizimet":"","Siperfaqe":84}},
{"type":"Feature","geometry":{"type":"Polygon","coordinates":[[[19.533028105647567,40.531190303189625],[19.533002500913756,40.53119000487477],[19.532943070113834,40.53118931243829],[19.532945227461447,40.53108151582583],[19.533004658166178,40.53108220826068],[19.533003831979233,40.531123492379166],[19.533029436687738,40.53112379069361],[19.533028105647567,40.531190303189625]]]},"properties":{"Zk_Numer":null,"Zk_Emer":"","Nr_Pas":"","Vol":null,"Faqe":null,"Pronaret":"","Kufizimet":"","Siperfaqe":76}},
{"type":"Feature","geometry":{"type":"Polygon","coordinates":[[[19.532656947880085,40.5311986765777],[19.53252249687847,40.53120381393043],[19.532516920994606,40.53111885531744],[19.532651371826724,40.531113717970186],[19.532656947880085,40.5311986765777]]]},"properties":{"Zk_Numer":null,"Zk_Emer":"","Nr_Pas":"","Vol":null,"Faqe":null,"Pronaret":"","Kufizimet":"","Siperfaqe":108}},
{"type":"Feature","geometry":{"type":"Polygon","coordinates":[[[19.53247791744347,40.53105747995984],[19.532414234345282,40.531059913208146],[19.532415482001696,40.53107892397133],[19.53235530577766,40.53108122319401],[19.53235405813822,40.531062212430236],[19.53234852802521,40.530977947842715],[19.53247238717558,40.53097321537732],[19.53247791744347,40.53105747995984]]]},"properties":{"Zk_Numer":null,"Zk_Emer":"","Nr_Pas":"","Vol":null,"Faqe":null,"Pronaret":"","Kufizimet":"","Siperfaqe":109}},
{"type":"Feature","geometry":{"type":"Polygon","coordinates":[[[19.531443960511943,40.53150302120396],[19.53143510522442,40.53147302040438],[19.53147786517418,40.53146567246266],[19.531459363390116,40.531402990376634],[19.53156188229056,40.531385373285254],[19.531589081937298,40.531477522292114],[19.531443960511943,40.53150302120396]]]},"properties":{"Zk_Numer":null,"Zk_Emer":"","Nr_Pas":"","Vol":null,"Faqe":null,"Pronaret":"","Kufizimet":"","Siperfaqe":106}},
{"type":"Feature","geometry":{"type":"Polygon","coordinates":[[[19.531388640375173,40.5314721277999],[19.531264501107312,40.53149778331894],[19.531249997591424,40.531450165297734],[19.53137494625479,40.531427823814745],[19.531388640375173,40.5314721277999]]]},"properties":{"Zk_Numer":null,"Zk_Emer":"","Nr_Pas":"","Vol":null,"Faqe":null,"Pronaret":"","Kufizimet":"","Siperfaqe":57}},
{"type":"Feature","geometry":{"type":"Polygon","coordinates":[[[19.531290838980567,40.53070940561068],[19.53128942970386,40.530618702583865],[19.53142178150525,40.53061750528942],[19.531423190960414,40.53070820831564],[19.531290838980567,40.53070940561068]]]},"properties":{"Zk_Numer":null,"Zk_Emer":"","Nr_Pas":"","Vol":null,"Faqe":null,"Pronaret":"","Kufizimet":"","Siperfaqe":113}},
{"type":"Feature","geometry":{"type":"Polygon","coordinates":[[[19.5337397803901,40.531513473902855],[19.53374249629497,40.53156424216943],[19.53368473402951,40.531566041124876],[19.53368609820024,40.531591541879294],[19.533616203060912,40.53159371866362],[19.533612123108025,40.53151744963953],[19.5337397803901,40.531513473902855]]]},"properties":{"Zk_Numer":null,"Zk_Emer":"","Nr_Pas":"","Vol":null,"Faqe":null,"Pronaret":"","Kufizimet":"","Siperfaqe":78}},
{"type":"Feature","geometry":{"type":"Polygon","coordinates":[[[19.533482640335954,40.531112338715936],[19.53335042767944,40.53110546658979],[19.533356106012523,40.53104186594105],[19.533408205272465,40.53104457396516],[19.53341151350693,40.531007519425785],[19.533491626735323,40.5310116835182],[19.53348831854474,40.531048738060086],[19.533482640335954,40.531112338715936]]]},"properties":{"Zk_Numer":null,"Zk_Emer":"","Nr_Pas":"","Vol":null,"Faqe":null,"Pronaret":"","Kufizimet":"","Siperfaqe":108}},
{"type":"Feature","geometry":{"type":"Polygon","coordinates":[[[19.535466124666705,40.527368706340425],[19.53547733513053,40.52739759248181],[19.535428268707705,40.52740867988267],[19.53541705826319,40.52737979373667],[19.535466124666705,40.527368706340425]]]},"properties":{"Zk_Numer":null,"Zk_Emer":"","Nr_Pas":"","Vol":null,"Faqe":null,"Pronaret":"","Kufizimet":"","Siperfaqe":15}},
{"type":"Feature","geometry":{"type":"Polygon","coordinates":[[[19.537923794873887,40.52616645158122],[19.537995957439243,40.52620739722089],[19.537926586908632,40.526278585151026],[19.537921677387168,40.52627579944908],[19.53790377435588,40.526294171478945],[19.537836521270656,40.52625601148786],[19.537858709087686,40.52623324244655],[19.537829867439925,40.526216877420204],[19.537894953238624,40.52615008657101],[19.537923794873887,40.52616645158122]]]},"properties":{"Zk_Numer":null,"Zk_Emer":"","Nr_Pas":"","Vol":null,"Faqe":null,"Pronaret":"","Kufizimet":"","Siperfaqe":121}},
{"type":"Feature","geometry":{"type":"Polygon","coordinates":[[[19.536749149568102,40.52749294727544],[19.53664636401138,40.52751452080732],[19.5366293469989,40.52744115255296],[19.53669333301704,40.52743368209631],[19.536691130277184,40.52742269681315],[19.536734058095647,40.527417684909764],[19.536749149568102,40.52749294727544]]]},"properties":{"Zk_Numer":null,"Zk_Emer":"","Nr_Pas":"","Vol":null,"Faqe":null,"Pronaret":"","Kufizimet":"","Siperfaqe":75}},
{"type":"Feature","geometry":{"type":"Polygon","coordinates":[[[19.538135024692618,40.52948193317692],[19.538176958898255,40.529427050437796],[19.538259881253104,40.52946393871267],[19.53821794709156,40.529518821481794],[19.538135024692618,40.52948193317692]]]},"properties":{"Zk_Numer":null,"Zk_Emer":"","Nr_Pas":"","Vol":null,"Faqe":null,"Pronaret":"","Kufizimet":"","Siperfaqe":57}},
{"type":"Feature","geometry":{"type":"Polygon","coordinates":[[[19.53736632558842,40.53025327905996],[19.537359642754353,40.530187916058615],[19.53745431462252,40.530182280624125],[19.537460997548113,40.53024764362057],[19.53736632558842,40.53025327905996]]]},"properties":{"Zk_Numer":null,"Zk_Emer":"","Nr_Pas":"","Vol":null,"Faqe":null,"Pronaret":"","Kufizimet":"","Siperfaqe":59}},
{"type":"Feature","geometry":{"type":"Polygon","coordinates":[[[19.53085213539556,40.52772803164586],[19.5307703548999,40.527773943091695],[19.530721309670746,40.527723076433915],[19.530803090137375,40.52767716502221],[19.53085213539556,40.52772803164586]]]},"properties":{"Zk_Numer":null,"Zk_Emer":"","Nr_Pas":"","Vol":null,"Faqe":null,"Pronaret":"","Kufizimet":"","Siperfaqe":60}},
{"type":"Feature","geometry":{"type":"Polygon","coordinates":[[[19.53699925329558,40.52899836614162],[19.537032996378738,40.529079170333205],[19.536950747377947,40.52909916761232],[19.536918938798582,40.52902299573792],[19.53699925329558,40.52899836614162]]]},"properties":{"Zk_Numer":null,"Zk_Emer":"","Nr_Pas":"","Vol":null,"Faqe":null,"Pronaret":"","Kufizimet":"","Siperfaqe":67}},
{"type":"Feature","geometry":{"type":"Polygon","coordinates":[[[19.538025872964496,40.52456655904613],[19.53803256412531,40.52445767987145],[19.538133355058385,40.52446128667115],[19.5381266640602,40.52457016585249],[19.538025872964496,40.52456655904613]]]},"properties":{"Zk_Numer":null,"Zk_Emer":"","Nr_Pas":"","Vol":null,"Faqe":null,"Pronaret":"","Kufizimet":"","Siperfaqe":103}},
{"type":"Feature","geometry":{"type":"Polygon","coordinates":[[[19.53836128651156,40.522096616643225],[19.538217600938367,40.52210091809795],[19.53821375169162,40.52202603844685],[19.538357437105084,40.52202173699596],[19.53836128651156,40.522096616643225]]]},"properties":{"Zk_Numer":null,"Zk_Emer":"","Nr_Pas":"","Vol":null,"Faqe":null,"Pronaret":"","Kufizimet":"","Siperfaqe":101}},
{"type":"Feature","geometry":{"type":"Polygon","coordinates":[[[19.538042650153418,40.52095011044903],[19.53805620007024,40.52088873935509],[19.538115942942277,40.520896420998056],[19.538102393078265,40.52095779209923],[19.538042650153418,40.52095011044903]]]},"properties":{"Zk_Numer":null,"Zk_Emer":"","Nr_Pas":"","Vol":null,"Faqe":null,"Pronaret":"","Kufizimet":"","Siperfaqe":35}},
{"type":"Feature","geometry":{"type":"Polygon","coordinates":[[[19.537913479361137,40.52074711667094],[19.53792905437183,40.520657885559245],[19.53806216077715,40.520671415860434],[19.538046585939483,40.520760646990816],[19.537913479361137,40.52074711667094]]]},"properties":{"Zk_Numer":null,"Zk_Emer":"","Nr_Pas":"","Vol":null,"Faqe":null,"Pronaret":"","Kufizimet":"","Siperfaqe":114}},
{"type":"Feature","geometry":{"type":"Polygon","coordinates":[[[19.5349610738031,40.53200184162175],[19.534892176199158,40.53202420738229],[19.53490309019595,40.53204378031203],[19.53482513809809,40.53206908530468],[19.534814224120016,40.532049512367756],[19.534766109650974,40.531963224575094],[19.534912959178623,40.53191555388866],[19.5349610738031,40.53200184162175]]]},"properties":{"Zk_Numer":null,"Zk_Emer":"","Nr_Pas":"","Vol":null,"Faqe":null,"Pronaret":"","Kufizimet":"","Siperfaqe":158}},
{"type":"Feature","geometry":{"type":"Polygon","coordinates":[[[19.535578464353975,40.53149702169725],[19.535569770589763,40.531540944495504],[19.535445844417485,40.53152666408238],[19.535454538260595,40.53148274129377],[19.535578464353975,40.53149702169725]]]},"properties":{"Zk_Numer":null,"Zk_Emer":"","Nr_Pas":"","Vol":null,"Faqe":null,"Pronaret":"","Kufizimet":"","Siperfaqe":52}},
{"type":"Feature","geometry":{"type":"Polygon","coordinates":[[[19.535017892208508,40.531310259212795],[19.53493144326069,40.53125765832742],[19.535006555787767,40.531185789556915],[19.535093004703032,40.531238390386555],[19.535017892208508,40.531310259212795]]]},"properties":{"Zk_Numer":null,"Zk_Emer":"","Nr_Pas":"","Vol":null,"Faqe":null,"Pronaret":"","Kufizimet":"","Siperfaqe":96}},
{"type":"Feature","geometry":{"type":"Polygon","coordinates":[[[19.53337666981267,40.530099495834875],[19.53335183661809,40.53005698536207],[19.53348704558014,40.530010999986395],[19.533511878843747,40.530053510430854],[19.53337666981267,40.530099495834875]]]},"properties":{"Zk_Numer":null,"Zk_Emer":"","Nr_Pas":"","Vol":null,"Faqe":null,"Pronaret":"","Kufizimet":"","Siperfaqe":65}},
{"type":"Feature","geometry":{"type":"Polygon","coordinates":[[[19.530914879932254,40.53146612495764],[19.53088054605456,40.53141848162568],[19.530858582823466,40.53138800435438],[19.530846426649777,40.53137113582983],[19.53094984566077,40.531327746744815],[19.530984036401716,40.53137506260343],[19.531018442063957,40.53142267580996],[19.530914879932254,40.53146612495764]]]},"properties":{"Zk_Numer":null,"Zk_Emer":"","Nr_Pas":"","Vol":null,"Faqe":null,"Pronaret":"","Kufizimet":"","Siperfaqe":120}},
{"type":"Feature","geometry":{"type":"Polygon","coordinates":[[[19.536840841199755,40.53132830454189],[19.53677389860583,40.531274647051916],[19.53699270718147,40.53111571972609],[19.537059649794166,40.53116937709083],[19.536840841199755,40.53132830454189]]]},"properties":{"Zk_Numer":null,"Zk_Emer":"","Nr_Pas":"","Vol":null,"Faqe":null,"Pronaret":"","Kufizimet":"","Siperfaqe":211}},
{"type":"Feature","geometry":{"type":"Polygon","coordinates":[[[19.53630498342523,40.531701988839494],[19.53618950843265,40.531755216921816],[19.536156913370775,40.531714049398644],[19.536272388317855,40.53166082134827],[19.53630498342523,40.531701988839494]]]},"properties":{"Zk_Numer":null,"Zk_Emer":"","Nr_Pas":"","Vol":null,"Faqe":null,"Pronaret":"","Kufizimet":"","Siperfaqe":61}},
{"type":"Feature","geometry":{"type":"Polygon","coordinates":[[[19.53612596830378,40.53178450559502],[19.536019564946205,40.531833551836684],[19.535986969951285,40.53179238426648],[19.53609337326694,40.53174333805426],[19.53612596830378,40.53178450559502]]]},"properties":{"Zk_Numer":null,"Zk_Emer":"","Nr_Pas":"","Vol":null,"Faqe":null,"Pronaret":"","Kufizimet":"","Siperfaqe":56}},
{"type":"Feature","geometry":{"type":"Polygon","coordinates":[[[19.536156913370775,40.531714049398644],[19.53618950843265,40.531755216921816],[19.53612596830378,40.53178450559502],[19.53609337326694,40.53174333805426],[19.536156913370775,40.531714049398644]]]},"properties":{"Zk_Numer":null,"Zk_Emer":"","Nr_Pas":"","Vol":null,"Faqe":null,"Pronaret":"","Kufizimet":"","Siperfaqe":34}},
{"type":"Feature","geometry":{"type":"Polygon","coordinates":[[[19.53630498342523,40.531701988839494],[19.536272388317855,40.53166082134827],[19.536381744092857,40.53160057702671],[19.536418592761354,40.53163971198003],[19.53630498342523,40.531701988839494]]]},"properties":{"Zk_Numer":null,"Zk_Emer":"","Nr_Pas":"","Vol":null,"Faqe":null,"Pronaret":"","Kufizimet":"","Siperfaqe":62}},
{"type":"Feature","geometry":{"type":"Polygon","coordinates":[[[19.536255058439764,40.531613951054815],[19.536227294208405,40.53162919002996],[19.53621785155205,40.53161917434454],[19.53616086470297,40.53165045271537],[19.536110851442967,40.53159740428276],[19.53619560248842,40.531550886975154],[19.536245615781368,40.53160393537163],[19.536255058439764,40.531613951054815]]]},"properties":{"Zk_Numer":null,"Zk_Emer":"","Nr_Pas":"","Vol":null,"Faqe":null,"Pronaret":"","Kufizimet":"","Siperfaqe":68}},
{"type":"Feature","geometry":{"type":"Polygon","coordinates":[[[19.53568292266407,40.532072439003464],[19.535337750815863,40.532163630731844],[19.535306307113597,40.53209434138616],[19.5356514786471,40.532003149748896],[19.53568292266407,40.532072439003464]]]},"properties":{"Zk_Numer":null,"Zk_Emer":"","Nr_Pas":"","Vol":null,"Faqe":null,"Pronaret":"","Kufizimet":"","Siperfaqe":252}},
{"type":"Feature","geometry":{"type":"Polygon","coordinates":[[[19.53805620007024,40.52088873935509],[19.538064305474037,40.52085202781952],[19.53812404831449,40.52085970945817],[19.538115942942277,40.520896420998056],[19.53805620007024,40.52088873935509]]]},"properties":{"Zk_Numer":null,"Zk_Emer":"","Nr_Pas":"","Vol":null,"Faqe":null,"Pronaret":"","Kufizimet":"","Siperfaqe":21}},
{"type":"Feature","geometry":{"type":"Polygon","coordinates":[[[19.538102393078265,40.52095779209923],[19.53809115419807,40.521008696023685],[19.538020293634204,40.520999584881146],[19.53803153256635,40.520948680963784],[19.538042650153418,40.52095011044903],[19.538102393078265,40.52095779209923]]]},"properties":{"Zk_Numer":null,"Zk_Emer":"","Nr_Pas":"","Vol":null,"Faqe":null,"Pronaret":"","Kufizimet":"","Siperfaqe":35}},
{"type":"Feature","geometry":{"type":"Polygon","coordinates":[[[19.53699925329558,40.52899836614162],[19.536918938798582,40.52902299573792],[19.53688548872069,40.528942892779476],[19.536966469294466,40.52891985845916],[19.53699925329558,40.52899836614162]]]},"properties":{"Zk_Numer":null,"Zk_Emer":"","Nr_Pas":"","Vol":null,"Faqe":null,"Pronaret":"","Kufizimet":"","Siperfaqe":68}},
{"type":"Feature","geometry":{"type":"Polygon","coordinates":[[[19.536966469294466,40.52891985845916],[19.53688548872069,40.528942892779476],[19.536850947920637,40.528860177657805],[19.536933196657568,40.52884018044745],[19.536966469294466,40.52891985845916]]]},"properties":{"Zk_Numer":null,"Zk_Emer":"","Nr_Pas":"","Vol":null,"Faqe":null,"Pronaret":"","Kufizimet":"","Siperfaqe":69}},
{"type":"Feature","geometry":{"type":"Polygon","coordinates":[[[19.532118545579326,40.531821869813854],[19.53211885827702,40.531792518366515],[19.532052247816228,40.53179210521277],[19.532052702132848,40.5317494645658],[19.53207870172304,40.53174962583365],[19.53207911883477,40.53171047562516],[19.53212745567229,40.53171077542874],[19.53212732086032,40.531723429773606],[19.532156467804057,40.53172361054436],[19.532156185543908,40.53175010640843],[19.53216937444208,40.531750188204214],[19.5321689201994,40.53179282885207],[19.532157801401553,40.531792759894834],[19.532157488720852,40.53182211134237],[19.532118545579326,40.531821869813854]]]},"properties":{"Zk_Numer":null,"Zk_Emer":"","Nr_Pas":"","Vol":null,"Faqe":null,"Pronaret":"","Kufizimet":"","Siperfaqe":83}},
{"type":"Feature","geometry":{"type":"Polygon","coordinates":[[[19.53118289985463,40.53120281851278],[19.53123733125095,40.53119283858488],[19.531251218203177,40.53123325577043],[19.531197028354583,40.5312440955001],[19.53118289985463,40.53120281851278]]]},"properties":{"Zk_Numer":null,"Zk_Emer":"","Nr_Pas":"","Vol":null,"Faqe":null,"Pronaret":"","Kufizimet":"","Siperfaqe":22}},
{"type":"Feature","geometry":{"type":"Polygon","coordinates":[[[19.533353368310507,40.53208946685324],[19.533214868434456,40.53209169329743],[19.533212551641586,40.531998621346055],[19.53335130303787,40.531996610518796],[19.533353368310507,40.53208946685324]]]},"properties":{"Zk_Numer":null,"Zk_Emer":"","Nr_Pas":"","Vol":null,"Faqe":null,"Pronaret":"","Kufizimet":"","Siperfaqe":121}},
{"type":"Feature","geometry":{"type":"Polygon","coordinates":[[[19.53335130303787,40.531996610518796],[19.533489560754163,40.53199460668023],[19.533491877930274,40.53208767862823],[19.533353368310507,40.53208946685324],[19.53335130303787,40.531996610518796]]]},"properties":{"Zk_Numer":null,"Zk_Emer":"","Nr_Pas":"","Vol":null,"Faqe":null,"Pronaret":"","Kufizimet":"","Siperfaqe":121}},
{"type":"Feature","geometry":{"type":"Polygon","coordinates":[[[19.537815218334064,40.52481084785263],[19.5378153729741,40.524788335137416],[19.53785077566652,40.52478847673608],[19.537850621038327,40.5248109894514],[19.537815218334064,40.52481084785263]]]},"properties":{"Zk_Numer":null,"Zk_Emer":"","Nr_Pas":"","Vol":null,"Faqe":null,"Pronaret":"","Kufizimet":"","Siperfaqe":7}},
{"type":"Feature","geometry":{"type":"Polygon","coordinates":[[[19.530248024345752,40.530849466309405],[19.530204740337275,40.530819430901204],[19.530270335690034,40.530764396518514],[19.53031361969286,40.5307944319024],[19.530248024345752,40.530849466309405]]]},"properties":{"Zk_Numer":null,"Zk_Emer":"","Nr_Pas":"","Vol":null,"Faqe":null,"Pronaret":"","Kufizimet":"","Siperfaqe":41}},
{"type":"Feature","geometry":{"type":"Polygon","coordinates":[[[19.528814813866457,40.5308628469149],[19.5288701165922,40.53079365152953],[19.528950727038172,40.53083115978444],[19.528895424363768,40.530900355208225],[19.528814813866457,40.5308628469149]]]},"properties":{"Zk_Numer":null,"Zk_Emer":"","Nr_Pas":"","Vol":null,"Faqe":null,"Pronaret":"","Kufizimet":"","Siperfaqe":72}},
{"type":"Feature","geometry":{"type":"Polygon","coordinates":[[[19.531421493278177,40.53162039063865],[19.53131519378169,40.531638657192275],[19.53129278092626,40.531562724332495],[19.53139908030845,40.53154445779861],[19.531421493278177,40.53162039063865]]]},"properties":{"Zk_Numer":null,"Zk_Emer":"","Nr_Pas":"","Vol":null,"Faqe":null,"Pronaret":"","Kufizimet":"","Siperfaqe":80}},
{"type":"Feature","geometry":{"type":"Polygon","coordinates":[[[19.532646976069383,40.53177714769351],[19.53264032272385,40.53173996488824],[19.53270075426611,40.53173366957461],[19.532707407644487,40.531770852376646],[19.532646976069383,40.53177714769351]]]},"properties":{"Zk_Numer":null,"Zk_Emer":"","Nr_Pas":"","Vol":null,"Faqe":null,"Pronaret":"","Kufizimet":"","Siperfaqe":22}},
{"type":"Feature","geometry":{"type":"Polygon","coordinates":[[[19.533799748892555,40.53126482315134],[19.53379999852294,40.531228802867815],[19.533894414687342,40.531229183770336],[19.533894165107505,40.53126520405434],[19.533799748892555,40.53126482315134]]]},"properties":{"Zk_Numer":null,"Zk_Emer":"","Nr_Pas":"","Vol":null,"Faqe":null,"Pronaret":"","Kufizimet":"","Siperfaqe":32}},
{"type":"Feature","geometry":{"type":"Polygon","coordinates":[[[19.533392715728112,40.531498205620345],[19.533344332201942,40.531499712340135],[19.533339060695116,40.53140116127564],[19.533387444150478,40.53139965455763],[19.533392715728112,40.531498205620345]]]},"properties":{"Zk_Numer":null,"Zk_Emer":"","Nr_Pas":"","Vol":null,"Faqe":null,"Pronaret":"","Kufizimet":"","Siperfaqe":45}},
{"type":"Feature","geometry":{"type":"Polygon","coordinates":[[[19.534383026671744,40.53079337755132],[19.534385323081864,40.53070613274738],[19.53451171112608,40.53070806947289],[19.53450941487976,40.53079531428023],[19.534383026671744,40.53079337755132]]]},"properties":{"Zk_Numer":null,"Zk_Emer":"","Nr_Pas":"","Vol":null,"Faqe":null,"Pronaret":"","Kufizimet":"","Siperfaqe":104}},
{"type":"Feature","geometry":{"type":"Polygon","coordinates":[[[19.53120546824045,40.53219355891156],[19.531135725382576,40.53210856153045],[19.53117873659637,40.53208801561012],[19.53124847948779,40.53217301296576],[19.53120546824045,40.53219355891156]]]},"properties":{"Zk_Numer":null,"Zk_Emer":"","Nr_Pas":"","Vol":null,"Faqe":null,"Pronaret":"","Kufizimet":"","Siperfaqe":48}},
{"type":"Feature","geometry":{"type":"Polygon","coordinates":[[[19.53109849122611,40.53199840381838],[19.53107173782273,40.53201101949537],[19.531090003492828,40.53203356995684],[19.53107087154413,40.53204259169998],[19.5310872572317,40.532062821161276],[19.531056018779246,40.53207755176179],[19.53100928129741,40.5320198504755],[19.53097847399673,40.531981816250855],[19.531028844356534,40.5319580639377],[19.53104424801147,40.53197708104446],[19.531071001406378,40.53196446537371],[19.53109849122611,40.53199840381838]]]},"properties":{"Zk_Numer":null,"Zk_Emer":"","Nr_Pas":"","Vol":null,"Faqe":null,"Pronaret":"","Kufizimet":"","Siperfaqe":69}},
{"type":"Feature","geometry":{"type":"Polygon","coordinates":[[[19.530039279961613,40.529480045065235],[19.530014269338015,40.52952061422547],[19.529908119147006,40.52948251341275],[19.529951502040568,40.52941214315758],[19.53000100496098,40.52942991140546],[19.52998263275735,40.52945971253124],[19.530039279961613,40.529480045065235]]]},"properties":{"Zk_Numer":null,"Zk_Emer":"","Nr_Pas":"","Vol":null,"Faqe":null,"Pronaret":"","Kufizimet":"","Siperfaqe":66}},
{"type":"Feature","geometry":{"type":"Polygon","coordinates":[[[19.529899017901666,40.52938605892859],[19.529906705555305,40.529288168016535],[19.529980829182357,40.529291557170126],[19.5299731416361,40.52938944808764],[19.529899017901666,40.52938605892859]]]},"properties":{"Zk_Numer":null,"Zk_Emer":"","Nr_Pas":"","Vol":null,"Faqe":null,"Pronaret":"","Kufizimet":"","Siperfaqe":69}},
{"type":"Feature","geometry":{"type":"Polygon","coordinates":[[[19.53100426112577,40.52932514046187],[19.53109780842064,40.52933488393084],[19.531088903021608,40.52938466436886],[19.53099535565895,40.52937492089241],[19.53100426112577,40.52932514046187]]]},"properties":{"Zk_Numer":null,"Zk_Emer":"","Nr_Pas":"","Vol":null,"Faqe":null,"Pronaret":"","Kufizimet":"","Siperfaqe":45}},
{"type":"Feature","geometry":{"type":"Polygon","coordinates":[[[19.531277752069503,40.53052047682049],[19.531294454689093,40.53046727069902],[19.531379590133852,40.530482830482825],[19.531362887577497,40.53053603661683],[19.531277752069503,40.53052047682049]]]},"properties":{"Zk_Numer":null,"Zk_Emer":"","Nr_Pas":"","Vol":null,"Faqe":null,"Pronaret":"","Kufizimet":"","Siperfaqe":45}},
{"type":"Feature","geometry":{"type":"Polygon","coordinates":[[[19.532178645793774,40.53157836451443],[19.53218114373262,40.53161519206587],[19.532066050532315,40.53161973681421],[19.53205863036652,40.53151033713458],[19.532173723380005,40.5315057923925],[19.532176636531947,40.531548741586754],[19.532158916154128,40.53154890201164],[19.53215937701648,40.531578538957234],[19.532178645793774,40.53157836451443]]]},"properties":{"Zk_Numer":null,"Zk_Emer":"","Nr_Pas":"","Vol":null,"Faqe":null,"Pronaret":"","Kufizimet":"","Siperfaqe":114}},
{"type":"Feature","geometry":{"type":"Polygon","coordinates":[[[19.531899906246007,40.53194517414459],[19.531838154736164,40.531934644685606],[19.531860691620246,40.531857698429],[19.531922443063216,40.531868227875705],[19.531899906246007,40.53194517414459]]]},"properties":{"Zk_Numer":null,"Zk_Emer":"","Nr_Pas":"","Vol":null,"Faqe":null,"Pronaret":"","Kufizimet":"","Siperfaqe":47}},
{"type":"Feature","geometry":{"type":"Polygon","coordinates":[[[19.531899906246007,40.53194517414459],[19.531883240458775,40.53200207514617],[19.531821488899475,40.5319915456781],[19.53183815473616,40.531934644685606],[19.531899906246007,40.53194517414459]]]},"properties":{"Zk_Numer":null,"Zk_Emer":"","Nr_Pas":"","Vol":null,"Faqe":null,"Pronaret":"","Kufizimet":"","Siperfaqe":35}},
{"type":"Feature","geometry":{"type":"Polygon","coordinates":[[[19.531514377079244,40.53101185537357],[19.53150913256629,40.53096051430206],[19.531559079750313,40.530957543884],[19.531564324301197,40.531008884953486],[19.531514377079244,40.53101185537357]]]},"properties":{"Zk_Numer":null,"Zk_Emer":"","Nr_Pas":"","Vol":null,"Faqe":null,"Pronaret":"","Kufizimet":"","Siperfaqe":24}},
{"type":"Feature","geometry":{"type":"Polygon","coordinates":[[[19.535158672652543,40.531771335615545],[19.535189695854832,40.5316844503607],[19.53527443320452,40.531702064829354],[19.535243410103128,40.531788950107256],[19.535158672652543,40.531771335615545]]]},"properties":{"Zk_Numer":null,"Zk_Emer":"","Nr_Pas":"","Vol":null,"Faqe":null,"Pronaret":"","Kufizimet":"","Siperfaqe":74}},
{"type":"Feature","geometry":{"type":"Polygon","coordinates":[[[19.53120546824045,40.53219355891156],[19.531156073994964,40.532217153901904],[19.531086331175608,40.53213215649153],[19.531135725382576,40.53210856153045],[19.53120546824045,40.53219355891156]]]},"properties":{"Zk_Numer":null,"Zk_Emer":"","Nr_Pas":"","Vol":null,"Faqe":null,"Pronaret":"","Kufizimet":"","Siperfaqe":55}},
{"type":"Feature","geometry":{"type":"Polygon","coordinates":[[[19.530861620340993,40.528689719814004],[19.530803818936253,40.52872792837264],[19.53076870382873,40.528696999318065],[19.530826505226507,40.52865879077674],[19.530870661107407,40.52862960230205],[19.53090577622722,40.52866053132607],[19.530861620340993,40.528689719814004]]]},"properties":{"Zk_Numer":null,"Zk_Emer":"","Nr_Pas":"","Vol":null,"Faqe":null,"Pronaret":"","Kufizimet":"","Siperfaqe":52}},
{"type":"Feature","geometry":{"type":"Polygon","coordinates":[[[19.53020739013422,40.52982532015203],[19.53030241449686,40.52984021606108],[19.53027734460798,40.529933326989074],[19.530182320119764,40.52991843105893],[19.53020739013422,40.52982532015203]]]},"properties":{"Zk_Numer":null,"Zk_Emer":"","Nr_Pas":"","Vol":null,"Faqe":null,"Pronaret":"","Kufizimet":"","Siperfaqe":87}},
{"type":"Feature","geometry":{"type":"Polygon","coordinates":[[[19.53045637283635,40.53182214884097],[19.530492553698135,40.53179212357159],[19.530561906106865,40.531840776272766],[19.530525725249447,40.53187080156364],[19.53045637283635,40.53182214884097]]]},"properties":{"Zk_Numer":null,"Zk_Emer":"","Nr_Pas":"","Vol":null,"Faqe":null,"Pronaret":"","Kufizimet":"","Siperfaqe":36}},
{"type":"Feature","geometry":{"type":"Polygon","coordinates":[[[19.530612068224382,40.53122009649795],[19.530570988921998,40.53116492977097],[19.53067053045765,40.531121776585195],[19.53071160981599,40.53117694327751],[19.530612068224382,40.53122009649795]]]},"properties":{"Zk_Numer":null,"Zk_Emer":"","Nr_Pas":"","Vol":null,"Faqe":null,"Pronaret":"","Kufizimet":"","Siperfaqe":68}},
{"type":"Feature","geometry":{"type":"Polygon","coordinates":[[[19.536747383329455,40.528652582954486],[19.536591120749147,40.5283686034716],[19.53666597930432,40.528344620279505],[19.536822242146826,40.528628599663776],[19.536747383329455,40.528652582954486]]]},"properties":{"Zk_Numer":null,"Zk_Emer":"","Nr_Pas":"","Vol":null,"Faqe":null,"Pronaret":"","Kufizimet":"","Siperfaqe":235}},
{"type":"Feature","geometry":{"type":"Polygon","coordinates":[[[19.536304187415244,40.53187045427191],[19.536128151557527,40.531916962946646],[19.53611204428895,40.53188146988715],[19.53618343290558,40.53186244684629],[19.53623481076152,40.531849035020954],[19.53628808006441,40.53183496123623],[19.536293631096893,40.53184719310898],[19.536304187415244,40.53187045427191]]]},"properties":{"Zk_Numer":null,"Zk_Emer":"","Nr_Pas":"","Vol":null,"Faqe":null,"Pronaret":"","Kufizimet":"","Siperfaqe":66}},
{"type":"Feature","geometry":{"type":"Polygon","coordinates":[[[19.531197028354583,40.5312440955001],[19.53110256034209,40.531262923186084],[19.531088431014364,40.53122164361084],[19.53118289985463,40.53120281851278],[19.531197028354583,40.5312440955001]]]},"properties":{"Zk_Numer":null,"Zk_Emer":"","Nr_Pas":"","Vol":null,"Faqe":null,"Pronaret":"","Kufizimet":"","Siperfaqe":39}},
{"type":"Feature","geometry":{"type":"Polygon","coordinates":[[[19.530243720304362,40.53088949731745],[19.53016816363686,40.5309580436779],[19.530055125194927,40.530885503094034],[19.530130681894722,40.530816956806845],[19.530243720304362,40.53088949731745]]]},"properties":{"Zk_Numer":null,"Zk_Emer":"","Nr_Pas":"","Vol":null,"Faqe":null,"Pronaret":"","Kufizimet":"","Siperfaqe":124}},
{"type":"Feature","geometry":{"type":"Polygon","coordinates":[[[19.53128850546603,40.532017636504186],[19.531338711242398,40.53207150196496],[19.53129900173831,40.5320930490472],[19.531248795977984,40.532039183569466],[19.53128850546603,40.532017636504186]]]},"properties":{"Zk_Numer":null,"Zk_Emer":"","Nr_Pas":"","Vol":null,"Faqe":null,"Pronaret":"","Kufizimet":"","Siperfaqe":30}},
{"type":"Feature","geometry":{"type":"Polygon","coordinates":[[[19.530964839966607,40.5289160390807],[19.53104038861821,40.528802446103896],[19.531095267665936,40.52882369683146],[19.531019719082447,40.528937289844116],[19.530964839966607,40.5289160390807]]]},"properties":{"Zk_Numer":null,"Zk_Emer":"","Nr_Pas":"","Vol":null,"Faqe":null,"Pronaret":"","Kufizimet":"","Siperfaqe":74}},
{"type":"Feature","geometry":{"type":"Polygon","coordinates":[[[19.53159046068974,40.53039541449515],[19.531596844373666,40.53027751705479],[19.53165265210787,40.53027927631951],[19.531646268521516,40.530397173763454],[19.53159046068974,40.53039541449515]]]},"properties":{"Zk_Numer":null,"Zk_Emer":"","Nr_Pas":"","Vol":null,"Faqe":null,"Pronaret":"","Kufizimet":"","Siperfaqe":62}},
{"type":"Feature","geometry":{"type":"Polygon","coordinates":[[[19.530877064000936,40.5305442589916],[19.530880397876082,40.53048269941912],[19.530936280533943,40.530484461388305],[19.530932946709815,40.53054602096267],[19.530877064000936,40.5305442589916]]]},"properties":{"Zk_Numer":null,"Zk_Emer":"","Nr_Pas":"","Vol":null,"Faqe":null,"Pronaret":"","Kufizimet":"","Siperfaqe":32}},
{"type":"Feature","geometry":{"type":"Polygon","coordinates":[[[19.535935268330405,40.53200577042157],[19.53568292266407,40.532072439003464],[19.5356514786471,40.532003149748896],[19.535903824083363,40.5319364812336],[19.535935268330405,40.53200577042157]]]},"properties":{"Zk_Numer":null,"Zk_Emer":"","Nr_Pas":"","Vol":null,"Faqe":null,"Pronaret":"","Kufizimet":"","Siperfaqe":184}},
{"type":"Feature","geometry":{"type":"Polygon","coordinates":[[[19.536304187415244,40.53187045427191],[19.53631952466177,40.531904250322725],[19.535935268330405,40.53200577042157],[19.535903824083363,40.5319364812336],[19.53611204428895,40.53188146988715],[19.536128151557527,40.531916962946646],[19.536304187415244,40.53187045427191]]]},"properties":{"Zk_Numer":null,"Zk_Emer":"","Nr_Pas":"","Vol":null,"Faqe":null,"Pronaret":"","Kufizimet":"","Siperfaqe":215}},
{"type":"Feature","geometry":{"type":"Polygon","coordinates":[[[19.53656607334894,40.5288076692267],[19.53642847721378,40.52850445997126],[19.53650176384554,40.52848509645329],[19.536639360273053,40.52878830562407],[19.53656607334894,40.5288076692267]]]},"properties":{"Zk_Numer":null,"Zk_Emer":"","Nr_Pas":"","Vol":null,"Faqe":null,"Pronaret":"","Kufizimet":"","Siperfaqe":234}},
{"type":"Feature","geometry":{"type":"Polygon","coordinates":[[[19.530294280186112,40.53076622597823],[19.530325080278438,40.53074503436151],[19.53036966953672,40.53078276424633],[19.53033886944094,40.53080395587479],[19.530294280186112,40.53076622597823]]]},"properties":{"Zk_Numer":null,"Zk_Emer":"","Nr_Pas":"","Vol":null,"Faqe":null,"Pronaret":"","Kufizimet":"","Siperfaqe":20}},
{"type":"Feature","geometry":{"type":"Polygon","coordinates":[[[19.53100344291572,40.53168786660863],[19.53104521923888,40.53166817635935],[19.53111695160121,40.53175677946971],[19.53107517524352,40.53177646974443],[19.53100344291572,40.53168786660863]]]},"properties":{"Zk_Numer":null,"Zk_Emer":"","Nr_Pas":"","Vol":null,"Faqe":null,"Pronaret":"","Kufizimet":"","Siperfaqe":48}},
{"type":"Feature","geometry":{"type":"Polygon","coordinates":[[[19.530761847013643,40.530073817096124],[19.530839970099713,40.53015768285095],[19.53080210071725,40.530176548926235],[19.530728436653877,40.530090461729685],[19.530761847013643,40.530073817096124]]]},"properties":{"Zk_Numer":null,"Zk_Emer":"","Nr_Pas":"","Vol":null,"Faqe":null,"Pronaret":"","Kufizimet":"","Siperfaqe":41}},
{"type":"Feature","geometry":{"type":"Polygon","coordinates":[[[19.530761847013643,40.530073817096124],[19.530802990719042,40.53005331977935],[19.530876654838057,40.53013940692921],[19.530839970099713,40.53015768285095],[19.530761847013643,40.530073817096124]]]},"properties":{"Zk_Numer":null,"Zk_Emer":"","Nr_Pas":"","Vol":null,"Faqe":null,"Pronaret":"","Kufizimet":"","Siperfaqe":45}},
{"type":"Feature","geometry":{"type":"Polygon","coordinates":[[[19.532472775321533,40.53166720259736],[19.532462338723924,40.53158762852874],[19.532566219392177,40.531579696558396],[19.532576656111623,40.53165927061843],[19.532472775321533,40.53166720259736]]]},"properties":{"Zk_Numer":null,"Zk_Emer":"","Nr_Pas":"","Vol":null,"Faqe":null,"Pronaret":"","Kufizimet":"","Siperfaqe":79}},
{"type":"Feature","geometry":{"type":"Polygon","coordinates":[[[19.530362136162296,40.52852178647064],[19.53032770591205,40.52851016090464],[19.530379257279193,40.52842126869692],[19.53041368749315,40.528432894247544],[19.530362136162296,40.52852178647064]]]},"properties":{"Zk_Numer":null,"Zk_Emer":"","Nr_Pas":"","Vol":null,"Faqe":null,"Pronaret":"","Kufizimet":"","Siperfaqe":34}}
]}