{"type":"FeatureCollection", "features": [
{"type":"Feature","geometry":{"type":"Polygon","coordinates":[[[19.58202894869809,40.52149758063525],[19.581952152576697,40.521429207302134],[19.58195484047845,40.52142744915638],[19.581916442475837,40.52139326247155],[19.58199797541748,40.521339932046885],[19.582036373431542,40.52137411870499],[19.5820390613289,40.521372360557244],[19.582115857474708,40.52144073383338],[19.58202894869809,40.52149758063525]]]},"properties":{"Zk_Numer":2955,"Zk_Emer":"PICAR","Nr_Pas":"77/2-ND","Vol":2,"Faqe":11,"Pronaret":"FUAT LULAJ NELO","Kufizimet":"KUFIZOHET PASURIA DERI NE RREGULLIMIN E MARDHENIEVE ME TRUALLIN KJO NDERTESE NDODHET MBI PASURINE 77/2","Siperfaqe":177}},
{"type":"Feature","geometry":{"type":"Polygon","coordinates":[[[19.577657892598854,40.52239214622696],[19.57758126003449,40.52234559769532],[19.577648056229467,40.52228154486279],[19.577724688767855,40.52232809335051],[19.577657892598854,40.52239214622696]]]},"properties":{"Zk_Numer":2955,"Zk_Emer":"PICAR","Nr_Pas":"72/1-ND","Vol":2,"Faqe":12,"Pronaret":"TAJAR LLANAJ VELIKO","Kufizimet":"KUFIZOHET PASURIA DERI NE RREGULLIMIN E MARDHENIEVE ME TRUALLIN KJO NDERTESE NDODHET MBI PASURINE 72/1","Siperfaqe":75}},
{"type":"Feature","geometry":{"type":"Polygon","coordinates":[[[19.579094255692986,40.523105089461225],[19.579061429320962,40.52308671213694],[19.57911029197581,40.52303588615827],[19.579143118336624,40.52305426346876],[19.579094255692986,40.523105089461225]]]},"properties":{"Zk_Numer":2955,"Zk_Emer":"PICAR","Nr_Pas":"78/1-ND","Vol":2,"Faqe":15,"Pronaret":"MUSTAFA CAUSHAJ METUSH","Kufizimet":"KUFIZOHET PASURIA DERI NE RREGULLIMIN E MARDHENIEVE ME TRUALLIN KJO NDERTESE NDODHET MBI PASURINE 78/1","Siperfaqe":24}},
{"type":"Feature","geometry":{"type":"Polygon","coordinates":[[[19.584755369997588,40.51976500523493],[19.584765090224007,40.51964185651188],[19.58482045082442,40.519644401331554],[19.584822934062206,40.51961293997707],[19.584887717718885,40.519615917922366],[19.584885234511262,40.519647379278396],[19.5849199821276,40.519648976525815],[19.584916782522804,40.51968884416827],[19.584966833990304,40.51969114487114],[19.58496026098768,40.51977442354554],[19.584755369997588,40.51976500523493]]]},"properties":{"Zk_Numer":2955,"Zk_Emer":"PICAR","Nr_Pas":"77/3-ND","Vol":3,"Faqe":115,"Pronaret":"AGUR VEIZAJ DERVISH","Kufizimet":"PASURIA KUFIZOHET DERI NE REGULLIMIN E MARDHIENIES ME TRUALLIN KJO NDERTESE NDODHET MBI PASURINE 77/3","Siperfaqe":246}},
{"type":"Feature","geometry":{"type":"Polygon","coordinates":[[[19.577840168483807,40.52130428945434],[19.577802045581542,40.521206777565524],[19.57791964795988,40.52118000207575],[19.577943938745367,40.521242133522385],[19.577908884170363,40.521250114697715],[19.577922716426187,40.5212854951064],[19.577840168483807,40.52130428945434]]]},"properties":{"Zk_Numer":2955,"Zk_Emer":"PICAR","Nr_Pas":"88/1-ND","Vol":2,"Faqe":78,"Pronaret":"XHELADIN FILAJ JONUZ","Kufizimet":"KJO NDERTESE NDODHET MBI PASURINE 88/1","Siperfaqe":105}},
{"type":"Feature","geometry":{"type":"Polygon","coordinates":[[[19.581570873048655,40.521754062927464],[19.58149385893149,40.52167999114217],[19.581580754584,40.52162737708132],[19.581657768737593,40.521701448809544],[19.581570873048655,40.521754062927464]]]},"properties":{"Zk_Numer":2955,"Zk_Emer":"PICAR","Nr_Pas":"77/4-ND","Vol":3,"Faqe":125,"Pronaret":"LANDI HADERAJ EKREM","Kufizimet":"PASURIA KUFIZOHET DERI NE REGULLIMIN E MARDHIENIES ME TRUALLIN KJO NDERTESE NDODHET MBI PASURINE 77/4","Siperfaqe":99}},
{"type":"Feature","geometry":{"type":"Polygon","coordinates":[[[19.58381435976858,40.52152300798228],[19.583991365735145,40.52152364536047],[19.583990848005215,40.52160739322652],[19.58391296528231,40.521607112812696],[19.583912798240927,40.52163412825283],[19.583857336280293,40.521633928532005],[19.58385750334394,40.521606913092064],[19.58385514326147,40.52160690459272],[19.58385539942674,40.52156548091791],[19.583814098009075,40.52156533217185],[19.58381435976858,40.52152300798228]]]},"properties":{"Zk_Numer":2955,"Zk_Emer":"PICAR","Nr_Pas":"77/5-ND","Vol":3,"Faqe":119,"Pronaret":"OSMEN NAKAJ GANI, ARANIT NAKAJ OSMEN","Kufizimet":"PASURIA KUFIZOHET DERI NE REGULLIMIN E MARDHIENIES ME TRUALLIN KJO NDERTESE NDODHET MBI PASURINE 77/5","Siperfaqe":138}},
{"type":"Feature","geometry":{"type":"Polygon","coordinates":[[[19.58176643570353,40.52091495301665],[19.581871475137884,40.52089401450023],[19.58189891292936,40.52097417316648],[19.581793873378004,40.52099511170697],[19.58176643570353,40.52091495301665]]]},"properties":{"Zk_Numer":2955,"Zk_Emer":"PICAR","Nr_Pas":"86/1-ND","Vol":2,"Faqe":116,"Pronaret":"FERDINANT HASANAJ FERIAT","Kufizimet":"KUFIZOHET PASURIA DERI NE RREGULLIMIN E MARDHENIEVE ME TRUALLIN KJO NDERTESE NDODHET MBI PASURINE 86/1","Siperfaqe":85}},
{"type":"Feature","geometry":{"type":"Polygon","coordinates":[[[19.580724828517788,40.52606684773597],[19.580685606065764,40.52598191449201],[19.581244353398393,40.5258316671207],[19.581283576471407,40.52591660018025],[19.580724828517788,40.52606684773597]]]},"properties":{"Zk_Numer":2955,"Zk_Emer":"PICAR","Nr_Pas":"46/1-ND","Vol":2,"Faqe":74,"Pronaret":"GËZIM SHABANI SKËNDER","Kufizimet":"KUFIZOHET PASURIA DERI NE RREGULLIMIN E MARDHENIEVE ME TRUALLIN KJO NDERTESE NDODHET MBI PASURINE 46/1","Siperfaqe":502}},
{"type":"Feature","geometry":{"type":"Polygon","coordinates":[[[19.577700154441533,40.52208272804769],[19.577848980630637,40.52214149341115],[19.577809934758328,40.522199079019295],[19.57776381954459,40.522180870038305],[19.57777873291745,40.52215887554281],[19.577676021874048,40.52211831912339],[19.577700154441533,40.52208272804769]]]},"properties":{"Zk_Numer":2955,"Zk_Emer":"PICAR","Nr_Pas":"72/3-ND","Vol":3,"Faqe":109,"Pronaret":"MANE LLANAJ TAJAR","Kufizimet":"PASURIA KUFIZOHET DERI NE REGULLIMIN E MARDHIENIES ME TRUALLIN KJO NDERTESE NDODHET MBI PASURINE 72/3","Siperfaqe":75}},
{"type":"Feature","geometry":{"type":"Polygon","coordinates":[[[19.583248714807887,40.52056481452275],[19.583218679305556,40.52048942606054],[19.58332198324749,40.52046545709988],[19.583352018855315,40.520540845536054],[19.583248714807887,40.52056481452275]]]},"properties":{"Zk_Numer":2955,"Zk_Emer":"PICAR","Nr_Pas":"86/2-ND","Vol":3,"Faqe":123,"Pronaret":"ALBERT HASANAJ FERIAT","Kufizimet":"PASURIA KUFIZOHET DERI NE REGULLIMIN E MARDHIENIES ME TRUALLIN KJO NDERTESE NDODHET MBI PASURINE 86/2","Siperfaqe":80}},
{"type":"Feature","geometry":{"type":"Polygon","coordinates":[[[19.578567221114607,40.52199546859218],[19.578564283751938,40.5219452224186],[19.57863730747056,40.521942850479405],[19.578640244887684,40.52199309665142],[19.578567221114607,40.52199546859218]]]},"properties":{"Zk_Numer":2955,"Zk_Emer":"PICAR","Nr_Pas":"71/9-ND","Vol":1,"Faqe":1,"Pronaret":"PASHO FILAJ MAZE","Kufizimet":"KUFIZOHEN VEPRIMET DERI NE RREGULLIMIN E MARDHENIEVE ME TRUALLIN KJO NDERTESE NDODHET MBI PASURINE 71/9","Siperfaqe":35}},
{"type":"Feature","geometry":{"type":"Polygon","coordinates":[[[19.581280964900884,40.52259597857593],[19.581229332682952,40.52260688642749],[19.5812042099841,40.52253763591339],[19.58117908733639,40.52246838539324],[19.58127746617397,40.52244760180306],[19.581302588915527,40.52251685230253],[19.581325130413997,40.52251209015407],[19.58133762608289,40.52254653421087],[19.58131508457372,40.52255129636166],[19.581327711708234,40.522586102795955],[19.581339382822524,40.52261827394732],[19.581292635994462,40.522628149731865],[19.581280964900884,40.52259597857593]]]},"properties":{"Zk_Numer":2955,"Zk_Emer":"PICAR","Nr_Pas":"76/1-ND","Vol":1,"Faqe":197,"Pronaret":"RAZI BINJAKAJ ALI","Kufizimet":"KUFIZOHEN VEPRIMET DERI NE RREGULLIMIN E MARDHENIEVE ME TRUALLIN KJO NDERTESE NDODHET MBI PASURINE 76/1","Siperfaqe":161}},
{"type":"Feature","geometry":{"type":"Polygon","coordinates":[[[19.580545223217243,40.52138630556075],[19.580326953821075,40.52146242318421],[19.58027651214052,40.5213781889663],[19.5804947813189,40.52130207143592],[19.580545223217243,40.52138630556075]]]},"properties":{"Zk_Numer":2955,"Zk_Emer":"PICAR","Nr_Pas":"87/1-ND","Vol":1,"Faqe":207,"Pronaret":"YLLI MEHMETAJ BILBIL, AGRON MEHMETAJ BILBIL","Kufizimet":"KUFIZOHET PASURIA DERI NE RREGULLIMIN E MARDHENIEVE ME TRUALLIN KJO NDERTESE NDODHET MBI PASURINE 87/1","Siperfaqe":209}},
{"type":"Feature","geometry":{"type":"Polygon","coordinates":[[[19.583193861384228,40.520057111193424],[19.58317053763956,40.51996036639346],[19.58331198620487,40.51994050480587],[19.583335242263807,40.52003725910966],[19.583193861384228,40.520057111193424]]]},"properties":{"Zk_Numer":2955,"Zk_Emer":"PICAR","Nr_Pas":"86/6-ND","Vol":1,"Faqe":204,"Pronaret":"PATRIOT MEMETAJ RAMADAN, ALTIN MEMETAJ RAMADAN","Kufizimet":"KUFIZOHET PASURIA DERI NE DEPOZITIMIN E PLANIMETRIVE TË KATEVE SIPAS LEJËS SË LEGALIZIMIT KUFIZOHET PASURIA DERI NE RREGULLIMIN E MARDHENIEVE ME TRUALLIN KJO NDERTESE NDODHET MBI PASURINE 86/6","Siperfaqe":133}},
{"type":"Feature","geometry":{"type":"Polygon","coordinates":[[[19.578402254779615,40.52241572902934],[19.57849901925735,40.52241608203466],[19.57849855108244,40.52249082468981],[19.578401786497235,40.52249047168357],[19.578402254779615,40.52241572902934]]]},"properties":{"Zk_Numer":2955,"Zk_Emer":"PICAR","Nr_Pas":"73/2-ND","Vol":1,"Faqe":205,"Pronaret":"ANILA HALILAJ RAMIS","Kufizimet":"KUFIZOHET PASURIA DERI NE RREGULLIMIN E MARDHENIEVE ME TRUALLIN KJO NDERTESE NDODHET MBI PASURINE 73/2","Siperfaqe":68}},
{"type":"Feature","geometry":{"type":"Polygon","coordinates":[[[19.577835023890717,40.52261601329917],[19.5777583284836,40.52257396802177],[19.577825669616868,40.522502434897426],[19.57793943977088,40.52256480489306],[19.577912613741045,40.522593300919134],[19.577875538948017,40.52257297614798],[19.577835023890717,40.52261601329917]]]},"properties":{"Zk_Numer":2955,"Zk_Emer":"PICAR","Nr_Pas":"73/3-ND","Vol":1,"Faqe":206,"Pronaret":"ARANIT HALILAJ GJYSHO","Kufizimet":"KUFIZOHET PASURIA DERI NE RREGULLIMIN E MARDHENIEVE ME TRUALLIN KJO NDERTESE NDODHET MBI PASURINE 73/3","Siperfaqe":93}},
{"type":"Feature","geometry":{"type":"Polygon","coordinates":[[[19.585828023037518,40.51911128318135],[19.58582580887989,40.519054192097286],[19.58586709114431,40.51905325964331],[19.585869305336942,40.519110350726756],[19.585828023037518,40.51911128318135]]]},"properties":{"Zk_Numer":2955,"Zk_Emer":"PICAR","Nr_Pas":"85/2-ND","Vol":1,"Faqe":220,"Pronaret":"BENI SULCE FAIK","Kufizimet":"KUFIZOHET PASURIA DERI NE RREGULLIMIN E MARDHENIEVE ME TRUALLIN KJO NDERTESE NDODHET MBI PASURINE 85/2","Siperfaqe":28}},
{"type":"Feature","geometry":{"type":"Polygon","coordinates":[[[19.576642687061245,40.522055399333674],[19.576725278168276,40.522132632379616],[19.576639039438124,40.52218633715183],[19.57655644836522,40.522109104045136],[19.576642687061245,40.522055399333674]]]},"properties":{"Zk_Numer":2955,"Zk_Emer":"PICAR","Nr_Pas":"69/2-ND","Vol":2,"Faqe":17,"Pronaret":"BASHKIM AVDULI HAIR","Kufizimet":"KUFIZOHET PASURIA DERI NE RREGULLIMIN E MARDHENIEVE ME TRUALLIN KJO NDERTESE NDODHET MBI PASURINE 69/2","Siperfaqe":104}},
{"type":"Feature","geometry":{"type":"Polygon","coordinates":[[[19.58312715245137,40.52184557844364],[19.5830637719403,40.52176749059143],[19.583148041335107,40.521727659037786],[19.583211421907237,40.52180574684461],[19.58312715245137,40.52184557844364]]]},"properties":{"Zk_Numer":2955,"Zk_Emer":"PICAR","Nr_Pas":"77/31-ND","Vol":2,"Faqe":18,"Pronaret":"BASHKIM TAHIRAJ HYSEN","Kufizimet":"KUFIZOHET PASURIA DERI NE RREGULLIMIN E MARDHENIEVE ME TRUALLIN KJO NDERTESE NDODHET MBI PASURINE 77/31","Siperfaqe":92}},
{"type":"Feature","geometry":{"type":"Polygon","coordinates":[[[19.57780721517443,40.523037684925896],[19.57787930593435,40.522979400521],[19.577955683928433,40.52303441331137],[19.57788359317491,40.52309269776339],[19.57780721517443,40.523037684925896]]]},"properties":{"Zk_Numer":2955,"Zk_Emer":"PICAR","Nr_Pas":"64/1-ND","Vol":2,"Faqe":14,"Pronaret":"FAIKATE AVDULI RRAPO","Kufizimet":"KUFIZOHET PASURIA DERI NE RREGULLIMIN E MARDHENIEVE ME TRUALLIN KJO NDERTESE NDODHET MBI PASURINE 64/1","Siperfaqe":79}},
{"type":"Feature","geometry":{"type":"Polygon","coordinates":[[[19.577910584618067,40.521763237131445],[19.577952910112028,40.5217604566099],[19.577949924356652,40.5217339890357],[19.578052798766905,40.521727230761314],[19.57806372982617,40.52182412898926],[19.578013762186455,40.52182741159543],[19.578011181256056,40.521804532846375],[19.5779159488325,40.52181078904572],[19.577910584618067,40.521763237131445]]]},"properties":{"Zk_Numer":2955,"Zk_Emer":"PICAR","Nr_Pas":"71/2-ND","Vol":2,"Faqe":19,"Pronaret":"FLAMUR LALA NURI","Kufizimet":"KUFIZOHET PASURIA DERI NE RREGULLIMIN E MARDHENIEVE ME TRUALLIN KJO NDERTESE NDODHET MBI PASURINE 71/2","Siperfaqe":102}},
{"type":"Feature","geometry":{"type":"Polygon","coordinates":[[[19.585425428797702,40.51912688394256],[19.58542825897999,40.519052011070386],[19.585475439742716,40.519053049724334],[19.585474521070644,40.51907735379486],[19.585501650019722,40.519077951012434],[19.585500901479538,40.51909775432931],[19.58547377252248,40.519097157111524],[19.585472609612854,40.5191279225979],[19.585425428797702,40.51912688394256]]]},"properties":{"Zk_Numer":2955,"Zk_Emer":"PICAR","Nr_Pas":"85/1-ND","Vol":2,"Faqe":22,"Pronaret":"PELLUP SULÇE PANDELI","Kufizimet":"KUFIZOHET PASURIA DERI NE RREGULLIMIN E MARDHENIEVE ME TRUALLIN KJO NDERTESEN NDODHET MBI PASURINE 85/1","Siperfaqe":38}},
{"type":"Feature","geometry":{"type":"Polygon","coordinates":[[[19.589913666353855,40.519486831869926],[19.589930317814837,40.51954489218972],[19.589848473815405,40.519558562339476],[19.58983182242182,40.51950050200837],[19.589913666353855,40.519486831869926]]]},"properties":{"Zk_Numer":2955,"Zk_Emer":"PICAR","Nr_Pas":"77/33-ND","Vol":2,"Faqe":23,"Pronaret":"QANI HADERAJ FETI","Kufizimet":"KUFIZOHET PASURIA DERI NE RREGULLIMIN E MARDHENIEVE ME TRUALLIN KJO NDERTESE NDODHET MBI PASURINE 77/33","Siperfaqe":47}},
{"type":"Feature","geometry":{"type":"Polygon","coordinates":[[[19.578120889107577,40.52268749493021],[19.578202280077228,40.522727441899626],[19.578155506638854,40.52278293824645],[19.578074115630415,40.52274299124428],[19.578120889107577,40.52268749493021]]]},"properties":{"Zk_Numer":2955,"Zk_Emer":"PICAR","Nr_Pas":"73/5-ND","Vol":2,"Faqe":25,"Pronaret":"HETEM HALILAJ GJYSHO","Kufizimet":"KUFIZOHET PASURIA DERI NE RREGULLIMIN E MARDHENIEVE ME TRUALLIN KJO NDERTESE NDODHET MBI PASURINE 73/5","Siperfaqe":60}},
{"type":"Feature","geometry":{"type":"Polygon","coordinates":[[[19.578202280077228,40.522727441899626],[19.578120889107577,40.52268749493021],[19.57815864347666,40.52264269962611],[19.578240034415,40.52268264656907],[19.578202280077228,40.522727441899626]]]},"properties":{"Zk_Numer":2955,"Zk_Emer":"PICAR","Nr_Pas":"73/5-ND1","Vol":2,"Faqe":26,"Pronaret":"HETEM HALILAJ GJYSHO","Kufizimet":"KUFIZOHET PASURIA DERI NE RREGULLIMIN E MARDHENIEVE ME TRUALLIN KJO NDERTESE NDODHET MBI PASURINE 73/5","Siperfaqe":49}},
{"type":"Feature","geometry":{"type":"Polygon","coordinates":[[[19.580269343645146,40.522150283048255],[19.58025455390561,40.52214132639121],[19.58020577210362,40.52218823495643],[19.58017573044979,40.52217004172842],[19.58019627016736,40.522150290761516],[19.58018841312295,40.522145532532726],[19.58021665521604,40.52211837494894],[19.580204638563778,40.52211109765976],[19.580252319970796,40.522065247182326],[19.580309571045206,40.52209991841446],[19.580317025036294,40.522104432544324],[19.580269343645146,40.522150283048255]]]},"properties":{"Zk_Numer":2955,"Zk_Emer":"PICAR","Nr_Pas":"71/4-ND","Vol":2,"Faqe":28,"Pronaret":"LUMTURI FISHEKAJ BEQIR","Kufizimet":"KUFIZOHET PASURIA DERI NE RREGULLIMIN E MARDHENIEVE ME TRUALLIN KJO NDERTESE NDODHET MBI PASURINE 71/4","Siperfaqe":70}},
{"type":"Feature","geometry":{"type":"Polygon","coordinates":[[[19.580254482436686,40.52608986282002],[19.580287870041605,40.526166247989835],[19.58015997900357,40.526198797417955],[19.580142851225283,40.52615961182221],[19.580157908770563,40.52615577954968],[19.580141649066185,40.526118579941794],[19.580254482436686,40.52608986282002]]]},"properties":{"Zk_Numer":2955,"Zk_Emer":"PICAR","Nr_Pas":"46/1-ND1","Vol":2,"Faqe":54,"Pronaret":"GEZIM SHABANI SKENDER","Kufizimet":"KUFIZOHET PASURIA DERI NE RREGULLIMIN E MARDHENIEVE ME TRUALLIN KJO NDERTESE NDODHET MBI PASURINE 46/1","Siperfaqe":96}},
{"type":"Feature","geometry":{"type":"Polygon","coordinates":[[[19.580958198185026,40.52151758320611],[19.580999930518033,40.52155558517014],[19.581016799014396,40.52154479740883],[19.581049894189015,40.521574934224496],[19.58096121469868,40.52163164659052],[19.580928595565563,40.521604161749835],[19.580914065952243,40.52161420374811],[19.58087006715879,40.52157713036299],[19.580958198185026,40.52151758320611]]]},"properties":{"Zk_Numer":2955,"Zk_Emer":"PICAR","Nr_Pas":"71/5-ND","Vol":2,"Faqe":79,"Pronaret":"ERMAL MENAJ MEDIN","Kufizimet":"KUFIZOHET PASURIA DERI NE RREGULLIMIN E MARDHENIEVE ME TRUALLIN KJO NDERTESE NDODHET MBI PASURINE 71/5","Siperfaqe":106}},
{"type":"Feature","geometry":{"type":"Polygon","coordinates":[[[19.597193020618224,40.51488431118076],[19.5970732830298,40.514893593080075],[19.59706887141223,40.514860444147175],[19.59708882766945,40.514858897173276],[19.597084058347367,40.51482306048945],[19.597183839567485,40.51481532557207],[19.597193020618224,40.51488431118076]]]},"properties":{"Zk_Numer":2955,"Zk_Emer":"PICAR","Nr_Pas":"103/1-ND","Vol":2,"Faqe":80,"Pronaret":"LAVDIM KASAJ XHEBRO","Kufizimet":"KUFIZOHET PASURIA DERI NE RREGULLIMIN E MARDHENIEVE ME TRUALLIN KJO NDERTESE NDODHET NE PASURINE 103/1","Siperfaqe":145}},
{"type":"Feature","geometry":{"type":"Polygon","coordinates":[[[19.5804077083981,40.522296602492766],[19.58040820252461,40.52221735724589],[19.580514407153554,40.52221774284125],[19.580513913152103,40.52229698808919],[19.5804077083981,40.522296602492766]]]},"properties":{"Zk_Numer":2955,"Zk_Emer":"PICAR","Nr_Pas":"71/6-ND","Vol":2,"Faqe":114,"Pronaret":"VESEL RAMAJ ARSHI","Kufizimet":"KUFIZOHET PASURIA DERI NE RREGULLIMIN E MARDHENIEVE ME TRUALLIN KJO NDERTESE NDODHET MBI PASURINE 71/6","Siperfaqe":79}},
{"type":"Feature","geometry":{"type":"Polygon","coordinates":[[[19.59507880564806,40.51832046661465],[19.595063475782815,40.51821847545215],[19.595204152795773,40.518206160496725],[19.59520926281606,40.51824015754546],[19.595236225917947,40.5182377971583],[19.59524026015867,40.51826463693246],[19.5952613617237,40.518262789667865],[19.59526714415278,40.51830126000941],[19.595219079448082,40.5183054676643],[19.59521948287171,40.51830815164177],[19.59507880564806,40.51832046661465]]]},"properties":{"Zk_Numer":2955,"Zk_Emer":"PICAR","Nr_Pas":"245/1-ND","Vol":2,"Faqe":29,"Pronaret":"MEDIN MENAJ SEFER","Kufizimet":"KUFIZOHET PASURIA DERI NE RREGULLIMIN E MARDHENIEVE ME TRUALLIN KJO NDERTESE NDODHET MBI PASURINE 245/1","Siperfaqe":161}},
{"type":"Feature","geometry":{"type":"Polygon","coordinates":[[[19.59387549674748,40.515812487837515],[19.593970387109298,40.515848876597246],[19.59394919601993,40.515881062892426],[19.593854305624475,40.515844674115314],[19.59387549674748,40.515812487837515]]]},"properties":{"Zk_Numer":2955,"Zk_Emer":"PICAR","Nr_Pas":"85/20-ND","Vol":3,"Faqe":28,"Pronaret":"BESNIK KASAJ XHEBRO","Kufizimet":"KUFIZOHEN VEPRIMET DERI NE RREGULLIMIN E MARDHENIEVE ME TRUALLIN KJO NDERTESE NDODHET MBI PASURINE 85/20","Siperfaqe":36}},
{"type":"Feature","geometry":{"type":"Polygon","coordinates":[[[19.594397164154735,40.516353165045295],[19.594351083454523,40.516344307044406],[19.59425451671054,40.516325744145114],[19.594288531573973,40.516222680305845],[19.594306306525787,40.51622609716806],[19.59431038816907,40.5162137299004],[19.5942926132203,40.5162103130388],[19.59426237465625,40.516204500301164],[19.59427005640818,40.51618122483982],[19.594425955562162,40.51621119312692],[19.594425167612485,40.516213580606596],[19.594414147825137,40.516246970433926],[19.59438505376925,40.51624137773999],[19.594366725339952,40.516296912517625],[19.594412806009874,40.51630577051221],[19.594397164154735,40.516353165045295]]]},"properties":{"Zk_Numer":2955,"Zk_Emer":"PICAR","Nr_Pas":"85/20-ND1","Vol":3,"Faqe":29,"Pronaret":"XHEBRO KASAJ HEKURAN","Kufizimet":"PASURIA KUFIZOHET DERI NE REGULLIMIN E MARDHENIEVE ME TRUALLIN KJO NDERTESE NDODHET MBI PASURINE 85/20","Siperfaqe":171}},
{"type":"Feature","geometry":{"type":"Polygon","coordinates":[[[19.582946074626346,40.521466068975585],[19.582909009598588,40.52142323548857],[19.582901131818684,40.521427205337325],[19.58287186999017,40.5213933894161],[19.58292307552821,40.52136758540219],[19.582928927894514,40.52137434858448],[19.58298801116237,40.52134457469074],[19.583011420652912,40.52137162740514],[19.583007481769105,40.521373612333136],[19.58304454683275,40.5214164457891],[19.582946074626346,40.521466068975585]]]},"properties":{"Zk_Numer":2955,"Zk_Emer":"PICAR","Nr_Pas":"","Vol":0,"Faqe":0,"Pronaret":"","Kufizimet":"","Siperfaqe":102}},
{"type":"Feature","geometry":{"type":"Polygon","coordinates":[[[19.57541192138191,40.521847395209136],[19.575437687953215,40.5218449734088],[19.57543191784595,40.52180922259084],[19.575538497679503,40.52179920508782],[19.575555808186735,40.52190645752531],[19.57542346158731,40.52191889684603],[19.57541192138191,40.521847395209136]]]},"properties":{"Zk_Numer":2955,"Zk_Emer":"PICAR","Nr_Pas":"","Vol":0,"Faqe":0,"Pronaret":"","Kufizimet":"","Siperfaqe":126.8}},
{"type":"Feature","geometry":{"type":"Polygon","coordinates":[[[19.582102830897153,40.52139750506858],[19.582047652704553,40.52134355186203],[19.582089514784386,40.52131861961016],[19.58214469299044,40.52137257279703],[19.582102830897153,40.52139750506858]]]},"properties":{"Zk_Numer":2955,"Zk_Emer":"PICAR","Nr_Pas":"","Vol":0,"Faqe":0,"Pronaret":"","Kufizimet":"","Siperfaqe":34.2}},
{"type":"Feature","geometry":{"type":"Polygon","coordinates":[[[19.578026444392055,40.5221047744308],[19.578038744612858,40.52225641203039],[19.577987509836962,40.522258832214796],[19.577983171887873,40.52220535338231],[19.577939004009814,40.52220743972846],[19.577931041917438,40.52210928095388],[19.578026444392055,40.5221047744308]]]},"properties":{"Zk_Numer":2955,"Zk_Emer":"PICAR","Nr_Pas":"","Vol":0,"Faqe":0,"Pronaret":"","Kufizimet":"","Siperfaqe":114.34}},
{"type":"Feature","geometry":{"type":"Polygon","coordinates":[[[19.57918745352002,40.52315726468259],[19.57917129017277,40.52314821591817],[19.579094255692986,40.523105089461225],[19.579143118336628,40.52305426346876],[19.579235883161118,40.523106196260166],[19.57918745352002,40.52315726468259]]]},"properties":{"Zk_Numer":2955,"Zk_Emer":"PICAR","Nr_Pas":"","Vol":0,"Faqe":0,"Pronaret":"","Kufizimet":"","Siperfaqe":68.41}},
{"type":"Feature","geometry":{"type":"Polygon","coordinates":[[[19.578107215123968,40.5224815749761],[19.578098500627377,40.5223800332748],[19.57823627335528,40.522373147658094],[19.578244988059055,40.522474689350155],[19.578107215123968,40.5224815749761]]]},"properties":{"Zk_Numer":2955,"Zk_Emer":"PICAR","Nr_Pas":"","Vol":0,"Faqe":0,"Pronaret":"","Kufizimet":"","Siperfaqe":132.21}},
{"type":"Feature","geometry":{"type":"Polygon","coordinates":[[[19.584703902241806,40.519798544957844],[19.58470406339771,40.51977243002144],[19.58473238361848,40.51977253179851],[19.58473222247357,40.519798646735005],[19.584703902241806,40.519798544957844]]]},"properties":{"Zk_Numer":2955,"Zk_Emer":"PICAR","Nr_Pas":"","Vol":0,"Faqe":0,"Pronaret":"","Kufizimet":"","Siperfaqe":6.96}},
{"type":"Feature","geometry":{"type":"Polygon","coordinates":[[[19.584528978225585,40.518045629614605],[19.584510030317254,40.51795949376477],[19.58464282790825,40.51794065254667],[19.584661775981626,40.518026788375835],[19.584528978225585,40.518045629614605]]]},"properties":{"Zk_Numer":2955,"Zk_Emer":"PICAR","Nr_Pas":"","Vol":0,"Faqe":0,"Pronaret":"","Kufizimet":"","Siperfaqe":111.01}},
{"type":"Feature","geometry":{"type":"Polygon","coordinates":[[[19.575544430116334,40.52137556420248],[19.575581565673506,40.521455806527555],[19.575510353020587,40.52147499907918],[19.575473217538143,40.52139475673183],[19.575544430116334,40.52137556420248]]]},"properties":{"Zk_Numer":2955,"Zk_Emer":"PICAR","Nr_Pas":"","Vol":0,"Faqe":0,"Pronaret":"","Kufizimet":"","Siperfaqe":60.48}},
{"type":"Feature","geometry":{"type":"Polygon","coordinates":[[[19.577463595433173,40.52137238994894],[19.57745114937495,40.52127650309747],[19.577545093465286,40.521269401835376],[19.57755753965623,40.5213652886775],[19.577463595433173,40.52137238994894]]]},"properties":{"Zk_Numer":2955,"Zk_Emer":"PICAR","Nr_Pas":"","Vol":0,"Faqe":0,"Pronaret":"","Kufizimet":"","Siperfaqe":85.6}},
{"type":"Feature","geometry":{"type":"Polygon","coordinates":[[[19.59450563568382,40.51703551537561],[19.5945557019445,40.516962755076364],[19.594683847073888,40.51701411201929],[19.59463378091262,40.517086872373895],[19.59450563568382,40.51703551537561]]]},"properties":{"Zk_Numer":2955,"Zk_Emer":"PICAR","Nr_Pas":"","Vol":0,"Faqe":0,"Pronaret":"","Kufizimet":"","Siperfaqe":111.94}},
{"type":"Feature","geometry":{"type":"Polygon","coordinates":[[[19.577742085960768,40.52106797517908],[19.57771546297193,40.520998388178604],[19.577811746826036,40.52097693568372],[19.57783836990633,40.521046522662736],[19.577742085960768,40.52106797517908]]]},"properties":{"Zk_Numer":2955,"Zk_Emer":"PICAR","Nr_Pas":"","Vol":0,"Faqe":0,"Pronaret":"","Kufizimet":"","Siperfaqe":68.42}},
{"type":"Feature","geometry":{"type":"Polygon","coordinates":[[[19.577919235216594,40.5214939112293],[19.577901904916377,40.52139574036616],[19.57803873472535,40.521381673539494],[19.57805606522192,40.521479844383336],[19.577919235216594,40.5214939112293]]]},"properties":{"Zk_Numer":2955,"Zk_Emer":"PICAR","Nr_Pas":"","Vol":0,"Faqe":0,"Pronaret":"","Kufizimet":"","Siperfaqe":128.7}},
{"type":"Feature","geometry":{"type":"Polygon","coordinates":[[[19.581167831614888,40.52230771944314],[19.581150129209405,40.52221231499565],[19.581243601981242,40.522202214814214],[19.58126130451684,40.5222976192482],[19.581167831614888,40.52230771944314]]]},"properties":{"Zk_Numer":2955,"Zk_Emer":"PICAR","Nr_Pas":"","Vol":0,"Faqe":0,"Pronaret":"","Kufizimet":"","Siperfaqe":85.6}},
{"type":"Feature","geometry":{"type":"Polygon","coordinates":[[[19.57577278771958,40.521809287316295],[19.57574650506385,40.521783046239875],[19.575835526264488,40.52173115104626],[19.575868275781442,40.52176386672254],[19.57583108810635,40.52178554542074],[19.57577925456234,40.521815761941006],[19.57577278771958,40.521809287316295]]]},"properties":{"Zk_Numer":2955,"Zk_Emer":"PICAR","Nr_Pas":"","Vol":0,"Faqe":0,"Pronaret":"","Kufizimet":"","Siperfaqe":43.4}},
{"type":"Feature","geometry":{"type":"Polygon","coordinates":[[[19.57583108810635,40.52178554542074],[19.575881491652257,40.52183573674353],[19.575812705449785,40.521875835872834],[19.57575592714208,40.52181911622917],[19.57577278771958,40.521809287316295],[19.57577925456234,40.521815761941006],[19.57583108810635,40.52178554542074]]]},"properties":{"Zk_Numer":2955,"Zk_Emer":"PICAR","Nr_Pas":"","Vol":0,"Faqe":0,"Pronaret":"","Kufizimet":"","Siperfaqe":53.1}},
{"type":"Feature","geometry":{"type":"Polygon","coordinates":[[[19.575835526264488,40.52173115104626],[19.57574650506385,40.521783046239875],[19.575668942487493,40.52170556354407],[19.57573487391935,40.52166712864409],[19.575754398550806,40.52168663316999],[19.575777468549457,40.52167318443261],[19.575835526264488,40.52173115104626]]]},"properties":{"Zk_Numer":2955,"Zk_Emer":"PICAR","Nr_Pas":"","Vol":0,"Faqe":0,"Pronaret":"","Kufizimet":"","Siperfaqe":96.07}},
{"type":"Feature","geometry":{"type":"Polygon","coordinates":[[[19.576555173275782,40.52197356270887],[19.576642687061245,40.522055399333674],[19.57655644836522,40.522109104045136],[19.57646886671764,40.52202720386144],[19.576555173275782,40.52197356270887]]]},"properties":{"Zk_Numer":2955,"Zk_Emer":"PICAR","Nr_Pas":"","Vol":0,"Faqe":0,"Pronaret":"","Kufizimet":"","Siperfaqe":110.68}},
{"type":"Feature","geometry":{"type":"Polygon","coordinates":[[[19.576555173275782,40.52197356270887],[19.57646886671764,40.52202720386144],[19.57627131418579,40.521842465682944],[19.57635755276398,40.521788761181234],[19.576555173275782,40.52197356270887]]]},"properties":{"Zk_Numer":2955,"Zk_Emer":"PICAR","Nr_Pas":"","Vol":0,"Faqe":0,"Pronaret":"","Kufizimet":"","Siperfaqe":249.8}},
{"type":"Feature","geometry":{"type":"Polygon","coordinates":[[[19.578162124860903,40.52068015235464],[19.5780683534343,40.520708249343535],[19.57802224434672,40.520618630855346],[19.578115738180582,40.52059029756797],[19.578162124860903,40.52068015235464]]]},"properties":{"Zk_Numer":2955,"Zk_Emer":"PICAR","Nr_Pas":"","Vol":0,"Faqe":0,"Pronaret":"","Kufizimet":"","Siperfaqe":91.35}},
{"type":"Feature","geometry":{"type":"Polygon","coordinates":[[[19.577214837689137,40.52147252059834],[19.57705236125565,40.52145557822546],[19.577073130537975,40.52133958715266],[19.57708801853537,40.52134113962138],[19.57709659833727,40.52129322346519],[19.577244186396104,40.52130861332773],[19.577214837689137,40.52147252059834]]]},"properties":{"Zk_Numer":2955,"Zk_Emer":"PICAR","Nr_Pas":"","Vol":0,"Faqe":0,"Pronaret":"","Kufizimet":"","Siperfaqe":248.45}},
{"type":"Feature","geometry":{"type":"Polygon","coordinates":[[[19.57873346775466,40.52180598071015],[19.578742379362648,40.52174313850445],[19.57913557568892,40.5217756090784],[19.579126664443322,40.521838451315865],[19.57873346775466,40.52180598071015]]]},"properties":{"Zk_Numer":2955,"Zk_Emer":"PICAR","Nr_Pas":"","Vol":0,"Faqe":0,"Pronaret":"","Kufizimet":"","Siperfaqe":235.24}},
{"type":"Feature","geometry":{"type":"Polygon","coordinates":[[[19.579159796165982,40.521846729885155],[19.57916817202816,40.52178328385156],[19.57929813780893,40.5217932754578],[19.57928976206788,40.5218567215013],[19.579159796165982,40.521846729885155]]]},"properties":{"Zk_Numer":2955,"Zk_Emer":"PICAR","Nr_Pas":"","Vol":0,"Faqe":0,"Pronaret":"","Kufizimet":"","Siperfaqe":78.38}},
{"type":"Feature","geometry":{"type":"Polygon","coordinates":[[[19.579329632114824,40.52185912441099],[19.57933748784001,40.52180529700061],[19.579520272837474,40.52182083172187],[19.579512417256463,40.521874659145254],[19.579329632114824,40.52185912441099]]]},"properties":{"Zk_Numer":2955,"Zk_Emer":"PICAR","Nr_Pas":"","Vol":0,"Faqe":0,"Pronaret":"","Kufizimet":"","Siperfaqe":93.73}},
{"type":"Feature","geometry":{"type":"Polygon","coordinates":[[[19.579558679147027,40.52187889458053],[19.57956628183603,40.521825688630855],[19.579639231670672,40.52183175897973],[19.57971215463498,40.52183801456498],[19.57970432000734,40.52189120091693],[19.579631512991014,40.521884955277855],[19.579558679147027,40.52187889458053]]]},"properties":{"Zk_Numer":2955,"Zk_Emer":"PICAR","Nr_Pas":"","Vol":0,"Faqe":0,"Pronaret":"","Kufizimet":"","Siperfaqe":73.86}},
{"type":"Feature","geometry":{"type":"Polygon","coordinates":[[[19.57976102626642,40.52189967171061],[19.57976781770123,40.521843005711844],[19.579913775384313,40.52185319269772],[19.57990698407124,40.52190985870558],[19.57976102626642,40.52189967171061]]]},"properties":{"Zk_Numer":2955,"Zk_Emer":"PICAR","Nr_Pas":"","Vol":0,"Faqe":0,"Pronaret":"","Kufizimet":"","Siperfaqe":78.48}},
{"type":"Feature","geometry":{"type":"Polygon","coordinates":[[[19.580053471434564,40.52192643467091],[19.58006238294538,40.521863639859184],[19.58023158999088,40.52187762366941],[19.580222678635884,40.521940418494836],[19.580053471434564,40.52192643467091]]]},"properties":{"Zk_Numer":2955,"Zk_Emer":"PICAR","Nr_Pas":"","Vol":0,"Faqe":0,"Pronaret":"","Kufizimet":"","Siperfaqe":101.16}},
{"type":"Feature","geometry":{"type":"Polygon","coordinates":[[[19.580053471434564,40.52192643467091],[19.580052221152595,40.52193524475209],[19.579998497221364,40.52193080478167],[19.580008659070568,40.52185919989371],[19.58006238294538,40.521863639859184],[19.580053471434564,40.52192643467091]]]},"properties":{"Zk_Numer":2955,"Zk_Emer":"PICAR","Nr_Pas":"","Vol":0,"Faqe":0,"Pronaret":"","Kufizimet":"","Siperfaqe":36.62}},
{"type":"Feature","geometry":{"type":"Polygon","coordinates":[[[19.580000557213204,40.521744536502204],[19.579954554135647,40.52171492180497],[19.579985167851532,40.52168722808098],[19.580031170923842,40.521716842766125],[19.580000557213204,40.521744536502204]]]},"properties":{"Zk_Numer":2955,"Zk_Emer":"PICAR","Nr_Pas":"","Vol":0,"Faqe":0,"Pronaret":"","Kufizimet":"","Siperfaqe":20.52}},
{"type":"Feature","geometry":{"type":"Polygon","coordinates":[[[19.580379437179946,40.52182936209737],[19.580328591673943,40.521797159702636],[19.58046997166516,40.52166716134547],[19.580520817141657,40.52169936367857],[19.580379437179946,40.52182936209737]]]},"properties":{"Zk_Numer":2955,"Zk_Emer":"PICAR","Nr_Pas":"","Vol":0,"Faqe":0,"Pronaret":"","Kufizimet":"","Siperfaqe":105.04}},
{"type":"Feature","geometry":{"type":"Polygon","coordinates":[[[19.580605726307038,40.521888182556154],[19.58052981486352,40.5218401052223],[19.580614112509945,40.52176259363406],[19.580690023927193,40.52181067091302],[19.580605726307038,40.521888182556154]]]},"properties":{"Zk_Numer":2955,"Zk_Emer":"PICAR","Nr_Pas":"","Vol":0,"Faqe":0,"Pronaret":"","Kufizimet":"","Siperfaqe":93.51}},
{"type":"Feature","geometry":{"type":"Polygon","coordinates":[[[19.585907080431625,40.519133130084676],[19.585907224479993,40.51910971900692],[19.585936058961092,40.51910982233147],[19.585935914922754,40.519133233409306],[19.585907080431625,40.519133130084676]]]},"properties":{"Zk_Numer":2955,"Zk_Emer":"PICAR","Nr_Pas":"","Vol":0,"Faqe":0,"Pronaret":"","Kufizimet":"","Siperfaqe":6.35}},
{"type":"Feature","geometry":{"type":"Polygon","coordinates":[[[19.584845911140814,40.51848407075103],[19.58494787168863,40.518478208364364],[19.584955430101317,40.5185548271978],[19.584826119829685,40.51856226091565],[19.58481856156352,40.51848564207457],[19.58480628165362,40.51848634759382],[19.584804277690843,40.51846603317252],[19.58484390716613,40.51846375633035],[19.584845911140814,40.51848407075103]]]},"properties":{"Zk_Numer":2955,"Zk_Emer":"PICAR","Nr_Pas":"","Vol":0,"Faqe":0,"Pronaret":"","Kufizimet":"","Siperfaqe":101.38}},
{"type":"Feature","geometry":{"type":"Polygon","coordinates":[[[19.583718648149052,40.51886301294829],[19.583425381597706,40.518907370765795],[19.583391049149515,40.51877532075187],[19.583684318639836,40.51873096248965],[19.583718648149052,40.51886301294829]]]},"properties":{"Zk_Numer":2955,"Zk_Emer":"PICAR","Nr_Pas":"","Vol":0,"Faqe":0,"Pronaret":"","Kufizimet":"","Siperfaqe":378.77}},
{"type":"Feature","geometry":{"type":"Polygon","coordinates":[[[19.58377086078636,40.51884572393941],[19.58377832140891,40.5188744215081],[19.583780266404474,40.518881903003525],[19.58372570665857,40.5188901638519],[19.583721112354546,40.5188724916383],[19.583718648149052,40.51886301294829],[19.583684318639836,40.51873096248965],[19.583738878261425,40.518722701659954],[19.58377086078636,40.51884572393941]]]},"properties":{"Zk_Numer":2955,"Zk_Emer":"PICAR","Nr_Pas":"","Vol":0,"Faqe":0,"Pronaret":"","Kufizimet":"","Siperfaqe":84.96}},
{"type":"Feature","geometry":{"type":"Polygon","coordinates":[[[19.58377832140891,40.5188744215081],[19.58377086078636,40.51884572393941],[19.583801957123118,40.51884101565496],[19.58380941775845,40.51886971322171],[19.58377832140891,40.5188744215081]]]},"properties":{"Zk_Numer":2955,"Zk_Emer":"PICAR","Nr_Pas":"","Vol":0,"Faqe":0,"Pronaret":"","Kufizimet":"","Siperfaqe":8.73}},
{"type":"Feature","geometry":{"type":"Polygon","coordinates":[[[19.58096121469868,40.52163164659052],[19.580912602412607,40.52166273508176],[19.580876791090386,40.52163012485109],[19.580846782159337,40.52164931610822],[19.580739182886216,40.5215513345895],[19.580776259114003,40.521527623688236],[19.58081388427042,40.52156188574895],[19.580833600082894,40.52154927712326],[19.58087006715879,40.52157713036299],[19.580914065952243,40.52161420374811],[19.580928595565563,40.521604161749835],[19.58096121469868,40.52163164659052]]]},"properties":{"Zk_Numer":2955,"Zk_Emer":"PICAR","Nr_Pas":"","Vol":0,"Faqe":0,"Pronaret":"","Kufizimet":"","Siperfaqe":105.37}},
{"type":"Feature","geometry":{"type":"Polygon","coordinates":[[[19.581068436213677,40.521567464196224],[19.581046450992112,40.521545363948555],[19.581075003096664,40.52152882302075],[19.581096988322297,40.52155092326309],[19.581068436213677,40.521567464196224]]]},"properties":{"Zk_Numer":2955,"Zk_Emer":"PICAR","Nr_Pas":"","Vol":0,"Faqe":0,"Pronaret":"","Kufizimet":"","Siperfaqe":9.36}},
{"type":"Feature","geometry":{"type":"Polygon","coordinates":[[[19.580958198185026,40.52151758320611],[19.58087006715879,40.52157713036299],[19.580833600082894,40.52154927712326],[19.58080765972658,40.521525655437095],[19.580866651695903,40.52148792894498],[19.580884253161248,40.52150395709879],[19.580943483892938,40.52146607783407],[19.580982780796962,40.521501862108266],[19.580958198185026,40.52151758320611]]]},"properties":{"Zk_Numer":2955,"Zk_Emer":"PICAR","Nr_Pas":"","Vol":0,"Faqe":0,"Pronaret":"","Kufizimet":"","Siperfaqe":83.54}},
{"type":"Feature","geometry":{"type":"Polygon","coordinates":[[[19.578212023563434,40.521855973184046],[19.578267555987033,40.521843829099375],[19.57829962202779,40.521929219720775],[19.57824408953924,40.52194136382035],[19.578212023563434,40.521855973184046]]]},"properties":{"Zk_Numer":2955,"Zk_Emer":"PICAR","Nr_Pas":"","Vol":0,"Faqe":0,"Pronaret":"","Kufizimet":"","Siperfaqe":48.29}},
{"type":"Feature","geometry":{"type":"Polygon","coordinates":[[[19.578212023563434,40.521855973184046],[19.578203121256617,40.52183226659478],[19.57814403998045,40.52167493440262],[19.578199572266357,40.521662790349524],[19.578267555987033,40.521843829099375],[19.578212023563434,40.521855973184046]]]},"properties":{"Zk_Numer":2955,"Zk_Emer":"PICAR","Nr_Pas":"","Vol":0,"Faqe":0,"Pronaret":"","Kufizimet":"","Siperfaqe":102.38}},
{"type":"Feature","geometry":{"type":"Polygon","coordinates":[[[19.583215486473176,40.5217155021738],[19.58320135408258,40.52169574033299],[19.583226214336214,40.52168538700724],[19.583240346731984,40.52170514884505],[19.583215486473176,40.5217155021738]]]},"properties":{"Zk_Numer":2955,"Zk_Emer":"PICAR","Nr_Pas":"","Vol":0,"Faqe":0,"Pronaret":"","Kufizimet":"","Siperfaqe":6}},
{"type":"Feature","geometry":{"type":"Polygon","coordinates":[[[19.581274553313794,40.52203287949867],[19.581175006923164,40.52200733088106],[19.58118967764638,40.52197404263153],[19.58117178168194,40.52196944961486],[19.5811943520088,40.521918236922595],[19.581311794241532,40.52194837852111],[19.581274553313794,40.52203287949867]]]},"properties":{"Zk_Numer":2955,"Zk_Emer":"PICAR","Nr_Pas":"","Vol":0,"Faqe":0,"Pronaret":"","Kufizimet":"","Siperfaqe":97.71}},
{"type":"Feature","geometry":{"type":"Polygon","coordinates":[[[19.581248815161416,40.52207670412327],[19.58126266772477,40.522043212366235],[19.581312182559444,40.52205513873871],[19.58129833001818,40.52208863050174],[19.581248815161416,40.52207670412327]]]},"properties":{"Zk_Numer":2955,"Zk_Emer":"PICAR","Nr_Pas":"","Vol":0,"Faqe":0,"Pronaret":"","Kufizimet":"","Siperfaqe":17.16}},
{"type":"Feature","geometry":{"type":"Polygon","coordinates":[[[19.57912436964292,40.52267705208817],[19.579063698555153,40.52263836410531],[19.579173417581423,40.5225381654631],[19.57921145017897,40.52256241759939],[19.579135025248096,40.52263221117268],[19.579157663718874,40.522646646977],[19.57912436964292,40.52267705208817]]]},"properties":{"Zk_Numer":2955,"Zk_Emer":"PICAR","Nr_Pas":"","Vol":0,"Faqe":0,"Pronaret":"","Kufizimet":"","Siperfaqe":71.9}},
{"type":"Feature","geometry":{"type":"Polygon","coordinates":[[[19.577529377667414,40.52086989195498],[19.57742816141617,40.520894436942605],[19.57739099471382,40.52080518051001],[19.577492210843815,40.520780635553955],[19.577529377667414,40.52086989195498]]]},"properties":{"Zk_Numer":2955,"Zk_Emer":"PICAR","Nr_Pas":"","Vol":0,"Faqe":0,"Pronaret":"","Kufizimet":"","Siperfaqe":93.6}},
{"type":"Feature","geometry":{"type":"Polygon","coordinates":[[[19.57873346775466,40.52180598071015],[19.57873133371416,40.52182102935797],[19.578679712568004,40.52181676632647],[19.578690758275435,40.52173887547813],[19.57874237936265,40.52174313850444],[19.57873346775466,40.52180598071015]]]},"properties":{"Zk_Numer":2955,"Zk_Emer":"PICAR","Nr_Pas":"","Vol":0,"Faqe":0,"Pronaret":"","Kufizimet":"","Siperfaqe":38.28}},
{"type":"Feature","geometry":{"type":"Polygon","coordinates":[[[19.597128800650324,40.514773702784616],[19.59707182723789,40.514762011861194],[19.59711625027229,40.51463591377896],[19.597173223586058,40.51464760468028],[19.597128800650324,40.514773702784616]]]},"properties":{"Zk_Numer":2955,"Zk_Emer":"PICAR","Nr_Pas":"","Vol":0,"Faqe":0,"Pronaret":"","Kufizimet":"","Siperfaqe":72.5}},
{"type":"Feature","geometry":{"type":"Polygon","coordinates":[[[19.58035989989286,40.522130397495395],[19.580311702211695,40.52217674449215],[19.580320111148694,40.52218183693023],[19.580290410171653,40.522210397416586],[19.58025408376272,40.52218841052677],[19.58028439738696,40.52215941191856],[19.580269343645146,40.522150283048255],[19.580317025036294,40.522104432544324],[19.58035989989286,40.522130397495395]]]},"properties":{"Zk_Numer":2955,"Zk_Emer":"PICAR","Nr_Pas":"","Vol":0,"Faqe":0,"Pronaret":"","Kufizimet":"","Siperfaqe":46.25}},
{"type":"Feature","geometry":{"type":"Polygon","coordinates":[[[19.57957387367631,40.52248861211908],[19.579481509984,40.52244710666217],[19.5794853273367,40.52244215856792],[19.579466468064663,40.522433685793324],[19.579462650711065,40.52243863388696],[19.579347035300543,40.522386692036726],[19.57941860860701,40.52229391802984],[19.579526391072786,40.522342340802226],[19.579519079550337,40.52235181810124],[19.579541838999088,40.52236204307902],[19.579549150519476,40.522352565778576],[19.57964544678085,40.52239583797231],[19.57957387367631,40.52248861211908]]]},"properties":{"Zk_Numer":2955,"Zk_Emer":"PICAR","Nr_Pas":"","Vol":0,"Faqe":0,"Pronaret":"","Kufizimet":"","Siperfaqe":262.76}},
{"type":"Feature","geometry":{"type":"Polygon","coordinates":[[[19.580309571045206,40.52209991841446],[19.580357481278504,40.52205378288186],[19.580400865797582,40.52208015172024],[19.58039571949243,40.522085082556934],[19.58043541128345,40.522109206947164],[19.580394976010275,40.52214794924093],[19.580362305679248,40.52212809243948],[19.58035989989286,40.522130397495395],[19.580317025036294,40.522104432544324],[19.580309571045206,40.52209991841446]]]},"properties":{"Zk_Numer":2955,"Zk_Emer":"PICAR","Nr_Pas":"","Vol":0,"Faqe":0,"Pronaret":"","Kufizimet":"","Siperfaqe":54.55}},
{"type":"Feature","geometry":{"type":"Polygon","coordinates":[[[19.577804416190727,40.52198168986191],[19.577793032490494,40.521896440168064],[19.577956859967006,40.52188370031837],[19.57796824387291,40.5219689499973],[19.577804416190727,40.52198168986191]]]},"properties":{"Zk_Numer":2955,"Zk_Emer":"PICAR","Nr_Pas":"","Vol":0,"Faqe":0,"Pronaret":"","Kufizimet":"","Siperfaqe":132.79}},
{"type":"Feature","geometry":{"type":"Polygon","coordinates":[[[19.595541049071354,40.51864290680706],[19.595422425470627,40.51862782641471],[19.595431680847398,40.51858542531582],[19.59548930906041,40.518592751496534],[19.595502514255287,40.518532255001325],[19.595563509517305,40.518540009196094],[19.595541049071354,40.51864290680706]]]},"properties":{"Zk_Numer":2955,"Zk_Emer":"PICAR","Nr_Pas":"","Vol":0,"Faqe":0,"Pronaret":"","Kufizimet":"","Siperfaqe":84.34}},
{"type":"Feature","geometry":{"type":"Polygon","coordinates":[[[19.581006289830107,40.52238583378717],[19.581052258875836,40.52236817425037],[19.581114010380723,40.52246178160671],[19.5809947350153,40.52250760256505],[19.580955331800247,40.522447872221115],[19.58098285271582,40.52243729977393],[19.580971017309686,40.52241935876692],[19.581016802607458,40.52240176984563],[19.581006289830107,40.52238583378717]]]},"properties":{"Zk_Numer":2955,"Zk_Emer":"PICAR","Nr_Pas":"","Vol":0,"Faqe":0,"Pronaret":"","Kufizimet":"","Siperfaqe":112.09}},
{"type":"Feature","geometry":{"type":"Polygon","coordinates":[[[19.57923984712066,40.523194988244974],[19.579403656110514,40.52328669338352],[19.579355015668064,40.52333728838099],[19.579191206622514,40.52324558317401],[19.57921215538023,40.52322379268319],[19.57923984712066,40.523194988244974]]]},"properties":{"Zk_Numer":2955,"Zk_Emer":"PICAR","Nr_Pas":"","Vol":0,"Faqe":0,"Pronaret":"","Kufizimet":"","Siperfaqe":119.96}},
{"type":"Feature","geometry":{"type":"Polygon","coordinates":[[[19.579235883161118,40.523106196260166],[19.579345191001522,40.523167390176084],[19.579296328426892,40.52321821625336],[19.57918745352002,40.52315726468259],[19.579235883161118,40.523106196260166]]]},"properties":{"Zk_Numer":2955,"Zk_Emer":"PICAR","Nr_Pas":"","Vol":0,"Faqe":0,"Pronaret":"","Kufizimet":"","Siperfaqe":80.26}},
{"type":"Feature","geometry":{"type":"Polygon","coordinates":[[[19.57901867125248,40.52203641111091],[19.579064667765874,40.52204165127924],[19.579076727077485,40.521980008113395],[19.579241504811247,40.52199878031456],[19.579236250043934,40.522023015886816],[19.579224163408508,40.52208479944638],[19.579115100653667,40.52207225287609],[19.57910646125839,40.522116414653475],[19.57905571690475,40.52211063360975],[19.579061678746164,40.522080158740174],[19.579011237035004,40.522074412152016],[19.57901867125248,40.52203641111091]]]},"properties":{"Zk_Numer":2955,"Zk_Emer":"PICAR","Nr_Pas":"","Vol":0,"Faqe":0,"Pronaret":"","Kufizimet":"","Siperfaqe":174.92}},
{"type":"Feature","geometry":{"type":"Polygon","coordinates":[[[19.579797015514448,40.521991647503135],[19.579786268079342,40.52205282050995],[19.579727174994876,40.52204677455942],[19.579723947747826,40.52206514351679],[19.579694582508004,40.5220621390793],[19.57968420793203,40.522121189235754],[19.579440218790065,40.522096225743724],[19.579446999255325,40.52205763340462],[19.57952907854727,40.52206603132016],[19.579537213024945,40.5220197319738],[19.579546129414076,40.52202064424754],[19.579550302129814,40.521996894183474],[19.579625794032015,40.52200461805266],[19.57962218483355,40.522025160848074],[19.579644252672065,40.522027418684594],[19.579653123873555,40.52197692556177],[19.579797015514448,40.521991647503135]]]},"properties":{"Zk_Numer":2955,"Zk_Emer":"PICAR","Nr_Pas":"","Vol":0,"Faqe":0,"Pronaret":"","Kufizimet":"","Siperfaqe":265.38}},
{"type":"Feature","geometry":{"type":"Polygon","coordinates":[[[19.579470246105583,40.5220021236801],[19.579474184775588,40.521965482162244],[19.579541167750406,40.52196968341328],[19.579537230001748,40.5220063166989],[19.579470246105583,40.5220021236801]]]},"properties":{"Zk_Numer":2955,"Zk_Emer":"PICAR","Nr_Pas":"","Vol":0,"Faqe":0,"Pronaret":"","Kufizimet":"","Siperfaqe":23.25}},
{"type":"Feature","geometry":{"type":"Polygon","coordinates":[[[19.5782481181886,40.52201453070435],[19.578284463296853,40.522044545050456],[19.578252433339117,40.52206784507641],[19.578241431942853,40.52205905230953],[19.57820340919841,40.522086937700095],[19.578165676678474,40.52205697616598],[19.578174211637908,40.522050757399256],[19.578151552036264,40.522007695868844],[19.578197593321367,40.521974149099336],[19.578248118188586,40.52201453070432],[19.5782481181886,40.52201453070435]]]},"properties":{"Zk_Numer":2955,"Zk_Emer":"PICAR","Nr_Pas":"","Vol":0,"Faqe":0,"Pronaret":"","Kufizimet":"","Siperfaqe":73.6}},
{"type":"Feature","geometry":{"type":"Polygon","coordinates":[[[19.578197593321367,40.521974149099336],[19.578238519896793,40.52194430227477],[19.57828908591716,40.52198468058835],[19.5782481181886,40.52201453070435],[19.578248118188586,40.52201453070432],[19.578197593321367,40.521974149099336]]]},"properties":{"Zk_Numer":2955,"Zk_Emer":"PICAR","Nr_Pas":"","Vol":0,"Faqe":0,"Pronaret":"","Kufizimet":"","Siperfaqe":29.76}},
{"type":"Feature","geometry":{"type":"Polygon","coordinates":[[[19.578165676678474,40.52205697616598],[19.578046404309266,40.522085650025396],[19.57802828515251,40.52203697035082],[19.578151552036264,40.522007695868844],[19.578174211637908,40.522050757399256],[19.578165676678474,40.52205697616598]]]},"properties":{"Zk_Numer":2955,"Zk_Emer":"PICAR","Nr_Pas":"","Vol":0,"Faqe":0,"Pronaret":"","Kufizimet":"","Siperfaqe":62.68}},
{"type":"Feature","geometry":{"type":"Polygon","coordinates":[[[19.579960318057097,40.52206118598786],[19.580045010607297,40.522067394931426],[19.580128413589726,40.52207350927301],[19.58012130429737,40.52212998231397],[19.580117775354356,40.522158014623244],[19.58003431876914,40.52215232524203],[19.579989653228438,40.522149280288964],[19.579993264356297,40.522120595574364],[19.579953320101062,40.522117716013774],[19.579960318057097,40.52206118598786]]]},"properties":{"Zk_Numer":2955,"Zk_Emer":"PICAR","Nr_Pas":"","Vol":0,"Faqe":0,"Pronaret":"","Kufizimet":"","Siperfaqe":124.62}},
{"type":"Feature","geometry":{"type":"Polygon","coordinates":[[[19.578086847179126,40.52193607742903],[19.57806371237022,40.52188306910837],[19.578118939143582,40.5218690327228],[19.57814222198135,40.52192238011827],[19.578086847179126,40.52193607742903]]]},"properties":{"Zk_Numer":2955,"Zk_Emer":"PICAR","Nr_Pas":"","Vol":0,"Faqe":0,"Pronaret":"","Kufizimet":"","Siperfaqe":30.7}},
{"type":"Feature","geometry":{"type":"Polygon","coordinates":[[[19.57857459063259,40.52178571494871],[19.5785697710199,40.521713766948956],[19.578623982797804,40.52171165212085],[19.578628802468337,40.52178360011866],[19.57857459063259,40.52178571494871]]]},"properties":{"Zk_Numer":2955,"Zk_Emer":"PICAR","Nr_Pas":"","Vol":0,"Faqe":0,"Pronaret":"","Kufizimet":"","Siperfaqe":36.8}}
]}