{"type":"FeatureCollection", "features": [
{"type":"Feature","geometry":{"type":"Polygon","coordinates":[[[19.576195777078677,40.50999347383223],[19.576319566725747,40.510043077139144],[19.576270482029525,40.51011443771659],[19.57614669228831,40.51006483435722],[19.576195777078677,40.50999347383223]]]},"properties":{"Zk_Numer":2504,"Zk_Emer":"LUBONJE","Nr_Pas":"134/2-ND1","Vol":2,"Faqe":11,"Pronaret":"SULO DASHAJ REXHEP, DRITORE DASHAJ CENO","Kufizimet":"SULO DASHAJ REXHEP, DRITORE DASHAJ CENO MUNGON MARREDHENIA ME TRUALLIN","Siperfaqe":106}},
{"type":"Feature","geometry":{"type":"Polygon","coordinates":[[[19.576468027868653,40.51019759906945],[19.576527943566447,40.51011845823526],[19.576620906052458,40.510159458217146],[19.576560990426632,40.510238599099324],[19.576468027868653,40.51019759906945]]]},"properties":{"Zk_Numer":2504,"Zk_Emer":"LUBONJE","Nr_Pas":"134/2-ND2","Vol":2,"Faqe":13,"Pronaret":"BESNIK DESHAJ SULO","Kufizimet":"BESNIK DESHAJ SULO MUNGON MARREDHENIA ME TRUALLIN","Siperfaqe":92}},
{"type":"Feature","geometry":{"type":"Polygon","coordinates":[[[19.575595998352366,40.51041358660428],[19.575610134491352,40.510286619797874],[19.5756536323627,40.51028944104732],[19.57564943650685,40.51032712731005],[19.57574113478544,40.5103330747588],[19.575731194704257,40.51042235531653],[19.575595998352366,40.51041358660428]]]},"properties":{"Zk_Numer":2504,"Zk_Emer":"LUBONJE","Nr_Pas":"134/3-ND","Vol":2,"Faqe":14,"Pronaret":"REIS NUSHAJ GJYSHI","Kufizimet":"REIS NUSHAJ GJYSHI MUNGON MARREDHENIA ME TRUALLIN","Siperfaqe":130}},
{"type":"Feature","geometry":{"type":"Polygon","coordinates":[[[19.573792441778085,40.509936826795524],[19.573917192279552,40.50993007248304],[19.57392078214757,40.50996869803304],[19.573843107265457,40.509972903566364],[19.573847364968348,40.51001871526732],[19.57380028924581,40.51002126405151],[19.573792441778085,40.509936826795524]]]},"properties":{"Zk_Numer":2504,"Zk_Emer":"LUBONJE","Nr_Pas":"131/5-ND","Vol":2,"Faqe":10,"Pronaret":"HAXHI SULAJ ISMET, MENEKSHE SULAJ ÇUMAN","Kufizimet":"HAXHI SULAJ ISMET, MENEKSHE SULAJ ÇUMAN MUNGON MARREDHENIA ME TRUALLIN","Siperfaqe":66}},
{"type":"Feature","geometry":{"type":"Polygon","coordinates":[[[19.575734705175083,40.50957706535468],[19.57584263725297,40.50958586111378],[19.57582240778668,40.50973047412207],[19.575714475479916,40.50972167834316],[19.57571979909259,40.5096836222943],[19.575696922152765,40.50968175795977],[19.575701181048654,40.50965131312118],[19.57568065047191,40.509649639997384],[19.575686224621055,40.509609793076834],[19.57572963210205,40.50961333053207],[19.575734705175083,40.50957706535468]]]},"properties":{"Zk_Numer":2504,"Zk_Emer":"LUBONJE","Nr_Pas":"134/13-ND","Vol":2,"Faqe":20,"Pronaret":"HEKURAN DASHAJ REXHEP","Kufizimet":"HEKURAN DASHAJ REXHEP MUNGON MARREDHENIA ME TRUALLIN","Siperfaqe":172}},
{"type":"Feature","geometry":{"type":"Polygon","coordinates":[[[19.57068848992693,40.508930428057205],[19.57070865980351,40.50905283578824],[19.570564674583583,40.5090666574826],[19.570548332770414,40.508967480397224],[19.570636128515563,40.50895905256782],[19.57063230068038,40.508935821901346],[19.57068848992693,40.508930428057205]]]},"properties":{"Zk_Numer":2504,"Zk_Emer":"LUBONJE","Nr_Pas":"120/15-ND","Vol":2,"Faqe":132,"Pronaret":"HEKTOR OSMENAJ HYSEN","Kufizimet":"HEKTOR OSMENAJ HYSEN MUNGON MARREDHENIA ME TRUALLIN","Siperfaqe":149}},
{"type":"Feature","geometry":{"type":"Polygon","coordinates":[[[19.58877853107402,40.505612806052675],[19.58875549078781,40.505574308081826],[19.588818803894366,40.505552231065685],[19.588823706086863,40.50556042212108],[19.588871459169965,40.50554377078719],[19.588921461648447,40.50562731951986],[19.588873708518108,40.505643970873955],[19.58887910094453,40.50565298103225],[19.588830274680646,40.50567000655572],[19.5888140974213,40.50564297607338],[19.588787806354368,40.50565214365073],[19.58876672692556,40.50561692210496],[19.58877853107402,40.505612806052675]]]},"properties":{"Zk_Numer":2504,"Zk_Emer":"LUBONJE","Nr_Pas":"197/3-ND","Vol":2,"Faqe":80,"Pronaret":"KACANDON SULAJ CELO","Kufizimet":"KACANDON SULAJ CELO MUNGON MARREDHENIA ME TRUALLIN","Siperfaqe":118}},
{"type":"Feature","geometry":{"type":"Polygon","coordinates":[[[19.582581667375095,40.5098804412273],[19.582658760784945,40.50982340548658],[19.58275730181891,40.50990099928848],[19.582680208402568,40.50995803509416],[19.582581667375095,40.5098804412273]]]},"properties":{"Zk_Numer":2504,"Zk_Emer":"LUBONJE","Nr_Pas":"162/1-ND","Vol":5,"Faqe":47,"Pronaret":"KLEMEND TUSHAJ AZEM","Kufizimet":"KLEMEND TUSHAJ AZEM MUNGON MARREDHENIA ME TRUALLIN","Siperfaqe":109}},
{"type":"Feature","geometry":{"type":"Polygon","coordinates":[[[19.573711073710992,40.509330957518436],[19.57371200002681,40.509339934893646],[19.573694363222426,40.509340995066054],[19.573599085162115,40.5093467223128],[19.5735914431143,40.509272658252534],[19.57369829439371,40.509266235323516],[19.573705176118306,40.509331312897196],[19.573711073710992,40.509330957518436]]]},"properties":{"Zk_Numer":2504,"Zk_Emer":"LUBONJE","Nr_Pas":"174/80-ND","Vol":3,"Faqe":199,"Pronaret":"LEFTER ISLAMAJ SHASKE","Kufizimet":"LEFTER ISLAMAJ SHASKE MUNGON MARREDHENIA ME TRUALLIN","Siperfaqe":76}},
{"type":"Feature","geometry":{"type":"Polygon","coordinates":[[[19.57634076648106,40.50947364960941],[19.576336044768567,40.50947634879614],[19.57626991434636,40.50940895590686],[19.576377569248823,40.50934741446143],[19.576443699719416,40.50941480729006],[19.576407342586933,40.509435591055706],[19.576422449035718,40.50945098585428],[19.576404978715544,40.509460972856644],[19.576418163408977,40.50947440921386],[19.576387944461857,40.509491684025846],[19.576376981644323,40.509480511950116],[19.576358094795925,40.50949130870177],[19.57634076648106,40.50947364960941]]]},"properties":{"Zk_Numer":2504,"Zk_Emer":"LUBONJE","Nr_Pas":"169/15-ND","Vol":1,"Faqe":177,"Pronaret":"NAIM KOÇIRAJ NURI","Kufizimet":"NAIM KOÇIRAJ NURI MUNGON MARREDHENIA ME TRUALLIN","Siperfaqe":128}},
{"type":"Feature","geometry":{"type":"Polygon","coordinates":[[[19.579379112311916,40.506843940676475],[19.579281303143997,40.506840337794834],[19.579282497423723,40.506821448717886],[19.579250679994868,40.506820276678695],[19.579254717822533,40.50675641360966],[19.57938434426936,40.50676118852426],[19.579379112311916,40.506843940676475]]]},"properties":{"Zk_Numer":2504,"Zk_Emer":"LUBONJE","Nr_Pas":"192/30-ND","Vol":2,"Faqe":83,"Pronaret":"PERPARIM ÇUNAJ DALIP","Kufizimet":"PERPARIM ÇUNAJ DALIP MUNGON MARREDHENIA ME TRUALLIN","Siperfaqe":96}},
{"type":"Feature","geometry":{"type":"Polygon","coordinates":[[[19.571752250728572,40.509026519523815],[19.571887777889707,40.509021593158664],[19.571892941439092,40.50910434774151],[19.571757414111637,40.509109274111815],[19.571752250728572,40.509026519523815]]]},"properties":{"Zk_Numer":2504,"Zk_Emer":"LUBONJE","Nr_Pas":"176/9-ND","Vol":2,"Faqe":134,"Pronaret":"YLLI ZANAJ METO","Kufizimet":"YLLI ZANAJ METO MUNGON MARREDHENIA ME TRUALLIN","Siperfaqe":106}},
{"type":"Feature","geometry":{"type":"Polygon","coordinates":[[[19.58908354090558,40.50557891663796],[19.589054936100325,40.50551026282216],[19.589147127361063,40.50548788273302],[19.589153742236768,40.50550375892349],[19.589194216438234,40.5054939334929],[19.589206731092705,40.50552396952353],[19.589166256874936,40.505533794958374],[19.589175732251196,40.50555653652667],[19.58908354090558,40.50557891663796]]]},"properties":{"Zk_Numer":2504,"Zk_Emer":"LUBONJE","Nr_Pas":"197/2-ND","Vol":2,"Faqe":81,"Pronaret":"OSMEN SULAJ ISMET","Kufizimet":"OSMEN SULAJ ISMET MUNGON MARREDHENIA E TRUALLIT","Siperfaqe":78}},
{"type":"Feature","geometry":{"type":"Polygon","coordinates":[[[19.57662260940513,40.5090169935228],[19.576701801539954,40.508947233526435],[19.576703139052235,40.50894811808224],[19.576729407626413,40.50892497816834],[19.576749916150806,40.5089385413507],[19.5767236475783,40.50896168126923],[19.576761989627496,40.5089870385221],[19.576682797507505,40.509056798559314],[19.57662260940513,40.5090169935228]]]},"properties":{"Zk_Numer":2504,"Zk_Emer":"LUBONJE","Nr_Pas":"169/21-ND","Vol":1,"Faqe":179,"Pronaret":"BARDHOSH BEGAJ REXHEP","Kufizimet":"BARDHOSH BEGAJ REXHEP MUNGON MARREDHENIA ME TRUALLIN","Siperfaqe":77}},
{"type":"Feature","geometry":{"type":"Polygon","coordinates":[[[19.575055112292866,40.511326788578934],[19.575037453287635,40.51132768593035],[19.57503392615169,40.5112872517908],[19.575079250903755,40.51128494858462],[19.575078388708953,40.51127506468409],[19.575144904239128,40.51127168462248],[19.575152742471037,40.51136153825886],[19.575148033400897,40.511361777556814],[19.57515097274064,40.51139547267009],[19.57506620943045,40.51139978000212],[19.57506327013298,40.51136608488692],[19.57505856106224,40.511366324181225],[19.575055112292866,40.511326788578934]]]},"properties":{"Zk_Numer":2504,"Zk_Emer":"LUBONJE","Nr_Pas":"130/8-ND","Vol":2,"Faqe":15,"Pronaret":"AGRON NANAJ BILO","Kufizimet":"AGRON NANAJ BILO MUNGON MARREDHENIA ME TRUALLIN","Siperfaqe":111}},
{"type":"Feature","geometry":{"type":"Polygon","coordinates":[[[19.573324928227063,40.5092351122064],[19.57319280985143,40.50924483949778],[19.5731838605657,40.50917402663352],[19.57321322017728,40.50917186502839],[19.573203987673754,40.50909881125133],[19.573277386615732,40.5090934072112],[19.573281804658947,40.509128365457954],[19.573311164247674,40.50912620382778],[19.573324928227063,40.5092351122064]]]},"properties":{"Zk_Numer":2504,"Zk_Emer":"LUBONJE","Nr_Pas":"175/44-ND","Vol":3,"Faqe":197,"Pronaret":"VULLNET SADIKU SULO","Kufizimet":"VULLNET SADIKU SULO MUNGON MARREDHENIA ME TRUALLIN","Siperfaqe":150}},
{"type":"Feature","geometry":{"type":"Polygon","coordinates":[[[19.572047745546783,40.509220878394686],[19.572044768652187,40.50918095567422],[19.572169629146167,40.50917553163263],[19.57217556238117,40.50925509939991],[19.57210554688348,40.50925814094644],[19.572103512710918,40.509219182084216],[19.572047745546783,40.509220878394686]]]},"properties":{"Zk_Numer":2504,"Zk_Emer":"LUBONJE","Nr_Pas":"176/8-ND","Vol":2,"Faqe":133,"Pronaret":"BACI ZANAJ GANI","Kufizimet":"BACI ZANAJ GANI MUNGON MARREDHENIA ME TRUALLIN","Siperfaqe":73}},
{"type":"Feature","geometry":{"type":"Polygon","coordinates":[[[19.57569519477542,40.509780219064595],[19.575800156609972,40.50979249108789],[19.575780505160903,40.509890406799656],[19.575759512761113,40.50988795239894],[19.575753527980968,40.50991777218171],[19.575693466375384,40.5099107498443],[19.575699451181457,40.50988093006474],[19.575675543177578,40.509878134757976],[19.57569519477542,40.509780219064595]]]},"properties":{"Zk_Numer":2504,"Zk_Emer":"LUBONJE","Nr_Pas":"134/12-ND1","Vol":2,"Faqe":17,"Pronaret":"YLSI DASHAJ REXHEP","Kufizimet":"YLSI DASHAJ REXHEP MUNGON MARREDHENIA ME TRUALLIN","Siperfaqe":116}},
{"type":"Feature","geometry":{"type":"Polygon","coordinates":[[[19.575845061382807,40.50975931859007],[19.575915651546765,40.509763383288686],[19.57591192373972,40.50980109820718],[19.57584133353648,40.50979703350611],[19.575845061382807,40.50975931859007]]]},"properties":{"Zk_Numer":2504,"Zk_Emer":"LUBONJE","Nr_Pas":"134/12-ND2","Vol":2,"Faqe":18,"Pronaret":"YLSI DASHAJ REXHEP","Kufizimet":"YLSI DASHAJ REXHEP MUNGON MARREDHENIA ME TRUALLIN","Siperfaqe":25}},
{"type":"Feature","geometry":{"type":"Polygon","coordinates":[[[19.575340389448634,40.51100037375026],[19.57538639509755,40.510935413399984],[19.575458012833018,40.51096496009582],[19.575437621024104,40.51099375355661],[19.575412007232508,40.51102992047453],[19.575340389448634,40.51100037375026]]]},"properties":{"Zk_Numer":2504,"Zk_Emer":"LUBONJE","Nr_Pas":"132/1-ND","Vol":2,"Faqe":22,"Pronaret":"GJOLEK MALAJ MALO","Kufizimet":"GJOLEK MALAJ MALO MUNGON MARREDHENIA ME TRUALLIN","Siperfaqe":57}},
{"type":"Feature","geometry":{"type":"Polygon","coordinates":[[[19.57991331697477,40.50721438674983],[19.579847783642517,40.50729460748283],[19.579727648373577,40.507237430441876],[19.579786566861635,40.50716530724545],[19.57982355293403,40.507185395591485],[19.579835783656396,40.507172275949316],[19.57991331697477,40.50721438674983]]]},"properties":{"Zk_Numer":2504,"Zk_Emer":"LUBONJE","Nr_Pas":"141/1-ND","Vol":2,"Faqe":88,"Pronaret":"JORGJI KARAJANI FILIP","Kufizimet":"JORGJI KARAJANI FILIP MUNGON MARREDHENIA ME TRUALLIN","Siperfaqe":123}},
{"type":"Feature","geometry":{"type":"Polygon","coordinates":[[[19.57110699878134,40.50787769039057],[19.571092974398777,40.5078376731788],[19.5710462450814,40.507847214149734],[19.571030086603926,40.507801107353586],[19.57107681589148,40.50779156638895],[19.571062791544385,40.5077515491731],[19.57117220634975,40.50772920929206],[19.5712023893346,40.50781533327018],[19.571154520309012,40.507825106993],[19.571168544725662,40.507865124197565],[19.57110699878134,40.50787769039057]]]},"properties":{"Zk_Numer":2504,"Zk_Emer":"LUBONJE","Nr_Pas":"179/3-ND","Vol":5,"Faqe":41,"Pronaret":"RENADA SADIKAJ BARDHYL","Kufizimet":"RENADA SADIKAJ BARDHYL MUNGON MARREDHENIA ME TRUALLIN","Siperfaqe":142}},
{"type":"Feature","geometry":{"type":"Polygon","coordinates":[[[19.577044896017533,40.509746137224646],[19.577201956142556,40.509732324271596],[19.577207628498876,40.50976989775515],[19.57717715413435,40.50977257789849],[19.577183096591867,40.50981194059647],[19.5771010501667,40.50981915633089],[19.577095107756595,40.50977979362898],[19.577050568287227,40.509783710715375],[19.577044896017533,40.509746137224646]]]},"properties":{"Zk_Numer":2504,"Zk_Emer":"LUBONJE","Nr_Pas":"135/7-ND","Vol":5,"Faqe":37,"Pronaret":"ISMAIL KEQAJ YZEIR","Kufizimet":"ISMAIL KEQAJ YZEIR MUNGON MARREDHENIA ME TRUALLIN","Siperfaqe":87}},
{"type":"Feature","geometry":{"type":"Polygon","coordinates":[[[19.572392397402922,40.509036876227505],[19.57238676965647,40.50897016904127],[19.572444195351707,40.50896734661793],[19.572450337985007,40.50903399161091],[19.572392397402922,40.509036876227505]]]},"properties":{"Zk_Numer":2504,"Zk_Emer":"LUBONJE","Nr_Pas":"175/4-ND","Vol":5,"Faqe":38,"Pronaret":"DONIKA SHENAJ BILBIL","Kufizimet":"DONIKA SHENAJ BILBIL MUNGON MARREDHENIA ME TRUALLIN","Siperfaqe":36}},
{"type":"Feature","geometry":{"type":"Polygon","coordinates":[[[19.580049106919112,40.50728183351149],[19.58006591998631,40.50729018059112],[19.58006945801359,40.50728602868204],[19.580186160591154,40.507343967164054],[19.580155604921934,40.50737982458758],[19.580158077437098,40.50738105209718],[19.580139744020347,40.507402566547626],[19.580091282730805,40.507378507342366],[19.58010800796161,40.50735888013152],[19.580037294113158,40.50732377330586],[19.5800479082043,40.50731131758103],[19.5800310951341,40.50730297049879],[19.580049106919112,40.50728183351149]]]},"properties":{"Zk_Numer":2504,"Zk_Emer":"LUBONJE","Nr_Pas":"141/2-ND","Vol":5,"Faqe":39,"Pronaret":"EDMOND DELAJ QENDRO","Kufizimet":"EDMOND DELAJ QENDRO MUNGON MARREDHENIA ME TRUALLIN","Siperfaqe":77}},
{"type":"Feature","geometry":{"type":"Polygon","coordinates":[[[19.572800158552205,40.50798395978422],[19.572792276919593,40.50787426043255],[19.572828796238856,40.50787273180294],[19.572827181141015,40.50785025242774],[19.572895507582373,40.50784739238082],[19.57290500450603,40.507979571100655],[19.572800158552205,40.50798395978422]]]},"properties":{"Zk_Numer":2504,"Zk_Emer":"LUBONJE","Nr_Pas":"189/1-ND","Vol":5,"Faqe":40,"Pronaret":"PANAJOT OSMENAJ HAMET, LICO OSMENAJ HAMET","Kufizimet":"PANAJOT OSMENAJ HAMET, LICO OSMENAJ HAMET MUNGON MARREDHENIA ME TRUALLIN","Siperfaqe":123}},
{"type":"Feature","geometry":{"type":"Polygon","coordinates":[[[19.585068420331638,40.50702953523688],[19.585137817947835,40.50695782579632],[19.585217531400577,40.5070027703573],[19.585148133822145,40.50707447984534],[19.585068420331638,40.50702953523688]]]},"properties":{"Zk_Numer":2504,"Zk_Emer":"LUBONJE","Nr_Pas":"194/8-ND","Vol":5,"Faqe":42,"Pronaret":"SOKRAT SULAJ KAÇANDON","Kufizimet":"SOKRAT SULAJ KAÇANDON MUNGON MARREDHENIA ME TRUALLIN","Siperfaqe":83}},
{"type":"Feature","geometry":{"type":"Polygon","coordinates":[[[19.57317246750063,40.509731681701396],[19.573122053677757,40.509581646926904],[19.57325805345808,40.50955502493151],[19.57329263985646,40.50965795572859],[19.57327206843845,40.50966198260128],[19.573287896133635,40.50970908652421],[19.57317246750063,40.509731681701396]]]},"properties":{"Zk_Numer":2504,"Zk_Emer":"LUBONJE","Nr_Pas":"173/42-ND","Vol":5,"Faqe":43,"Pronaret":"TOMORR HAXHIRAJ SHASKE","Kufizimet":"TOMORR HAXHIRAJ SHASKE MUNGON MARREDHENIA ME TRUALLIN","Siperfaqe":195}},
{"type":"Feature","geometry":{"type":"Polygon","coordinates":[[[19.576748468735314,40.50977261330263],[19.576867754240258,40.509724214647804],[19.576889906466853,40.50975602093754],[19.57686594519189,40.509765742952546],[19.576906373044178,40.50982378942842],[19.576811048713825,40.509862466123295],[19.576748468735314,40.50977261330263]]]},"properties":{"Zk_Numer":2504,"Zk_Emer":"LUBONJE","Nr_Pas":"135/6-ND","Vol":5,"Faqe":44,"Pronaret":"VANGJEL TUSHAJ AZEM","Kufizimet":"VANGJEL TUSHAJ AZEM MUNGON MARREDHENIA ME TRUALLIN","Siperfaqe":113}},
{"type":"Feature","geometry":{"type":"Polygon","coordinates":[[[19.575138275493078,40.50782552897084],[19.57527468516582,40.507817078793316],[19.575286710568047,40.50793017324092],[19.575150300667424,40.50793862343132],[19.575138275493078,40.50782552897084]]]},"properties":{"Zk_Numer":2504,"Zk_Emer":"LUBONJE","Nr_Pas":"192/1-ND","Vol":5,"Faqe":45,"Pronaret":"VASIL DISHO THOMA","Kufizimet":"VASIL DISHO THOMA MUNGON MARREDHENIA ME TRUALLIN","Siperfaqe":146}},
{"type":"Feature","geometry":{"type":"Polygon","coordinates":[[[19.574570317671384,40.49904317150476],[19.57453546506569,40.499148837256136],[19.574433081187312,40.49912915772332],[19.57444546689001,40.499091607096986],[19.574403946345992,40.49908362627164],[19.574414315778824,40.4990521885405],[19.574455836304757,40.49906016936207],[19.574467933942923,40.49902349200321],[19.574570317671384,40.49904317150476]]]},"properties":{"Zk_Numer":2504,"Zk_Emer":"LUBONJE","Nr_Pas":"263/1-ND","Vol":5,"Faqe":46,"Pronaret":"MUSA MALAJ MEHMET","Kufizimet":"MUSA MALAJ MEHMET MUNGON MARREDHENIA ME TRUALLIN","Siperfaqe":121}},
{"type":"Feature","geometry":{"type":"Polygon","coordinates":[[[19.572782167457007,40.50931632887074],[19.572782954163447,40.509323508010056],[19.572783150840085,40.509325302794906],[19.57275206193655,40.50932728748369],[19.572756310168153,40.509366055125724],[19.572669600750707,40.50937159053505],[19.572658865159624,40.50927362064079],[19.572672714222495,40.50927273654009],[19.572682120078003,40.50927213608525],[19.57268762413696,40.50932236440855],[19.572782167457007,40.50931632887074]]]},"properties":{"Zk_Numer":null,"Zk_Emer":"","Nr_Pas":"","Vol":null,"Faqe":null,"Pronaret":"","Kufizimet":"","Siperfaqe":53}},
{"type":"Feature","geometry":{"type":"Polygon","coordinates":[[[19.572783150840085,40.509325302794906],[19.572782954163447,40.509323508010056],[19.572782167457007,40.50931632887074],[19.57286398402863,40.5093111057307],[19.572858267903772,40.50925894340636],[19.572867673755823,40.509258342936384],[19.572873927676586,40.50925794368541],[19.572883654776575,40.509346707807325],[19.572817267281916,40.50935094597413],[19.572814239741856,40.509323318097735],[19.572783150840085,40.509325302794906]]]},"properties":{"Zk_Numer":null,"Zk_Emer":"","Nr_Pas":"","Vol":null,"Faqe":null,"Pronaret":"","Kufizimet":"","Siperfaqe":33}},
{"type":"Feature","geometry":{"type":"Polygon","coordinates":[[[19.573817565741443,40.50955408298597],[19.573863125687215,40.50954953731193],[19.573868179954633,40.509579048498715],[19.5738226199892,40.509583594174636],[19.573817565741443,40.50955408298597]]]},"properties":{"Zk_Numer":null,"Zk_Emer":"","Nr_Pas":"","Vol":null,"Faqe":null,"Pronaret":"","Kufizimet":"","Siperfaqe":13}},
{"type":"Feature","geometry":{"type":"Polygon","coordinates":[[[19.572676365002042,40.50837227424403],[19.572676723916835,40.5083812753362],[19.57267756891061,40.50840246661581],[19.57255264807388,40.50840536850487],[19.572551825669915,40.50838474278663],[19.572533385745025,40.50838517113141],[19.572530845651038,40.50832312309125],[19.57257101047113,40.508322190090496],[19.572582803215933,40.5083219161506],[19.572584895877387,40.50837439906919],[19.572676365002042,40.50837227424403]]]},"properties":{"Zk_Numer":null,"Zk_Emer":"","Nr_Pas":"","Vol":null,"Faqe":null,"Pronaret":"","Kufizimet":"","Siperfaqe":63}},
{"type":"Feature","geometry":{"type":"Polygon","coordinates":[[[19.572377257964614,40.508274422936935],[19.572449996789235,40.508274692074366],[19.57244959647642,40.50833772815399],[19.572386296038772,40.50833749394137],[19.572376857583702,40.50833745901597],[19.572377257964614,40.508274422936935]]]},"properties":{"Zk_Numer":null,"Zk_Emer":"","Nr_Pas":"","Vol":null,"Faqe":null,"Pronaret":"","Kufizimet":"","Siperfaqe":43}},
{"type":"Feature","geometry":{"type":"Polygon","coordinates":[[[19.57244959647642,40.50833772815399],[19.572448979567806,40.508434870545486],[19.57237624057014,40.50843460140655],[19.57237648324469,40.508396394870275],[19.572376857583702,40.50833745901597],[19.572386296038772,40.50833749394137],[19.57244959647642,40.50833772815399]]]},"properties":{"Zk_Numer":null,"Zk_Emer":"","Nr_Pas":"","Vol":null,"Faqe":null,"Pronaret":"","Kufizimet":"","Siperfaqe":67}},
{"type":"Feature","geometry":{"type":"Polygon","coordinates":[[[19.573701197762844,40.50867265397786],[19.573696141311814,40.50862767069815],[19.57369513276043,40.50861869840042],[19.573759949859788,40.50861445374391],[19.57376601491383,40.50866840931825],[19.573701197762844,40.50867265397786]]]},"properties":{"Zk_Numer":null,"Zk_Emer":"","Nr_Pas":"","Vol":null,"Faqe":null,"Pronaret":"","Kufizimet":"","Siperfaqe":33}},
{"type":"Feature","geometry":{"type":"Polygon","coordinates":[[[19.573575672241077,40.50858132965238],[19.573625601358728,40.50857806002075],[19.573637356424292,40.5085772902316],[19.573642399142397,40.50862215172265],[19.57369513276043,40.50861869840042],[19.573696141311814,40.50862767069815],[19.573701197762844,40.50867265397786],[19.573618098504948,40.50867809581784],[19.573613673115275,40.50863872616685],[19.573582176466534,40.50864078874138],[19.573575672241077,40.50858132965238]]]},"properties":{"Zk_Numer":null,"Zk_Emer":"","Nr_Pas":"","Vol":null,"Faqe":null,"Pronaret":"","Kufizimet":"","Siperfaqe":73}},
{"type":"Feature","geometry":{"type":"Polygon","coordinates":[[[19.572395033579546,40.50906812349172],[19.572395537346924,40.50907409477],[19.57229959283264,40.509078699223046],[19.57229095228149,40.508977167739246],[19.57231724903631,40.50897590598901],[19.572326669358628,40.50897545398903],[19.572332604869768,40.50903985301419],[19.572392397402922,40.509036876227505],[19.57239300392996,40.509044065547414],[19.572395033579546,40.50906812349172]]]},"properties":{"Zk_Numer":null,"Zk_Emer":"","Nr_Pas":"","Vol":null,"Faqe":null,"Pronaret":"","Kufizimet":"","Siperfaqe":56}},
{"type":"Feature","geometry":{"type":"Polygon","coordinates":[[[19.57249034608666,40.508965078328295],[19.572453614663413,40.50896688366415],[19.572444195351707,40.50896734661793],[19.572438493791797,40.50890548697269],[19.57238303690461,40.50890824793738],[19.57238243987621,40.50890105814448],[19.57237994008606,40.50887095407753],[19.572482119545203,40.50886601097883],[19.57249034608666,40.508965078328295]]]},"properties":{"Zk_Numer":null,"Zk_Emer":"","Nr_Pas":"","Vol":null,"Faqe":null,"Pronaret":"","Kufizimet":"","Siperfaqe":63}},
{"type":"Feature","geometry":{"type":"Polygon","coordinates":[[[19.572682120078003,40.50927213608525],[19.572672714222495,40.50927273654009],[19.572658865159624,40.50927362064079],[19.57265276516752,40.5092179537568],[19.572682138949272,40.50921607858222],[19.57267729634847,40.50917188642504],[19.572728959309696,40.50916858832682],[19.572732953590435,40.50920503871288],[19.572767707861438,40.50920282003102],[19.57276953991574,40.50921953861542],[19.572770326619782,40.50922671775491],[19.572677790445354,40.50923262515868],[19.572682120078003,40.50927213608525]]]},"properties":{"Zk_Numer":null,"Zk_Emer":"","Nr_Pas":"","Vol":null,"Faqe":null,"Pronaret":"","Kufizimet":"","Siperfaqe":51}},
{"type":"Feature","geometry":{"type":"Polygon","coordinates":[[[19.572767707861438,40.50920282003102],[19.572799291830325,40.509200803729236],[19.572794942813076,40.50916111649798],[19.5728628420168,40.509156781823336],[19.572873927676586,40.50925794368541],[19.572867673755823,40.509258342936384],[19.572858267903772,40.50925894340636],[19.572854150103325,40.5092213664945],[19.572770326619782,40.50922671775491],[19.57276953991574,40.50921953861542],[19.572767707861438,40.50920282003102]]]},"properties":{"Zk_Numer":null,"Zk_Emer":"","Nr_Pas":"","Vol":null,"Faqe":null,"Pronaret":"","Kufizimet":"","Siperfaqe":54}},
{"type":"Feature","geometry":{"type":"Polygon","coordinates":[[[19.571913423606794,40.509428519726455],[19.571926511637695,40.509517826217],[19.57186641877916,40.50952295670174],[19.5718525013698,40.50942799034071],[19.571912594144475,40.5094228598627],[19.571913423606794,40.509428519726455]]]},"properties":{"Zk_Numer":null,"Zk_Emer":"","Nr_Pas":"","Vol":null,"Faqe":null,"Pronaret":"","Kufizimet":"","Siperfaqe":54}},
{"type":"Feature","geometry":{"type":"Polygon","coordinates":[[[19.575281082708795,40.50864113700121],[19.575257202133923,40.50854995624807],[19.575252062221587,40.508530331014676],[19.575309511687703,40.50852156533805],[19.575338532265935,40.508632371310775],[19.575281082708795,40.50864113700121]]]},"properties":{"Zk_Numer":null,"Zk_Emer":"","Nr_Pas":"","Vol":null,"Faqe":null,"Pronaret":"","Kufizimet":"","Siperfaqe":62}},
{"type":"Feature","geometry":{"type":"Polygon","coordinates":[[[19.575281082708795,40.50864113700121],[19.5752966374096,40.50870052778815],[19.575212098323966,40.50871342676004],[19.5751726632303,40.508562855192366],[19.57525720213392,40.50854995624807],[19.575281082708795,40.50864113700121]]]},"properties":{"Zk_Numer":null,"Zk_Emer":"","Nr_Pas":"","Vol":null,"Faqe":null,"Pronaret":"","Kufizimet":"","Siperfaqe":125}},
{"type":"Feature","geometry":{"type":"Polygon","coordinates":[[[19.574986180571603,40.50993904847788],[19.57498432621755,40.50991893087458],[19.575081339097586,40.509906438701954],[19.5751347563997,40.509899560216034],[19.57514223560257,40.50993178628928],[19.575085198305835,40.50994010414364],[19.575091238046205,40.510005627230086],[19.575081822518055,40.51000613283042],[19.57507519825987,40.50993426839367],[19.574986180571603,40.50993904847788]]]},"properties":{"Zk_Numer":null,"Zk_Emer":"","Nr_Pas":"","Vol":null,"Faqe":null,"Pronaret":"","Kufizimet":"","Siperfaqe":46}},
{"type":"Feature","geometry":{"type":"Polygon","coordinates":[[[19.575412007232508,40.51102992047453],[19.5754376210241,40.51099375355661],[19.575483240351737,40.51101257428499],[19.575440213475414,40.511073312260486],[19.575322992803052,40.511024937917334],[19.575340389448634,40.51100037375026],[19.575412007232508,40.51102992047453]]]},"properties":{"Zk_Numer":null,"Zk_Emer":"","Nr_Pas":"","Vol":null,"Faqe":null,"Pronaret":"","Kufizimet":"","Siperfaqe":55}},
{"type":"Feature","geometry":{"type":"Polygon","coordinates":[[[19.579504432771646,40.50714560966547],[19.579565088374057,40.507144633699625],[19.579566005378858,40.507177836648],[19.57946566682429,40.50717945110629],[19.579464749868965,40.50714624815738],[19.579464198079386,40.50712626784534],[19.57950388097029,40.507125629353546],[19.579504432771646,40.50714560966547]]]},"properties":{"Zk_Numer":null,"Zk_Emer":"","Nr_Pas":"","Vol":null,"Faqe":null,"Pronaret":"","Kufizimet":"","Siperfaqe":39}},
{"type":"Feature","geometry":{"type":"Polygon","coordinates":[[[19.5724887742404,40.50928007802692],[19.572415349965706,40.50928387300016],[19.572405932833274,40.50928435972632],[19.572400751597982,40.509225959289296],[19.572483592933512,40.509221677593196],[19.5724887742404,40.50928007802692]]]},"properties":{"Zk_Numer":null,"Zk_Emer":"","Nr_Pas":"","Vol":null,"Faqe":null,"Pronaret":"","Kufizimet":"","Siperfaqe":46}},
{"type":"Feature","geometry":{"type":"Polygon","coordinates":[[[19.572405932833274,40.50928435972632],[19.572415349965706,40.50928387300016],[19.5724887742404,40.50928007802692],[19.57249352100582,40.509333580497156],[19.5724106795331,40.5093378621996],[19.572405932833274,40.50928435972632]]]},"properties":{"Zk_Numer":null,"Zk_Emer":"","Nr_Pas":"","Vol":null,"Faqe":null,"Pronaret":"","Kufizimet":"","Siperfaqe":42}},
{"type":"Feature","geometry":{"type":"Polygon","coordinates":[[[19.571971389905837,40.50846108309195],[19.571972088114155,40.50847007347626],[19.571974400662697,40.50849985067622],[19.571917183065622,40.50850192437325],[19.571914209064595,40.50846304941096],[19.571971389905837,40.50846108309195]]]},"properties":{"Zk_Numer":null,"Zk_Emer":"","Nr_Pas":"","Vol":null,"Faqe":null,"Pronaret":"","Kufizimet":"","Siperfaqe":21}},
{"type":"Feature","geometry":{"type":"Polygon","coordinates":[[[19.57204401492831,40.50835405536756],[19.572047093166137,40.508421177330916],[19.57198016632379,40.5084230400949],[19.571976166877366,40.508355283464724],[19.57198795288379,40.50835487395805],[19.57204401492831,40.50835405536756]]]},"properties":{"Zk_Numer":null,"Zk_Emer":"","Nr_Pas":"","Vol":null,"Faqe":null,"Pronaret":"","Kufizimet":"","Siperfaqe":43}},
{"type":"Feature","geometry":{"type":"Polygon","coordinates":[[[19.571893111295847,40.508348772095836],[19.571870099151713,40.50834951365665],[19.571864144922902,40.50826061101087],[19.57195717726503,40.50825696620163],[19.572038889386725,40.50825485864797],[19.57204401492831,40.50835405536756],[19.57198795288379,40.50835487395805],[19.571976166877366,40.508355283464724],[19.571971769323877,40.50828078215599],[19.57188926563121,40.50828361927025],[19.571893111295847,40.508348772095836]]]},"properties":{"Zk_Numer":null,"Zk_Emer":"","Nr_Pas":"","Vol":null,"Faqe":null,"Pronaret":"","Kufizimet":"","Siperfaqe":102}},
{"type":"Feature","geometry":{"type":"Polygon","coordinates":[[[19.57249034608666,40.508965078328295],[19.572525702060478,40.508963340584145],[19.572533966185034,40.50906129502583],[19.572395033579546,40.50906812349172],[19.57239300392996,40.509044065547414],[19.572392397402922,40.509036876227505],[19.572450337985007,40.50903399161091],[19.572444195351707,40.50896734661793],[19.572453614663413,40.50896688366415],[19.57249034608666,40.508965078328295]]]},"properties":{"Zk_Numer":null,"Zk_Emer":"","Nr_Pas":"","Vol":null,"Faqe":null,"Pronaret":"","Kufizimet":"","Siperfaqe":92}},
{"type":"Feature","geometry":{"type":"Polygon","coordinates":[[[19.573637356424292,40.5085772902316],[19.573625601358728,40.50857806002075],[19.573575672241077,40.50858132965238],[19.573568800553204,40.508518511254906],[19.57363029662981,40.50851448414323],[19.573637356424292,40.5085772902316]]]},"properties":{"Zk_Numer":null,"Zk_Emer":"","Nr_Pas":"","Vol":null,"Faqe":null,"Pronaret":"","Kufizimet":"","Siperfaqe":37}},
{"type":"Feature","geometry":{"type":"Polygon","coordinates":[[[19.5739556842352,40.50855608279946],[19.573947895013067,40.50845313699253],[19.574038262762205,40.50844993651525],[19.574039337455986,40.50846761469339],[19.57403988432826,40.508476610466964],[19.574018516790847,40.508477473910766],[19.57402378486759,40.50855342458862],[19.57401200199963,40.50855388451892],[19.5739556842352,40.50855608279946]]]},"properties":{"Zk_Numer":null,"Zk_Emer":"","Nr_Pas":"","Vol":null,"Faqe":null,"Pronaret":"","Kufizimet":"","Siperfaqe":72}},
{"type":"Feature","geometry":{"type":"Polygon","coordinates":[[[19.5739556842352,40.50855608279946],[19.57401200199963,40.50855388451892],[19.57402378486759,40.50855342458862],[19.57402939777678,40.50863434659116],[19.573957410199963,40.5086370725529],[19.573952833276664,40.50855619408167],[19.5739556842352,40.50855608279946]]]},"properties":{"Zk_Numer":null,"Zk_Emer":"","Nr_Pas":"","Vol":null,"Faqe":null,"Pronaret":"","Kufizimet":"","Siperfaqe":55}},
{"type":"Feature","geometry":{"type":"Polygon","coordinates":[[[19.571913423606794,40.509428519726455],[19.57191250465848,40.509409427404336],[19.57191137373378,40.50938593098912],[19.571911027214604,40.50937873160451],[19.572028831117333,40.509375148395165],[19.57202920696729,40.509382346887726],[19.57203204939566,40.509433565355806],[19.571974621967275,40.50943561096696],[19.571974038368886,40.50942677380049],[19.571913423606794,40.509428519726455]]]},"properties":{"Zk_Numer":null,"Zk_Emer":"","Nr_Pas":"","Vol":null,"Faqe":null,"Pronaret":"","Kufizimet":"","Siperfaqe":60}},
{"type":"Feature","geometry":{"type":"Polygon","coordinates":[[[19.57297029555264,40.507799006349764],[19.573159708588758,40.50777677950459],[19.573171665877936,40.507836144300114],[19.57298265008624,40.50785832453001],[19.57297029555264,40.507799006349764]]]},"properties":{"Zk_Numer":null,"Zk_Emer":"","Nr_Pas":"","Vol":null,"Faqe":null,"Pronaret":"","Kufizimet":"","Siperfaqe":108}},
{"type":"Feature","geometry":{"type":"Polygon","coordinates":[[[19.57188975127844,40.49992856898051],[19.571889654072212,40.49992865939888],[19.57145771546114,40.49965800913124],[19.571517591859266,40.49960232385313],[19.571949621318275,40.499872879569374],[19.57188975127844,40.49992856898051]]]},"properties":{"Zk_Numer":null,"Zk_Emer":"","Nr_Pas":"","Vol":null,"Faqe":null,"Pronaret":"","Kufizimet":"","Siperfaqe":379}},
{"type":"Feature","geometry":{"type":"Polygon","coordinates":[[[19.57092170262691,40.500171978915766],[19.570808818848313,40.500092735888295],[19.57088867043685,40.50002644987783],[19.571001554199665,40.50010569282813],[19.57092170262691,40.500171978915766]]]},"properties":{"Zk_Numer":null,"Zk_Emer":"","Nr_Pas":"","Vol":null,"Faqe":null,"Pronaret":"","Kufizimet":"","Siperfaqe":130}},
{"type":"Feature","geometry":{"type":"Polygon","coordinates":[[[19.572257356312058,40.50866484519464],[19.57224793756933,40.50866531239967],[19.57220205064494,40.50866758855254],[19.57219461017083,40.50858222163782],[19.572407772014536,40.50857164790372],[19.572409640098066,40.508592658657356],[19.572251876326128,40.508600484449495],[19.572257356312058,40.50866484519464]]]},"properties":{"Zk_Numer":null,"Zk_Emer":"","Nr_Pas":"","Vol":null,"Faqe":null,"Pronaret":"","Kufizimet":"","Siperfaqe":76}},
{"type":"Feature","geometry":{"type":"Polygon","coordinates":[[[19.572414518070293,40.50864994736556],[19.572423937738407,40.50864949105241],[19.57244050791967,40.50864868834797],[19.572449337194303,40.50875238190413],[19.57226566139048,40.50876149306798],[19.572262204846364,40.508720897148805],[19.572419893228176,40.50871307509787],[19.572414518070293,40.50864994736556]]]},"properties":{"Zk_Numer":null,"Zk_Emer":"","Nr_Pas":"","Vol":null,"Faqe":null,"Pronaret":"","Kufizimet":"","Siperfaqe":86}},
{"type":"Feature","geometry":{"type":"Polygon","coordinates":[[[19.57495928954552,40.50974384157677],[19.574949874552352,40.50974435255408],[19.574927576955353,40.509745562702264],[19.57491948587603,40.50965871279533],[19.57510717561724,40.50964852625129],[19.575109984507094,40.50968770522434],[19.575051993208728,40.50969015188359],[19.57505292253122,40.50970013097856],[19.57495571011187,40.509705404932895],[19.57495928954552,40.50974384157677]]]},"properties":{"Zk_Numer":null,"Zk_Emer":"","Nr_Pas":"","Vol":null,"Faqe":null,"Pronaret":"","Kufizimet":"","Siperfaqe":92}},
{"type":"Feature","geometry":{"type":"Polygon","coordinates":[[[19.572254073272354,40.50834339943508],[19.572244634816617,40.50834336449887],[19.572209314554954,40.50834323375497],[19.572209730866312,40.50827387032027],[19.57225451439647,40.50827396867555],[19.572254073272354,40.50834339943508]]]},"properties":{"Zk_Numer":null,"Zk_Emer":"","Nr_Pas":"","Vol":null,"Faqe":null,"Pronaret":"","Kufizimet":"","Siperfaqe":29}},
{"type":"Feature","geometry":{"type":"Polygon","coordinates":[[[19.575091238046205,40.510005627230086],[19.575114776865995,40.51000436322588],[19.57511808901766,40.51004029544297],[19.575094550185362,40.51004155944778],[19.575097810425774,40.51007692859857],[19.57498996147138,40.51008271988548],[19.574983389205585,40.51001141851152],[19.57499280473513,40.51001091291922],[19.574998714592574,40.51007502784873],[19.575087732459927,40.510070247755884],[19.575081822518055,40.51000613283042],[19.575091238046205,40.510005627230086]]]},"properties":{"Zk_Numer":null,"Zk_Emer":"","Nr_Pas":"","Vol":null,"Faqe":null,"Pronaret":"","Kufizimet":"","Siperfaqe":27}},
{"type":"Feature","geometry":{"type":"Polygon","coordinates":[[[19.572376857583702,40.50833745901597],[19.57237648324469,40.508396394870275],[19.572253739454187,40.508395940606945],[19.572254073272354,40.50834339943508],[19.57225451439647,40.50827396867555],[19.572377257964614,40.508274422936935],[19.572376857583702,40.50833745901597]]]},"properties":{"Zk_Numer":null,"Zk_Emer":"","Nr_Pas":"","Vol":null,"Faqe":null,"Pronaret":"","Kufizimet":"","Siperfaqe":141}},
{"type":"Feature","geometry":{"type":"Polygon","coordinates":[[[19.575027817744328,40.50962367957948],[19.574936969591853,40.50962780240534],[19.57493144405969,40.509548618044626],[19.57486075371739,40.509551491706404],[19.57485657536489,40.509491612261655],[19.574927265644444,40.509488738602116],[19.574924318367426,40.50944650212065],[19.5750144756009,40.5094421880781],[19.575027817744328,40.50962367957948]]]},"properties":{"Zk_Numer":null,"Zk_Emer":"","Nr_Pas":"","Vol":null,"Faqe":null,"Pronaret":"","Kufizimet":"","Siperfaqe":195}},
{"type":"Feature","geometry":{"type":"Polygon","coordinates":[[[19.572047745546783,40.509220878394686],[19.572103512710918,40.509219182084216],[19.57210554688348,40.50925814094644],[19.572050701739983,40.50926052344708],[19.572047745546783,40.509220878394686]]]},"properties":{"Zk_Numer":null,"Zk_Emer":"","Nr_Pas":"","Vol":null,"Faqe":null,"Pronaret":"","Kufizimet":"","Siperfaqe":21}},
{"type":"Feature","geometry":{"type":"Polygon","coordinates":[[[19.572047745546783,40.509220878394686],[19.572050701739983,40.50926052344708],[19.57210554688348,40.50925814094644],[19.57211152491183,40.50937263304848],[19.572028831117333,40.509375148395165],[19.571911027214604,40.50937873160451],[19.57182515751237,40.509381343404],[19.571822056253875,40.50932194283717],[19.572044762690513,40.5093151688995],[19.572042601546485,40.50927377756692],[19.57201578138717,40.50927459336366],[19.572011963644005,40.50922196678465],[19.572047745546783,40.509220878394686]]]},"properties":{"Zk_Numer":null,"Zk_Emer":"","Nr_Pas":"","Vol":null,"Faqe":null,"Pronaret":"","Kufizimet":"","Siperfaqe":210}},
{"type":"Feature","geometry":{"type":"Polygon","coordinates":[[[19.578774585187546,40.50704815314299],[19.57876842873023,40.506998847602844],[19.578813058808834,40.506995600907146],[19.578814234138022,40.50700501378264],[19.578923460380647,40.506997067848275],[19.578938795854917,40.507119883445974],[19.578898863610807,40.507122788428084],[19.57889718454956,40.50710934146452],[19.57886899708671,40.50711139203143],[19.57886709415774,40.507096152138885],[19.57882363849236,40.5070993134154],[19.578815551398645,40.50704517298277],[19.578774585187546,40.50704815314299]]]},"properties":{"Zk_Numer":null,"Zk_Emer":"","Nr_Pas":"","Vol":null,"Faqe":null,"Pronaret":"","Kufizimet":"","Siperfaqe":135}},
{"type":"Feature","geometry":{"type":"Polygon","coordinates":[[[19.573733104466395,40.508951570056105],[19.573799878526902,40.50894989645415],[19.57380265825812,40.50901450730714],[19.57372268292181,40.509016511776316],[19.573719903267293,40.50895190092181],[19.573733104466395,40.508951570056105]]]},"properties":{"Zk_Numer":null,"Zk_Emer":"","Nr_Pas":"","Vol":null,"Faqe":null,"Pronaret":"","Kufizimet":"","Siperfaqe":49}},
{"type":"Feature","geometry":{"type":"Polygon","coordinates":[[[19.573733104466395,40.508951570056105],[19.57371990326729,40.5089519009218],[19.57367822957757,40.50895294539237],[19.573672926707978,40.50882968232855],[19.57379457543472,40.508826633394705],[19.573797903305532,40.50890398520697],[19.573799878526902,40.50894989645415],[19.573733104466395,40.508951570056105]]]},"properties":{"Zk_Numer":null,"Zk_Emer":"","Nr_Pas":"","Vol":null,"Faqe":null,"Pronaret":"","Kufizimet":"","Siperfaqe":141}},
{"type":"Feature","geometry":{"type":"Polygon","coordinates":[[[19.57051644737138,40.509407064322495],[19.570504756501535,40.50935908088535],[19.570710108104034,40.509329933252886],[19.570687647756763,40.50923774905912],[19.570746896237853,40.50922933924951],[19.570781047716103,40.50936950684417],[19.57051644737138,40.509407064322495]]]},"properties":{"Zk_Numer":null,"Zk_Emer":"","Nr_Pas":"","Vol":null,"Faqe":null,"Pronaret":"","Kufizimet":"","Siperfaqe":177}},
{"type":"Feature","geometry":{"type":"Polygon","coordinates":[[[19.573035445053588,40.506773845041245],[19.57307979440783,40.50676740714782],[19.57310221098243,40.50685737606751],[19.57305786157092,40.50686381396915],[19.573035445053588,40.506773845041245]]]},"properties":{"Zk_Numer":null,"Zk_Emer":"","Nr_Pas":"","Vol":null,"Faqe":null,"Pronaret":"","Kufizimet":"","Siperfaqe":39}},
{"type":"Feature","geometry":{"type":"Polygon","coordinates":[[[19.572061849798377,40.50870787753147],[19.572056800854707,40.5086683797615],[19.572127146629214,40.50866314105999],[19.572132195613815,40.508702638827145],[19.572061849798377,40.50870787753147]]]},"properties":{"Zk_Numer":null,"Zk_Emer":"","Nr_Pas":"","Vol":null,"Faqe":null,"Pronaret":"","Kufizimet":"","Siperfaqe":26}},
{"type":"Feature","geometry":{"type":"Polygon","coordinates":[[[19.57292846671981,40.508241397890075],[19.573023774716958,40.5082328746986],[19.57304807334453,40.50839116984192],[19.572952765126015,40.508399693052084],[19.57292846671981,40.508241397890075]]]},"properties":{"Zk_Numer":null,"Zk_Emer":"","Nr_Pas":"","Vol":null,"Faqe":null,"Pronaret":"","Kufizimet":"","Siperfaqe":144}},
{"type":"Feature","geometry":{"type":"Polygon","coordinates":[[[19.574599540674708,40.50797558815752],[19.57471296513769,40.50794976670865],[19.574758938415687,40.50806741759636],[19.57464551377134,40.50809323908892],[19.574599540674708,40.50797558815752]]]},"properties":{"Zk_Numer":null,"Zk_Emer":"","Nr_Pas":"","Vol":null,"Faqe":null,"Pronaret":"","Kufizimet":"","Siperfaqe":137}},
{"type":"Feature","geometry":{"type":"Polygon","coordinates":[[[19.574627020218447,40.50905806204651],[19.574611496679957,40.50887574677152],[19.574753495358145,40.508868702928154],[19.574769019279884,40.5090510181862],[19.574627020218447,40.50905806204651]]]},"properties":{"Zk_Numer":null,"Zk_Emer":"","Nr_Pas":"","Vol":null,"Faqe":null,"Pronaret":"","Kufizimet":"","Siperfaqe":245}},
{"type":"Feature","geometry":{"type":"Polygon","coordinates":[[[19.57523449516067,40.50884780416321],[19.575502968070598,40.508810396669745],[19.57552330434149,40.50889542487904],[19.575365325121844,40.508917436888254],[19.57537424609334,40.508954736759996],[19.57541407867879,40.508949186714894],[19.57543057848075,40.509018174492674],[19.575391873668398,40.50902356740042],[19.575400777365,40.509060794923016],[19.57545611768722,40.50905308411402],[19.575445699653248,40.50900952509417],[19.575550991578062,40.50899485423176],[19.575580130766248,40.50911668764968],[19.575307876085766,40.50915462207564],[19.57523449516067,40.50884780416321]]]},"properties":{"Zk_Numer":null,"Zk_Emer":"","Nr_Pas":"","Vol":null,"Faqe":null,"Pronaret":"","Kufizimet":"","Siperfaqe":655}},
{"type":"Feature","geometry":{"type":"Polygon","coordinates":[[[19.57598923932296,40.508948452643644],[19.576097038392454,40.50893207171033],[19.576100063426086,40.508943669033165],[19.576176020953763,40.50893212661231],[19.57619146619037,40.5089913399803],[19.57620329038851,40.50898954318354],[19.576213611590035,40.509029112133106],[19.576092355233364,40.50904753810079],[19.57608250664813,40.50900978078601],[19.57605878935651,40.509013384820584],[19.57606385803081,40.50903281703729],[19.576013250625625,40.50904050722483],[19.57598923932296,40.508948452643644]]]},"properties":{"Zk_Numer":null,"Zk_Emer":"","Nr_Pas":"","Vol":null,"Faqe":null,"Pronaret":"","Kufizimet":"","Siperfaqe":177}},
{"type":"Feature","geometry":{"type":"Polygon","coordinates":[[[19.57626543136043,40.50876644739538],[19.576264821082184,40.50876430793269],[19.576466671501016,40.50873076429242],[19.57648833813154,40.50880672047895],[19.576442266279525,40.50881437676484],[19.576439598745168,40.50880502524061],[19.5763997860283,40.50881164135828],[19.576409872417972,40.50884700108143],[19.576293906312845,40.508866272360734],[19.57626543136043,40.50876644739538]]]},"properties":{"Zk_Numer":null,"Zk_Emer":"","Nr_Pas":"","Vol":null,"Faqe":null,"Pronaret":"","Kufizimet":"","Siperfaqe":177}},
{"type":"Feature","geometry":{"type":"Polygon","coordinates":[[[19.57658972115549,40.50855826089487],[19.576586197123394,40.508544688534435],[19.576667076936257,40.50853245411552],[19.57666398118317,40.508520531267735],[19.576704042216015,40.508514471346565],[19.57671023758556,40.50853833186232],[19.576752452723806,40.508531946079394],[19.57677518056786,40.50861947852796],[19.576730803522732,40.50862619133688],[19.576728367571118,40.50861680966824],[19.576608568506675,40.50863493129252],[19.576611116601075,40.50864474492796],[19.57657321391741,40.508650478318756],[19.576550798610107,40.5085641485564],[19.57658972115549,40.50855826089487]]]},"properties":{"Zk_Numer":null,"Zk_Emer":"","Nr_Pas":"","Vol":null,"Faqe":null,"Pronaret":"","Kufizimet":"","Siperfaqe":180}},
{"type":"Feature","geometry":{"type":"Polygon","coordinates":[[[19.575409850593648,40.50796038534113],[19.57552291242444,40.507941922895576],[19.575556416207565,40.50806145485553],[19.575443354184653,40.5080799173325],[19.575409850593648,40.50796038534113]]]},"properties":{"Zk_Numer":null,"Zk_Emer":"","Nr_Pas":"","Vol":null,"Faqe":null,"Pronaret":"","Kufizimet":"","Siperfaqe":133}},
{"type":"Feature","geometry":{"type":"Polygon","coordinates":[[[19.57565013251281,40.508000711249316],[19.575774175993157,40.50798576852573],[19.575798419365363,40.508103014909864],[19.575674375673916,40.508117957658115],[19.57565013251281,40.508000711249316]]]},"properties":{"Zk_Numer":null,"Zk_Emer":"","Nr_Pas":"","Vol":null,"Faqe":null,"Pronaret":"","Kufizimet":"","Siperfaqe":140}},
{"type":"Feature","geometry":{"type":"Polygon","coordinates":[[[19.576355952860304,40.50914592030099],[19.57640663343634,40.50911925309409],[19.576429479109237,40.50914454710209],[19.57649050819929,40.509112434630055],[19.576518557783917,40.50914349018156],[19.57648269611605,40.5091623599945],[19.576500755704796,40.509182354953765],[19.576465354977916,40.50920098220828],[19.576437580035655,40.50917023071831],[19.576397132724733,40.50919151336827],[19.576355952860304,40.50914592030099]]]},"properties":{"Zk_Numer":null,"Zk_Emer":"","Nr_Pas":"","Vol":null,"Faqe":null,"Pronaret":"","Kufizimet":"","Siperfaqe":70}},
{"type":"Feature","geometry":{"type":"Polygon","coordinates":[[[19.575666690641242,40.509407362452826],[19.57572015618616,40.50940247196793],[19.57571802767117,40.509388915570625],[19.575806867258827,40.50938078937125],[19.575829182854175,40.50952291473406],[19.57568687743575,40.5095359314431],[19.575666690641242,40.509407362452826]]]},"properties":{"Zk_Numer":null,"Zk_Emer":"","Nr_Pas":"","Vol":null,"Faqe":null,"Pronaret":"","Kufizimet":"","Siperfaqe":186}},
{"type":"Feature","geometry":{"type":"Polygon","coordinates":[[[19.57577957707602,40.510057388724846],[19.575749580848388,40.51005408954634],[19.575745696937975,40.51007466111461],[19.575651150954634,40.510064262284594],[19.575671420086735,40.50995690520139],[19.575771175312514,40.5099678769771],[19.575765513524942,40.50999786535966],[19.57579030033573,40.510000591572194],[19.575781470004756,40.51004736258655],[19.57577957707602,40.510057388724846]]]},"properties":{"Zk_Numer":null,"Zk_Emer":"","Nr_Pas":"","Vol":null,"Faqe":null,"Pronaret":"","Kufizimet":"","Siperfaqe":115}},
{"type":"Feature","geometry":{"type":"Polygon","coordinates":[[[19.575781470004756,40.51004736258655],[19.57583025743325,40.5100527285251],[19.575823239472903,40.51008990017339],[19.57577445201808,40.51008453423175],[19.57577957707602,40.510057388724846],[19.575781470004756,40.51004736258655]]]},"properties":{"Zk_Numer":null,"Zk_Emer":"","Nr_Pas":"","Vol":null,"Faqe":null,"Pronaret":"","Kufizimet":"","Siperfaqe":17}},
{"type":"Feature","geometry":{"type":"Polygon","coordinates":[[[19.575281604014705,40.51096582902635],[19.575070890917416,40.51087037577469],[19.575130906242254,40.51079319849731],[19.575341619184965,40.51088865164003],[19.575281604014705,40.51096582902635]]]},"properties":{"Zk_Numer":null,"Zk_Emer":"","Nr_Pas":"","Vol":null,"Faqe":null,"Pronaret":"","Kufizimet":"","Siperfaqe":207}},
{"type":"Feature","geometry":{"type":"Polygon","coordinates":[[[19.57306392822519,40.50917509015171],[19.573163207381945,40.50916510369585],[19.57318553944491,40.50929452176233],[19.573086273876388,40.50930450685048],[19.57306392822519,40.50917509015171]]]},"properties":{"Zk_Numer":null,"Zk_Emer":"","Nr_Pas":"","Vol":null,"Faqe":null,"Pronaret":"","Kufizimet":"","Siperfaqe":123}},
{"type":"Feature","geometry":{"type":"Polygon","coordinates":[[[19.57304663224139,40.50902242366209],[19.572967076243017,40.50855907225532],[19.57307319437787,40.50854845753109],[19.573152751095336,40.5090118088693],[19.57304663224139,40.50902242366209]]]},"properties":{"Zk_Numer":null,"Zk_Emer":"","Nr_Pas":"","Vol":null,"Faqe":null,"Pronaret":"","Kufizimet":"","Siperfaqe":471}},
{"type":"Feature","geometry":{"type":"Polygon","coordinates":[[[19.571892604552016,40.509278339989834],[19.57201578138717,40.50927459336366],[19.57201671221852,40.50928742461568],[19.57189364087618,40.50929262579137],[19.571892604552016,40.509278339989834]]]},"properties":{"Zk_Numer":null,"Zk_Emer":"","Nr_Pas":"","Vol":null,"Faqe":null,"Pronaret":"","Kufizimet":"","Siperfaqe":16}},
{"type":"Feature","geometry":{"type":"Polygon","coordinates":[[[19.574111343080684,40.50944756264786],[19.574103116238035,40.50937486318677],[19.574535089774503,40.50934657278803],[19.574543317080703,40.50941927222107],[19.574111343080684,40.50944756264786]]]},"properties":{"Zk_Numer":null,"Zk_Emer":"","Nr_Pas":"","Vol":null,"Faqe":null,"Pronaret":"","Kufizimet":"","Siperfaqe":298}},
{"type":"Feature","geometry":{"type":"Polygon","coordinates":[[[19.573719903267293,40.50895190092181],[19.57372268292181,40.509016511776316],[19.573681009192114,40.509017556247684],[19.57367822957757,40.50895294539237],[19.573719903267293,40.50895190092181]]]},"properties":{"Zk_Numer":null,"Zk_Emer":"","Nr_Pas":"","Vol":null,"Faqe":null,"Pronaret":"","Kufizimet":"","Siperfaqe":25}},
{"type":"Feature","geometry":{"type":"Polygon","coordinates":[[[19.573799878526902,40.50894989645415],[19.573797903305532,40.50890398520697],[19.57384972464321,40.50890268634805],[19.573851699899897,40.508948597594525],[19.573799878526902,40.50894989645415]]]},"properties":{"Zk_Numer":null,"Zk_Emer":"","Nr_Pas":"","Vol":null,"Faqe":null,"Pronaret":"","Kufizimet":"","Siperfaqe":22}},
{"type":"Feature","geometry":{"type":"Polygon","coordinates":[[[19.57479552828646,40.50990683902931],[19.57484833068477,40.50989663386584],[19.574869620589812,40.509960806002354],[19.57478910922443,40.50997636649041],[19.574780388380002,40.50995007999853],[19.57480809728964,40.509944724685326],[19.57479552828646,40.50990683902931]]]},"properties":{"Zk_Numer":null,"Zk_Emer":"","Nr_Pas":"","Vol":null,"Faqe":null,"Pronaret":"","Kufizimet":"","Siperfaqe":41}},
{"type":"Feature","geometry":{"type":"Polygon","coordinates":[[[19.575521677777235,40.50976242496702],[19.575515832382045,40.50969776373623],[19.57543167356343,40.509702195828574],[19.57543743423241,40.50976592070815],[19.575428523789586,40.50976629044921],[19.575420592113105,40.509654935509126],[19.575503112109164,40.50965151129405],[19.575506203582766,40.50969491261797],[19.57554201192024,40.50969342671192],[19.57554685229538,40.5097613803219],[19.575521677777235,40.50976242496702]]]},"properties":{"Zk_Numer":null,"Zk_Emer":"","Nr_Pas":"","Vol":null,"Faqe":null,"Pronaret":"","Kufizimet":"","Siperfaqe":59}},
{"type":"Feature","geometry":{"type":"Polygon","coordinates":[[[19.575438826300015,40.50978131982944],[19.57544385561748,40.5098369543338],[19.57552801460391,40.509832522233545],[19.57552306986405,40.509777824087415],[19.575550830953873,40.50977667210921],[19.575556533652133,40.5098567315499],[19.575438840651536,40.509861615308836],[19.575433138092926,40.50978155586311],[19.575438826300015,40.50978131982944]]]},"properties":{"Zk_Numer":null,"Zk_Emer":"","Nr_Pas":"","Vol":null,"Faqe":null,"Pronaret":"","Kufizimet":"","Siperfaqe":45}},
{"type":"Feature","geometry":{"type":"Polygon","coordinates":[[[19.57518565321726,40.50962004804344],[19.57515639972004,40.509416473016884],[19.575246420378583,40.509408936986794],[19.57527567414514,40.509612511992195],[19.57518565321726,40.50962004804344]]]},"properties":{"Zk_Numer":null,"Zk_Emer":"","Nr_Pas":"","Vol":null,"Faqe":null,"Pronaret":"","Kufizimet":"","Siperfaqe":175}},
{"type":"Feature","geometry":{"type":"Polygon","coordinates":[[[19.576374125080225,40.50897628073748],[19.576448870649582,40.50891934404547],[19.57650294454314,40.50896069949645],[19.576428198972998,40.50901763622302],[19.576374125080225,40.50897628073748]]]},"properties":{"Zk_Numer":null,"Zk_Emer":"","Nr_Pas":"","Vol":null,"Faqe":null,"Pronaret":"","Kufizimet":"","Siperfaqe":58}},
{"type":"Feature","geometry":{"type":"Polygon","coordinates":[[[19.571991195376633,40.5091064148794],[19.571908601450435,40.50861515402705],[19.572002219810237,40.50860598438185],[19.5720848144095,40.509097245171496],[19.571991195376633,40.5091064148794]]]},"properties":{"Zk_Numer":null,"Zk_Emer":"","Nr_Pas":"","Vol":null,"Faqe":null,"Pronaret":"","Kufizimet":"","Siperfaqe":440}},
{"type":"Feature","geometry":{"type":"Polygon","coordinates":[[[19.5724106795331,40.5093378621996],[19.57241706609779,40.50940984829695],[19.572264037393484,40.50941775750254],[19.572259332890184,40.50936623526704],[19.572335847188278,40.50936228069238],[19.572319029950023,40.509171216483544],[19.572395544023202,40.50916726186809],[19.572400751597982,40.509225959289296],[19.572405932833274,40.50928435972632],[19.5724106795331,40.5093378621996]]]},"properties":{"Zk_Numer":null,"Zk_Emer":"","Nr_Pas":"","Vol":null,"Faqe":null,"Pronaret":"","Kufizimet":"","Siperfaqe":213}},
{"type":"Feature","geometry":{"type":"Polygon","coordinates":[[[19.572262204846364,40.508720897148805],[19.572257356312058,40.50866484519464],[19.572251876326128,40.508600484449495],[19.572409640098066,40.508592658657356],[19.572414518070293,40.50864994736556],[19.572419893228176,40.50871307509787],[19.572262204846364,40.508720897148805]]]},"properties":{"Zk_Numer":null,"Zk_Emer":"","Nr_Pas":"","Vol":null,"Faqe":null,"Pronaret":"","Kufizimet":"","Siperfaqe":180}},
{"type":"Feature","geometry":{"type":"Polygon","coordinates":[[[19.57998528570047,40.50791027109522],[19.58062210366284,40.50789581671079],[19.580624053665346,40.507945862088874],[19.579987235229844,40.50796031648156],[19.57998528570047,40.50791027109522]]]},"properties":{"Zk_Numer":null,"Zk_Emer":"","Nr_Pas":"","Vol":null,"Faqe":null,"Pronaret":"","Kufizimet":"","Siperfaqe":300}},
{"type":"Feature","geometry":{"type":"Polygon","coordinates":[[[19.57615462015673,40.509257190731155],[19.576230671469133,40.50919682180016],[19.576309764720655,40.5092548689281],[19.576233713412698,40.50931523791056],[19.57615462015673,40.509257190731155]]]},"properties":{"Zk_Numer":null,"Zk_Emer":"","Nr_Pas":"","Vol":null,"Faqe":null,"Pronaret":"","Kufizimet":"","Siperfaqe":86}},
{"type":"Feature","geometry":{"type":"Polygon","coordinates":[[[19.57402378486759,40.50855342458862],[19.574018516790847,40.508477473910766],[19.57403988432826,40.508476610466964],[19.57412427682403,40.50847320020005],[19.574135951838095,40.50864151665361],[19.574030191541056,40.50864579037355],[19.57402939777678,40.50863434659116],[19.57402378486759,40.50855342458862]]]},"properties":{"Zk_Numer":null,"Zk_Emer":"","Nr_Pas":"","Vol":null,"Faqe":null,"Pronaret":"","Kufizimet":"","Siperfaqe":168}},
{"type":"Feature","geometry":{"type":"Polygon","coordinates":[[[19.574364661543655,40.5087294861984],[19.57446008777141,40.50872301591396],[19.574518551085625,40.50922533235299],[19.574423124150638,40.50923180268157],[19.574364661543655,40.5087294861984]]]},"properties":{"Zk_Numer":null,"Zk_Emer":"","Nr_Pas":"","Vol":null,"Faqe":null,"Pronaret":"","Kufizimet":"","Siperfaqe":455}},
{"type":"Feature","geometry":{"type":"Polygon","coordinates":[[[19.57360407500418,40.50821516452469],[19.57370579072612,40.50820692649928],[19.573724477892046,40.50834134754986],[19.57362276196902,40.50834958559051],[19.57360407500418,40.50821516452469]]]},"properties":{"Zk_Numer":null,"Zk_Emer":"","Nr_Pas":"","Vol":null,"Faqe":null,"Pronaret":"","Kufizimet":"","Siperfaqe":130}},
{"type":"Feature","geometry":{"type":"Polygon","coordinates":[[[19.573973104546393,40.50820055857236],[19.574065785328873,40.5081969146929],[19.574076197206164,40.50835119539957],[19.57398351621171,40.5083548392862],[19.573973104546393,40.50820055857236]]]},"properties":{"Zk_Numer":null,"Zk_Emer":"","Nr_Pas":"","Vol":null,"Faqe":null,"Pronaret":"","Kufizimet":"","Siperfaqe":135}},
{"type":"Feature","geometry":{"type":"Polygon","coordinates":[[[19.574309040795058,40.50820176195067],[19.574398548930134,40.508197699893174],[19.574409052746706,40.508332540680534],[19.57431954443285,40.508336602745175],[19.574309040795058,40.50820176195067]]]},"properties":{"Zk_Numer":null,"Zk_Emer":"","Nr_Pas":"","Vol":null,"Faqe":null,"Pronaret":"","Kufizimet":"","Siperfaqe":114}},
{"type":"Feature","geometry":{"type":"Polygon","coordinates":[[[19.572676365002042,40.50837227424403],[19.572584895877387,40.50837439906919],[19.572582803215933,40.5083219161506],[19.57257893670179,40.50822494568699],[19.57272130174259,40.50822163851805],[19.572727261234057,40.508371091894595],[19.572676365002042,40.50837227424403]]]},"properties":{"Zk_Numer":null,"Zk_Emer":"","Nr_Pas":"","Vol":null,"Faqe":null,"Pronaret":"","Kufizimet":"","Siperfaqe":200}},
{"type":"Feature","geometry":{"type":"Polygon","coordinates":[[[19.575263603094378,40.51008423103507],[19.575337565569566,40.51005936494086],[19.575413662872094,40.510191223883595],[19.575339700279297,40.51021609002537],[19.575263603094378,40.51008423103507]]]},"properties":{"Zk_Numer":null,"Zk_Emer":"","Nr_Pas":"","Vol":null,"Faqe":null,"Pronaret":"","Kufizimet":"","Siperfaqe":110}},
{"type":"Feature","geometry":{"type":"Polygon","coordinates":[[[19.572643138944983,40.50889499416377],[19.572787727320677,40.50888779144085],[19.57279771726997,40.50900510875871],[19.572653128643168,40.5090123114927],[19.572643138944983,40.50889499416377]]]},"properties":{"Zk_Numer":null,"Zk_Emer":"","Nr_Pas":"","Vol":null,"Faqe":null,"Pronaret":"","Kufizimet":"","Siperfaqe":160}},
{"type":"Feature","geometry":{"type":"Polygon","coordinates":[[[19.572690701670943,40.50853227432597],[19.57269009261467,40.50851906469212],[19.572784420134514,40.50851653090766],[19.572793549299696,40.508714524046866],[19.57269922150265,40.5087170578373],[19.572694657052583,40.50861806126561],[19.572690701670943,40.50853227432597]]]},"properties":{"Zk_Numer":null,"Zk_Emer":"","Nr_Pas":"","Vol":null,"Faqe":null,"Pronaret":"","Kufizimet":"","Siperfaqe":176}},
{"type":"Feature","geometry":{"type":"Polygon","coordinates":[[[19.572690701670943,40.50853227432597],[19.572694657052583,40.50861806126561],[19.572635702262794,40.50861964484365],[19.572631746956215,40.5085338579024],[19.572690701670943,40.50853227432597]]]},"properties":{"Zk_Numer":null,"Zk_Emer":"","Nr_Pas":"","Vol":null,"Faqe":null,"Pronaret":"","Kufizimet":"","Siperfaqe":48}},
{"type":"Feature","geometry":{"type":"Polygon","coordinates":[[[19.57363029662981,40.50851448414323],[19.573723102894533,40.50850840660004],[19.573747847160377,40.5085067861757],[19.573754763229132,40.508568312681035],[19.573759949859788,40.50861445374391],[19.57369513276043,40.50861869840042],[19.573642399142397,40.50862215172265],[19.573637356424292,40.5085772902316],[19.57363029662981,40.50851448414323]]]},"properties":{"Zk_Numer":null,"Zk_Emer":"","Nr_Pas":"","Vol":null,"Faqe":null,"Pronaret":"","Kufizimet":"","Siperfaqe":120}},
{"type":"Feature","geometry":{"type":"Polygon","coordinates":[[[19.572326669358628,40.50897545398903],[19.572320760900457,40.50891134836517],[19.57238303690461,40.50890824793738],[19.572438493791797,40.50890548697269],[19.572444195351707,40.50896734661793],[19.57238676965647,40.50897016904127],[19.572392397402922,40.509036876227505],[19.572332604869768,40.50903985301419],[19.572326669358628,40.50897545398903]]]},"properties":{"Zk_Numer":null,"Zk_Emer":"","Nr_Pas":"","Vol":null,"Faqe":null,"Pronaret":"","Kufizimet":"","Siperfaqe":107}},
{"type":"Feature","geometry":{"type":"Polygon","coordinates":[[[19.57434057353139,40.50847366318812],[19.57442302345457,40.50847002447388],[19.574435963288625,40.50864083913532],[19.57435351315679,40.50864447785765],[19.57434057353139,40.50847366318812]]]},"properties":{"Zk_Numer":null,"Zk_Emer":"","Nr_Pas":"","Vol":null,"Faqe":null,"Pronaret":"","Kufizimet":"","Siperfaqe":133}},
{"type":"Feature","geometry":{"type":"Polygon","coordinates":[[[19.572682120078003,40.50927213608525],[19.572677790445354,40.50923262515868],[19.572770326619782,40.50922671775491],[19.572854150103325,40.5092213664945],[19.572858267903772,40.50925894340636],[19.57286398402863,40.5093111057307],[19.572782167457007,40.50931632887074],[19.57268762413696,40.50932236440855],[19.572682120078003,40.50927213608525]]]},"properties":{"Zk_Numer":null,"Zk_Emer":"","Nr_Pas":"","Vol":null,"Faqe":null,"Pronaret":"","Kufizimet":"","Siperfaqe":150}},
{"type":"Feature","geometry":{"type":"Polygon","coordinates":[[[19.57499280473513,40.51001091291922],[19.574986180571603,40.50993904847788],[19.57507519825987,40.50993426839367],[19.575081822518055,40.51000613283042],[19.57499280473513,40.51001091291922]]]},"properties":{"Zk_Numer":null,"Zk_Emer":"","Nr_Pas":"","Vol":null,"Faqe":null,"Pronaret":"","Kufizimet":"","Siperfaqe":61}},
{"type":"Feature","geometry":{"type":"Polygon","coordinates":[[[19.57495928954552,40.50974384157677],[19.57495571011187,40.509705404932895],[19.57505292253122,40.50970013097856],[19.575066431605258,40.50984519153097],[19.57498031131445,40.50984986371989],[19.5749692189773,40.509850465495475],[19.57495928954552,40.50974384157677]]]},"properties":{"Zk_Numer":null,"Zk_Emer":"","Nr_Pas":"","Vol":null,"Faqe":null,"Pronaret":"","Kufizimet":"","Siperfaqe":133}},
{"type":"Feature","geometry":{"type":"Polygon","coordinates":[[[19.574134647177985,40.508808966844505],[19.574171276686105,40.50923128966052],[19.574066501165042,40.50923659135829],[19.574027556831382,40.508788213097425],[19.574121736400787,40.50878344756145],[19.574119395036213,40.50875649095282],[19.574235942189315,40.50875059349779],[19.574240546966127,40.50880360815713],[19.574134647177985,40.508808966844505]]]},"properties":{"Zk_Numer":null,"Zk_Emer":"","Nr_Pas":"","Vol":null,"Faqe":null,"Pronaret":"","Kufizimet":"","Siperfaqe":500}},
{"type":"Feature","geometry":{"type":"Polygon","coordinates":[[[19.57543743423241,40.50976592070815],[19.57543167356343,40.509702195828574],[19.575515832382045,40.50969776373623],[19.575521677777235,40.50976242496702],[19.57543743423241,40.50976592070815]]]},"properties":{"Zk_Numer":null,"Zk_Emer":"","Nr_Pas":"","Vol":null,"Faqe":null,"Pronaret":"","Kufizimet":"","Siperfaqe":51}},
{"type":"Feature","geometry":{"type":"Polygon","coordinates":[[[19.57521676036207,40.50984553881391],[19.575192957363377,40.50966092224393],[19.575270452738067,40.509655101469555],[19.5752942559475,40.50983971802482],[19.57525105968966,40.50984296255562],[19.57521676036207,40.50984553881391]]]},"properties":{"Zk_Numer":null,"Zk_Emer":"","Nr_Pas":"","Vol":null,"Faqe":null,"Pronaret":"","Kufizimet":"","Siperfaqe":136}},
{"type":"Feature","geometry":{"type":"Polygon","coordinates":[[[19.571892604552016,40.509278339989834],[19.57186219912196,40.50927926480075],[19.57185944980578,40.509226605723846],[19.571888786904992,40.50922571340727],[19.571892604552016,40.509278339989834]]]},"properties":{"Zk_Numer":null,"Zk_Emer":"","Nr_Pas":"","Vol":null,"Faqe":null,"Pronaret":"","Kufizimet":"","Siperfaqe":15}},
{"type":"Feature","geometry":{"type":"Polygon","coordinates":[[[19.57095171315803,40.50192571285992],[19.570920872607623,40.50183879187061],[19.571034740663208,40.50181524976875],[19.571065581350343,40.50190217072872],[19.57095171315803,40.50192571285992]]]},"properties":{"Zk_Numer":null,"Zk_Emer":"","Nr_Pas":"","Vol":null,"Faqe":null,"Pronaret":"","Kufizimet":"","Siperfaqe":100}},
{"type":"Feature","geometry":{"type":"Polygon","coordinates":[[[19.57670482492036,40.50927012621794],[19.576660787615843,40.50929382596127],[19.576602369213454,40.50923058833738],[19.576646406496785,40.50920688861596],[19.57670482492036,40.50927012621794]]]},"properties":{"Zk_Numer":null,"Zk_Emer":"","Nr_Pas":"","Vol":null,"Faqe":null,"Pronaret":"","Kufizimet":"","Siperfaqe":39}},
{"type":"Feature","geometry":{"type":"Polygon","coordinates":[[[19.57692950312082,40.508900504868784],[19.576872001924816,40.508933239247376],[19.576820158615494,40.50888018514094],[19.576888856031808,40.5088410769683],[19.576912119136157,40.5088648833693],[19.576900922893575,40.508871257190904],[19.57692950312082,40.508900504868784]]]},"properties":{"Zk_Numer":null,"Zk_Emer":"","Nr_Pas":"","Vol":null,"Faqe":null,"Pronaret":"","Kufizimet":"","Siperfaqe":49}},
{"type":"Feature","geometry":{"type":"Polygon","coordinates":[[[19.577123153630716,40.50947404174555],[19.577080860593913,40.50950820691052],[19.57699762992749,40.509448184309484],[19.577039922968293,40.50941401917465],[19.577123153630716,40.50947404174555]]]},"properties":{"Zk_Numer":null,"Zk_Emer":"","Nr_Pas":"","Vol":null,"Faqe":null,"Pronaret":"","Kufizimet":"","Siperfaqe":51}},
{"type":"Feature","geometry":{"type":"Polygon","coordinates":[[[19.57746082860476,40.5086527701294],[19.577370932122403,40.50872658509096],[19.57733103819928,40.50869825276004],[19.577420981407652,40.50862447100978],[19.57746082860476,40.5086527701294]]]},"properties":{"Zk_Numer":null,"Zk_Emer":"","Nr_Pas":"","Vol":null,"Faqe":null,"Pronaret":"","Kufizimet":"","Siperfaqe":52}},
{"type":"Feature","geometry":{"type":"Polygon","coordinates":[[[19.577569036854474,40.50927848761992],[19.57747362901716,40.50933042734235],[19.577409856887304,40.509262183408154],[19.577505264676194,40.50921024373753],[19.577569036854474,40.50927848761992]]]},"properties":{"Zk_Numer":null,"Zk_Emer":"","Nr_Pas":"","Vol":null,"Faqe":null,"Pronaret":"","Kufizimet":"","Siperfaqe":92}},
{"type":"Feature","geometry":{"type":"Polygon","coordinates":[[[19.580566824149038,40.509831190996884],[19.580554117461972,40.50985215674636],[19.580502925731448,40.5098340823846],[19.580515632430945,40.509813116640764],[19.580566824149038,40.509831190996884]]]},"properties":{"Zk_Numer":null,"Zk_Emer":"","Nr_Pas":"","Vol":null,"Faqe":null,"Pronaret":"","Kufizimet":"","Siperfaqe":12}},
{"type":"Feature","geometry":{"type":"Polygon","coordinates":[[[19.576424187822063,40.51024957256666],[19.5765127993797,40.51028915690984],[19.576462354074266,40.51035494128905],[19.576373742460373,40.51031535690735],[19.576424187822063,40.51024957256666]]]},"properties":{"Zk_Numer":null,"Zk_Emer":"","Nr_Pas":"","Vol":null,"Faqe":null,"Pronaret":"","Kufizimet":"","Siperfaqe":74}},
{"type":"Feature","geometry":{"type":"Polygon","coordinates":[[[19.57508398268869,40.51014302969068],[19.5750649024314,40.51011008379298],[19.575116185208696,40.510092781968815],[19.575135265486328,40.51012572785825],[19.57508398268869,40.51014302969068]]]},"properties":{"Zk_Numer":null,"Zk_Emer":"","Nr_Pas":"","Vol":null,"Faqe":null,"Pronaret":"","Kufizimet":"","Siperfaqe":19}},
{"type":"Feature","geometry":{"type":"Polygon","coordinates":[[[19.575135265486328,40.51012572785825],[19.575188375423124,40.51021743252801],[19.575151336375626,40.510229928798324],[19.575101397630718,40.510246777155004],[19.575048287789954,40.51015507244621],[19.57508398268869,40.51014302969068],[19.575135265486328,40.51012572785825]]]},"properties":{"Zk_Numer":null,"Zk_Emer":"","Nr_Pas":"","Vol":null,"Faqe":null,"Pronaret":"","Kufizimet":"","Siperfaqe":90}},
{"type":"Feature","geometry":{"type":"Polygon","coordinates":[[[19.575151336375626,40.510229928798324],[19.575188375423124,40.51021743252801],[19.57519819822225,40.51021411849959],[19.57522012934854,40.51025198677944],[19.575173267480558,40.51026779708686],[19.575151336375626,40.510229928798324]]]},"properties":{"Zk_Numer":null,"Zk_Emer":"","Nr_Pas":"","Vol":null,"Faqe":null,"Pronaret":"","Kufizimet":"","Siperfaqe":20}},
{"type":"Feature","geometry":{"type":"Polygon","coordinates":[[[19.575066431605258,40.50984519153097],[19.575070646079418,40.509890446467494],[19.57498452573096,40.509895118659216],[19.57498031131445,40.50984986371989],[19.575066431605258,40.50984519153097]]]},"properties":{"Zk_Numer":null,"Zk_Emer":"","Nr_Pas":"","Vol":null,"Faqe":null,"Pronaret":"","Kufizimet":"","Siperfaqe":37}},
{"type":"Feature","geometry":{"type":"Polygon","coordinates":[[[19.57375725,40.50991488],[19.573767300862404,40.51002423549964],[19.573554859999998,40.51003561],[19.57354480948131,40.50992625448386],[19.57375725,40.50991488]]]},"properties":{"Zk_Numer":null,"Zk_Emer":"","Nr_Pas":"","Vol":null,"Faqe":null,"Pronaret":"","Kufizimet":"","Siperfaqe":220}},
{"type":"Feature","geometry":{"type":"Polygon","coordinates":[[[19.588691149689126,40.50428572244463],[19.588691885944154,40.50416519085841],[19.588757264497684,40.50416542352915],[19.588756528359678,40.50428595511635],[19.588691149689126,40.50428572244463]]]},"properties":{"Zk_Numer":null,"Zk_Emer":"","Nr_Pas":"","Vol":null,"Faqe":null,"Pronaret":"","Kufizimet":"","Siperfaqe":74}},
{"type":"Feature","geometry":{"type":"Polygon","coordinates":[[[19.569690674162686,40.50050720930884],[19.56979959288247,40.50057575173094],[19.569761282531882,40.50061122664919],[19.569652363794336,40.50054268419131],[19.569690674162686,40.50050720930884]]]},"properties":{"Zk_Numer":null,"Zk_Emer":"","Nr_Pas":"","Vol":null,"Faqe":null,"Pronaret":"","Kufizimet":"","Siperfaqe":61}},
{"type":"Feature","geometry":{"type":"Polygon","coordinates":[[[19.571563711564412,40.499559401081555],[19.57162358778698,40.49950371574668],[19.572055623301843,40.499774274987786],[19.571995747192037,40.49982996054448],[19.571563711564412,40.499559401081555]]]},"properties":{"Zk_Numer":null,"Zk_Emer":"","Nr_Pas":"","Vol":null,"Faqe":null,"Pronaret":"","Kufizimet":"","Siperfaqe":379}},
{"type":"Feature","geometry":{"type":"Polygon","coordinates":[[[19.571119141681006,40.5075139027328],[19.57186235645074,40.507369631263714],[19.57187980419819,40.507421995868874],[19.571136588885825,40.50756626744611],[19.571119141681006,40.5075139027328]]]},"properties":{"Zk_Numer":null,"Zk_Emer":"","Nr_Pas":"","Vol":null,"Faqe":null,"Pronaret":"","Kufizimet":"","Siperfaqe":390}},
{"type":"Feature","geometry":{"type":"Polygon","coordinates":[[[19.571880975776278,40.507455401356076],[19.572010892403487,40.50743256205575],[19.57209033300917,40.507695827270446],[19.571960415899337,40.507718666656594],[19.571880975776278,40.507455401356076]]]},"properties":{"Zk_Numer":null,"Zk_Emer":"","Nr_Pas":"","Vol":null,"Faqe":null,"Pronaret":"","Kufizimet":"","Siperfaqe":339}},
{"type":"Feature","geometry":{"type":"Polygon","coordinates":[[[19.571916766248066,40.50775624336445],[19.57193911047107,40.50782159402111],[19.571681113947946,40.507872985840756],[19.57165876995919,40.507807635135975],[19.571916766248066,40.50775624336445]]]},"properties":{"Zk_Numer":null,"Zk_Emer":"","Nr_Pas":"","Vol":null,"Faqe":null,"Pronaret":"","Kufizimet":"","Siperfaqe":169}},
{"type":"Feature","geometry":{"type":"Polygon","coordinates":[[[19.573711073710992,40.509330957518436],[19.573710888437247,40.50932916194057],[19.57376969824461,40.50932562678325],[19.573763167607773,40.50926233568591],[19.57369829439371,40.509266235323516],[19.573681719198984,40.509109490182055],[19.57379255992439,40.50910262056243],[19.57379907465675,40.50916316656724],[19.57391668071475,40.50915596885432],[19.573933655205693,40.50931754491913],[19.573711073710992,40.509330957518436]]]},"properties":{"Zk_Numer":null,"Zk_Emer":"","Nr_Pas":"","Vol":null,"Faqe":null,"Pronaret":"","Kufizimet":"","Siperfaqe":374}},
{"type":"Feature","geometry":{"type":"Polygon","coordinates":[[[19.573747462609276,40.509495939504546],[19.573744350127832,40.509405918254096],[19.573829269012425,40.50940420776648],[19.57393541761286,40.509402069569155],[19.573938530349707,40.509492090815826],[19.57383238160738,40.509494229015246],[19.573747462609276,40.509495939504546]]]},"properties":{"Zk_Numer":null,"Zk_Emer":"","Nr_Pas":"","Vol":null,"Faqe":null,"Pronaret":"","Kufizimet":"","Siperfaqe":162}},
{"type":"Feature","geometry":{"type":"Polygon","coordinates":[[[19.569833640986463,40.5071546387819],[19.569947858056793,40.5071683468708],[19.569837902808338,40.50770210446583],[19.5697236848568,40.50768839626499],[19.569833640986463,40.5071546387819]]]},"properties":{"Zk_Numer":null,"Zk_Emer":"","Nr_Pas":"","Vol":null,"Faqe":null,"Pronaret":"","Kufizimet":"","Siperfaqe":588}},
{"type":"Feature","geometry":{"type":"Polygon","coordinates":[[[19.571893111295847,40.508348772095836],[19.57188926563121,40.50828361927025],[19.571971769323877,40.50828078215599],[19.571976166877366,40.508355283464724],[19.57198016632379,40.5084230400949],[19.571968460726705,40.50842336589089],[19.571971389905837,40.50846108309195],[19.571914209064595,40.50846304941096],[19.57190543628945,40.50834837492398],[19.571893111295847,40.508348772095836]]]},"properties":{"Zk_Numer":null,"Zk_Emer":"","Nr_Pas":"","Vol":null,"Faqe":null,"Pronaret":"","Kufizimet":"","Siperfaqe":122}},
{"type":"Feature","geometry":{"type":"Polygon","coordinates":[[[19.571810714256664,40.508353417560706],[19.571881431783666,40.50835098580058],[19.571886741774257,40.50844094714382],[19.57181602415289,40.50844337890667],[19.571810714256664,40.508353417560706]]]},"properties":{"Zk_Numer":null,"Zk_Emer":"","Nr_Pas":"","Vol":null,"Faqe":null,"Pronaret":"","Kufizimet":"","Siperfaqe":60}},
{"type":"Feature","geometry":{"type":"Polygon","coordinates":[[[19.579786566861635,40.50716530724545],[19.579727648373577,40.507237430441876],[19.579847783642517,40.50729460748283],[19.57991331697477,40.50721438674983],[19.579977875060077,40.50724945021054],[19.579895793135442,40.507337497861116],[19.579708343940187,40.50723568823067],[19.579778195256907,40.50716076034971],[19.579786566861635,40.50716530724545]]]},"properties":{"Zk_Numer":null,"Zk_Emer":"","Nr_Pas":"","Vol":null,"Faqe":null,"Pronaret":"","Kufizimet":"","Siperfaqe":102}},
{"type":"Feature","geometry":{"type":"Polygon","coordinates":[[[19.581312188876083,40.50703971836987],[19.581412458730647,40.50710901010618],[19.581332518056914,40.50717640598275],[19.581232248185437,40.50710711417779],[19.581312188876083,40.50703971836987]]]},"properties":{"Zk_Numer":null,"Zk_Emer":"","Nr_Pas":"","Vol":null,"Faqe":null,"Pronaret":"","Kufizimet":"","Siperfaqe":116}},
{"type":"Feature","geometry":{"type":"Polygon","coordinates":[[[19.579786566861635,40.50716530724545],[19.579802557400058,40.50714573290337],[19.579922692570335,40.50720290986686],[19.57991331697477,40.50721438674983],[19.579835783656396,40.507172275949316],[19.57982355293403,40.507185395591485],[19.579786566861635,40.50716530724545]]]},"properties":{"Zk_Numer":null,"Zk_Emer":"","Nr_Pas":"","Vol":null,"Faqe":null,"Pronaret":"","Kufizimet":"","Siperfaqe":21}},
{"type":"Feature","geometry":{"type":"Polygon","coordinates":[[[19.571893111295847,40.508348772095836],[19.57190543628945,40.50834837492398],[19.571914209064595,40.50846304941096],[19.57189988563742,40.50846354195658],[19.571893111295847,40.508348772095836]]]},"properties":{"Zk_Numer":null,"Zk_Emer":"","Nr_Pas":"","Vol":null,"Faqe":null,"Pronaret":"","Kufizimet":"","Siperfaqe":14}},
{"type":"Feature","geometry":{"type":"Polygon","coordinates":[[[19.571971389905837,40.50846108309195],[19.571968460726705,40.50842336589089],[19.57198016632379,40.5084230400949],[19.57198238955026,40.508460704835954],[19.571971389905837,40.50846108309195]]]},"properties":{"Zk_Numer":null,"Zk_Emer":"","Nr_Pas":"","Vol":null,"Faqe":null,"Pronaret":"","Kufizimet":"","Siperfaqe":4}},
{"type":"Feature","geometry":{"type":"Polygon","coordinates":[[[19.573711073710992,40.509330957518436],[19.573705176118306,40.509331312897196],[19.57369829439371,40.509266235323516],[19.573763167607773,40.50926233568591],[19.57376969824461,40.50932562678325],[19.573710888437247,40.50932916194057],[19.573711073710992,40.509330957518436]]]},"properties":{"Zk_Numer":null,"Zk_Emer":"","Nr_Pas":"","Vol":null,"Faqe":null,"Pronaret":"","Kufizimet":"","Siperfaqe":39}},
{"type":"Feature","geometry":{"type":"Polygon","coordinates":[[[19.57499280473513,40.51001091291922],[19.575081822518055,40.51000613283042],[19.575087732459927,40.510070247755884],[19.574998714592574,40.51007502784873],[19.57499280473513,40.51001091291922]]]},"properties":{"Zk_Numer":null,"Zk_Emer":"","Nr_Pas":"","Vol":null,"Faqe":null,"Pronaret":"","Kufizimet":"","Siperfaqe":54}},
{"type":"Feature","geometry":{"type":"Polygon","coordinates":[[[19.571888786904992,40.50922571340727],[19.57188757128942,40.50920895602888],[19.572010642479157,40.5092037548588],[19.572011963644005,40.50922196678465],[19.571888786904992,40.50922571340727]]]},"properties":{"Zk_Numer":null,"Zk_Emer":"","Nr_Pas":"","Vol":null,"Faqe":null,"Pronaret":"","Kufizimet":"","Siperfaqe":20}},
{"type":"Feature","geometry":{"type":"Polygon","coordinates":[[[19.572011963644005,40.50922196678465],[19.57201578138717,40.50927459336366],[19.571892604552016,40.509278339989834],[19.571888786904992,40.50922571340727],[19.572011963644005,40.50922196678465]]]},"properties":{"Zk_Numer":null,"Zk_Emer":"","Nr_Pas":"","Vol":null,"Faqe":null,"Pronaret":"","Kufizimet":"","Siperfaqe":61}},
{"type":"Feature","geometry":{"type":"Polygon","coordinates":[[[19.575438826300015,40.50978131982944],[19.57543743423241,40.50976592070815],[19.575521677777235,40.50976242496702],[19.57552306986405,40.509777824087415],[19.575438826300015,40.50978131982944]]]},"properties":{"Zk_Numer":null,"Zk_Emer":"","Nr_Pas":"","Vol":null,"Faqe":null,"Pronaret":"","Kufizimet":"","Siperfaqe":12}},
{"type":"Feature","geometry":{"type":"Polygon","coordinates":[[[19.575438826300015,40.50978131982944],[19.57552306986405,40.509777824087415],[19.57552801460391,40.509832522233545],[19.57544385561748,40.5098369543338],[19.575438826300015,40.50978131982944]]]},"properties":{"Zk_Numer":null,"Zk_Emer":"","Nr_Pas":"","Vol":null,"Faqe":null,"Pronaret":"","Kufizimet":"","Siperfaqe":44}},
{"type":"Feature","geometry":{"type":"Polygon","coordinates":[[[19.573723102894533,40.50850840660004],[19.573718841377797,40.508470495255466],[19.573787544574635,40.50846599608518],[19.57379180612982,40.508503907427446],[19.573747847160377,40.5085067861757],[19.573723102894533,40.50850840660004]]]},"properties":{"Zk_Numer":null,"Zk_Emer":"","Nr_Pas":"","Vol":null,"Faqe":null,"Pronaret":"","Kufizimet":"","Siperfaqe":25}},
{"type":"Feature","geometry":{"type":"Polygon","coordinates":[[[19.57367822957757,40.50895294539237],[19.573681009192114,40.509017556247684],[19.57372268292181,40.509016511776316],[19.57372379607432,40.50904238608803],[19.573575120707442,40.50904611227897],[19.573571228100114,40.508955627108826],[19.57367822957757,40.50895294539237]]]},"properties":{"Zk_Numer":null,"Zk_Emer":"","Nr_Pas":"","Vol":null,"Faqe":null,"Pronaret":"","Kufizimet":"","Siperfaqe":101}},
{"type":"Feature","geometry":{"type":"Polygon","coordinates":[[[19.57583144804237,40.508616114345095],[19.57578072106914,40.508620721819256],[19.57577249542423,40.50856796184525],[19.575823224736858,40.50856335416275],[19.57583144804237,40.508616114345095]]]},"properties":{"Zk_Numer":null,"Zk_Emer":"","Nr_Pas":"","Vol":null,"Faqe":null,"Pronaret":"","Kufizimet":"","Siperfaqe":26}},
{"type":"Feature","geometry":{"type":"Polygon","coordinates":[[[19.57583144804237,40.508616114345095],[19.575838865012678,40.50866368711273],[19.575869965417372,40.50866086228925],[19.575877976356864,40.508712244574184],[19.575846875928733,40.50871506939966],[19.575841605814258,40.508681266715605],[19.57579087879189,40.508685874189645],[19.57578072106914,40.508620721819256],[19.57583144804237,40.508616114345095]]]},"properties":{"Zk_Numer":null,"Zk_Emer":"","Nr_Pas":"","Vol":null,"Faqe":null,"Pronaret":"","Kufizimet":"","Siperfaqe":47}},
{"type":"Feature","geometry":{"type":"Polygon","coordinates":[[[19.57521676036207,40.50984553881391],[19.57525105968966,40.50984296255562],[19.575257547416882,40.50989328113719],[19.575193221306392,40.5098981127297],[19.575186733626843,40.509847794144804],[19.57521676036207,40.50984553881391]]]},"properties":{"Zk_Numer":null,"Zk_Emer":"","Nr_Pas":"","Vol":null,"Faqe":null,"Pronaret":"","Kufizimet":"","Siperfaqe":31}},
{"type":"Feature","geometry":{"type":"Polygon","coordinates":[[[19.573765456377924,40.50964739260598],[19.57383899541868,40.509643237781866],[19.573860993928573,40.50987006653324],[19.573787454641153,40.50987422136993],[19.573765456377924,40.50964739260598]]]},"properties":{"Zk_Numer":null,"Zk_Emer":"","Nr_Pas":"","Vol":null,"Faqe":null,"Pronaret":"","Kufizimet":"","Siperfaqe":158}}
]}